placeId,address,sub_channel,phone,latitude,longitude,googleUrl,outlet_name
J3fOz_iFofDkR3zp5FxuhG6k," 34-39, Lalwani Press Rd, Itwara, Azad Market, Peer Gate Area, Bhopal, Madhya Pradesh 462001 Located in: lalwani Press road Bhopal MP",Discount supermarket, 0755 492 1222,23.2605282,77.4032467,https://www.google.com/maps/place/Batra+Wholesale+Mart/data=!4m7!3m6!1s0x397c6821feb3f3dd:0xa91ba11b17793adf!8m2!3d23.2605282!4d77.4032467!16s%2Fg%2F11csrfgpmy!19sChIJ3fOz_iFofDkR3zp5FxuhG6k?authuser=0&hl=en&rclk=1,Batra Wholesale Mart
JAS_cjOJnfDkRZ4fDwlaXIRc," Plot No B-6, beside Honda Showroom, Kohefiza, Sector-B, Bhopal, Madhya Pradesh 462001",Supermarket, 0755 470 0508,23.2659327,77.3795823,https://www.google.com/maps/place/Reliance+Fresh/data=!4m7!3m6!1s0x397c67e28cdc2f01:0x17219756c2c38767!8m2!3d23.2659327!4d77.3795823!16s%2Fg%2F1tdp80lg!19sChIJAS_cjOJnfDkRZ4fDwlaXIRc?authuser=0&hl=en&rclk=1,Reliance Fresh
JSxrO8p9CfDkR6tTF7HDPrDo," Shop No.3, Ginnori Rd, Chobdarpura, Ginnori, Budhwara, Bhopal, Madhya Pradesh 462001",Supermarket, 098260 54117,23.2511185,77.4018507,https://www.google.com/maps/place/Adi+Bazaar+supermarkert/data=!4m7!3m6!1s0x397c429ff2ce1a4b:0x3aaccf70ecc5d4ea!8m2!3d23.2511185!4d77.4018507!16s%2Fg%2F1q64tbdjl!19sChIJSxrO8p9CfDkR6tTF7HDPrDo?authuser=0&hl=en&rclk=1,Adi Bazaar supermarkert
JbZef2bppfDkRqtSyuMla6Jg," Talliya road masjid ghulam mehboob House no.7 hathi khana, road, Budhwara, Bhopal, Madhya Pradesh 462001",Grocery store, 093298 29551,23.2531496,77.4039922,https://www.google.com/maps/place/EASY+MART/data=!4m7!3m6!1s0x397c69bad99f976d:0x98e85ac9b8b2d4aa!8m2!3d23.2531496!4d77.4039922!16s%2Fg%2F11qntfnxfn!19sChIJbZef2bppfDkRqtSyuMla6Jg?authuser=0&hl=en&rclk=1,EASY MART
JHXeivxNofDkRODPawAYg-yA," 58, Regiment Rd, Niyamatpura, Shahjahanabad, Bhopal, Madhya Pradesh 462001",Grocery store, 098934 01893,23.2710305,77.393991,https://www.google.com/maps/place/Jain+Super+Bazaar/data=!4m7!3m6!1s0x397c6813bfa2771d:0x20fb2006c0da3338!8m2!3d23.2710305!4d77.393991!16s%2Fg%2F11bbrkpk1r!19sChIJHXeivxNofDkRODPawAYg-yA?authuser=0&hl=en&rclk=1,Jain Super Bazaar
JcX8LSRFofDkR9y3hVqdAxcw," 25, Thana Rd, near adarsh hospital, Kali Basti, Peer Gate Area, Bhopal, Madhya Pradesh 462001",Grocery store, 093020 02009,23.2597145,77.3955872,https://www.google.com/maps/place/Guru+Kripa+Super+Store/data=!4m7!3m6!1s0x397c6811490b7f71:0xccc540a756e12df7!8m2!3d23.2597145!4d77.3955872!16s%2Fg%2F11csccfp5p!19sChIJcX8LSRFofDkR9y3hVqdAxcw?authuser=0&hl=en&rclk=1,Guru Kripa Super Store
JKysdIbxCfDkRJDaV4XNZ69c," MIG-2, Bhadbhada Rd, Old MIG Quarters, North TT Nagar, TT Nagar, Bhopal, Madhya Pradesh 462003",Grocery store, 0755 277 9739,23.2347728,77.3972652,https://www.google.com/maps/place/Bajrang+Super+Bazar/data=!4m7!3m6!1s0x397c42bc211d2b2b:0xd7eb5973e1953624!8m2!3d23.2347728!4d77.3972652!16s%2Fg%2F11c325sfzj!19sChIJKysdIbxCfDkRJDaV4XNZ69c?authuser=0&hl=en&rclk=1,Bajrang Super Bazar
JAeGE2xNofDkRb2lkgx9H8V4," 1/2 -39, near Thakkar Baba Colony, Badabagh, Shahjahanabad, Bhopal, Madhya Pradesh 462001",Grocery store, 078989 97911,23.2699029,77.393799,https://www.google.com/maps/place/Earn+Foods/data=!4m7!3m6!1s0x397c6813db84e101:0x5ef1471f8364696f!8m2!3d23.2699029!4d77.393799!16s%2Fg%2F11c466lv1g!19sChIJAeGE2xNofDkRb2lkgx9H8V4?authuser=0&hl=en&rclk=1,Earn Foods
J8TC0hCJofDkR4jCgnKODlN4," Jumerati Rd, Jawahar Chowk, Jumerati, Peer Gate Area, Bhopal, Madhya Pradesh 462001",Indian grocery store, 086026 03669,23.262098,77.4017793,https://www.google.com/maps/place/Bhawani+Kirana+Store/data=!4m7!3m6!1s0x397c682284b430f1:0xde9483a39ca030e2!8m2!3d23.262098!4d77.4017793!16s%2Fg%2F11bbrc7m36!19sChIJ8TC0hCJofDkR4jCgnKODlN4?authuser=0&hl=en&rclk=1,Bhawani Kirana Store
JIYQ47yBofDkRLHxBz90qm1U," Sultania Road, Chaar Batti Square, Char Batti Chowraha, Budhwara, Bhopal, Madhya Pradesh 462001",Indian grocery store, 079879 00262,23.2548995,77.405202,https://www.google.com/maps/place/Ram+Shyam+Kirana+%26+General+Store/data=!4m7!3m6!1s0x397c6820ef388421:0x559b2addcf417c2c!8m2!3d23.2548995!4d77.405202!16s%2Fg%2F124yl5cc5!19sChIJIYQ47yBofDkRLHxBz90qm1U?authuser=0&hl=en&rclk=1,Ram Shyam Kirana & General Store
J003tVjxofDkRcdiQTmnN_zk," 121, near Seetla Mata Mandir, Shanti Nagar, Ibrahimganj, Bhopal, Madhya Pradesh 462001",Grocery store, 099814 20465,23.2690559,77.4043894,https://www.google.com/maps/place/Ravi+Kirana/data=!4m7!3m6!1s0x397c683c56ed4dd3:0x39ffcd694e90d871!8m2!3d23.2690559!4d77.4043894!16s%2Fg%2F1q6kk8r82!19sChIJ003tVjxofDkRcdiQTmnN_zk?authuser=0&hl=en&rclk=1,Ravi Kirana
Ju-s6iyBdfDkRUbNP_DUdC2Q," 6935+F9H, Bhadbhada Rd, Bharkhera Kala, Kopal, Bhopal, Madhya Pradesh 462044",Grocery store, 098276 06171,23.2036768,77.3584882,https://www.google.com/maps/place/Raju+Kirana+Store/data=!4m7!3m6!1s0x397c5d208b3aebbb:0x640b1d35fc4fb351!8m2!3d23.2036768!4d77.3584882!16s%2Fg%2F1q67kqjhk!19sChIJu-s6iyBdfDkRUbNP_DUdC2Q?authuser=0&hl=en&rclk=1,Raju Kirana Store
JNVb_A71DfDkRpM24UMRc-QU," LG-29, Dainik Bhaskar Mall, Narmadapuram Rd, DB City Mall, Zone-I, Maharana Pratap Nagar, Bhopal, Madhya Pradesh 462011 Located in: DB City Mall",Hypermarket, 1800 891 0001,23.2323788,77.4302216,https://www.google.com/maps/place/Reliance+SMART+Bazaar/data=!4m7!3m6!1s0x397c43bd03ff5635:0x5f95cc450b8cda4!8m2!3d23.2323788!4d77.4302216!16s%2Fg%2F11syz76zbd!19sChIJNVb_A71DfDkRpM24UMRc-QU?authuser=0&hl=en&rclk=1,Reliance SMART Bazaar
JIc6iIvFDfDkRhtoA0UAYVr8," E 4/23, 10 No Stop Market, opp. Arya Samaj Temple, Arera Colony, Bhopal, Madhya Pradesh 462016",Gourmet grocery store, 081098 57981,23.2130436,77.436192,https://www.google.com/maps/place/Brown+Bascaed/data=!4m7!3m6!1s0x397c43f122a2ce21:0xbf561840d100da86!8m2!3d23.2130436!4d77.436192!16s%2Fg%2F11ll3wcw64!19sChIJIc6iIvFDfDkRhtoA0UAYVr8?authuser=0&hl=en&rclk=1,Brown Bascaed
JwwDeovhpfDkRbt8rKKN4vLs," LIG 308 B Sector, behind Tanatan Dhabha, Bhavna Nagar, Rajeev Nagar, Ayodhya Bypass, Bhopal, Madhya Pradesh 462041",Indian grocery store, 097133 96787,23.2651819,77.4695691,https://www.google.com/maps/place/Rohit+Kirana+And+General+Stores/data=!4m7!3m6!1s0x397c69f8a2de00c3:0xbbbc78a3282bdf6e!8m2!3d23.2651819!4d77.4695691!16s%2Fg%2F11c6f66lyh!19sChIJwwDeovhpfDkRbt8rKKN4vLs?authuser=0&hl=en&rclk=1,Rohit Kirana And General Stores
JP7KzTcNCfDkRB6HOOQB9o34," Unnamed Road, Chitragupt Nagar, Kotra Sultanabad, Bhopal, Madhya Pradesh 462003",Grocery store, 0755 404 2100,23.2175716,77.396707,https://www.google.com/maps/place/Ondoor/data=!4m7!3m6!1s0x397c42c34db3b23f:0x7ea37d0039cea107!8m2!3d23.2175716!4d77.396707!16s%2Fg%2F11hd2362gq!19sChIJP7KzTcNCfDkRB6HOOQB9o34?authuser=0&hl=en&rclk=1,Ondoor
Jd1BVHhpofDkRFL1p6qaz2qY," 796W+Q4W, Thana Rd, Near Noor Mahal Gate, Old dainik Jagran Press, Kali Basti, Peer Gate Area, Bhopal, Madhya Pradesh 462001",Grocery store, 093006 97062,23.2619755,77.3953339,https://www.google.com/maps/place/Noor+Kirana+%26+General+Store/data=!4m7!3m6!1s0x397c681a1e555077:0xa6dab3a6ea69bd14!8m2!3d23.2619755!4d77.3953339!16s%2Fg%2F1q69m_flt!19sChIJd1BVHhpofDkRFL1p6qaz2qY?authuser=0&hl=en&rclk=1,Noor Kirana & General Store
J7bXVuA5pfDkR4AIT_P5R1UQ," Berasia Rd, near reliance petrol pump, Congress Nagar, Raj Deo Colony, Qazi Camp, Bhopal, Madhya Pradesh 462001",Hypermarket, 0124 455 5100,23.274281,77.4026636,https://www.google.com/maps/place/Vishal+Mega+Mart/data=!4m7!3m6!1s0x397c690eb8d5b5ed:0x44d551fefc1302e0!8m2!3d23.274281!4d77.4026636!16s%2Fg%2F11pxnc1zv8!19sChIJ7bXVuA5pfDkR4AIT_P5R1UQ?authuser=0&hl=en&rclk=1,Vishal Mega Mart
Ji30rJD1ofDkRgS8Ku6Y4A7s," Sharma Building, Hamidia Rd, near Nadra Bus Stand, Bal Vihar, Ibrahimganj, Bhopal, Madhya Pradesh 462001",Indian grocery store, 089895 44133,23.2654303,77.4032446,https://www.google.com/maps/place/Patanjali+Chikitsalay/data=!4m7!3m6!1s0x397c683d242b7d8b:0xbb0338a6bb0a2f81!8m2!3d23.2654303!4d77.4032446!16s%2Fg%2F11d_bhmlkm!19sChIJi30rJD1ofDkRgS8Ku6Y4A7s?authuser=0&hl=en&rclk=1,Patanjali Chikitsalay
JV3MluLxDfDkRzSxQbRZuWAk," Plot No. 2 E-8, Gulmohar Main Road, Naveen Nagar, Darsanchar, Madhya Pradesh 462039",Grocery store, 0755 407 7161,23.1897802,77.4359479,https://www.google.com/maps/place/Shri+Hith+Balaji+Super+Bazar/data=!4m7!3m6!1s0x397c43bcb8257357:0x9586e166d502ccd!8m2!3d23.1897802!4d77.4359479!16s%2Fg%2F1q64b3hnc!19sChIJV3MluLxDfDkRzSxQbRZuWAk?authuser=0&hl=en&rclk=1,Shri Hith Balaji Super Bazar
JVXlEex1DfDkRM9qpqAPPq6k," Opposite Habibganj Police Station, Board Colony, Char Imli, Bhopal, Madhya Pradesh 462016",Market, 075665 25509,23.2159902,77.4297288,https://www.google.com/maps/place/Bittan+Market/data=!4m7!3m6!1s0x397c431d7b447955:0xa9abcf03a8a9da33!8m2!3d23.2159902!4d77.4297288!16s%2Fg%2F11h4cnbvl7!19sChIJVXlEex1DfDkRM9qpqAPPq6k?authuser=0&hl=en&rclk=1,Bittan Market
JwU8e0cRCfDkRqHeRxA3uIf8," Shop No. 7, 8, Shopping Complex, Main Rd No. 3, Kamla Nagar, Kotra Sultanabad, Bhopal, Madhya Pradesh 462003",Grocery store, 098935 41534,23.2171851,77.3932148,https://www.google.com/maps/place/Shankar+Super+Bazaar/data=!4m7!3m6!1s0x397c42c4d11e4fc1:0xff21ee0dc49177a8!8m2!3d23.2171851!4d77.3932148!16s%2Fg%2F11bbtq3dtj!19sChIJwU8e0cRCfDkRqHeRxA3uIf8?authuser=0&hl=en&rclk=1,Shankar Super Bazaar
JicYjBr5CfDkR_4_j01aKS7E," Shop No 9, 10, near Police station, New Market, STT Nagar, TT Nagar, Bhopal, Madhya Pradesh 462003",Grocery store, 0755 255 4206,23.2347207,77.4005966,https://www.google.com/maps/place/Bajrang+Kirana+Store/data=!4m7!3m6!1s0x397c42be0623c689:0xb14b8a56d3e38fff!8m2!3d23.2347207!4d77.4005966!16s%2Fg%2F124sx042x!19sChIJicYjBr5CfDkR_4_j01aKS7E?authuser=0&hl=en&rclk=1,Bajrang Kirana Store
JpSd5-QVDfDkRch4K7nQZFrQ," Manokaameswari Devi street, near Nehru nagar, C Sector, Vaishali Nagar, Bhopal, Madhya Pradesh 462003",Indian grocery store, 077708 52585,23.2122035,77.3948633,https://www.google.com/maps/place/Saurabh+kirana+%26+general+Store/data=!4m7!3m6!1s0x397c4305f97927a5:0xb4161974ee0a1e72!8m2!3d23.2122035!4d77.3948633!16s%2Fg%2F11l5y5sg1w!19sChIJpSd5-QVDfDkRch4K7nQZFrQ?authuser=0&hl=en&rclk=1,Saurabh kirana & general Store
J6zwAwdtCfDkRN0tDn28Ofxs," MIG 91 Kotra Sultanabad, near New, Kamla Nagar, Thana, Bhopal, Madhya Pradesh 462003",Indian grocery store, 092296 71434,23.2166943,77.395915,https://www.google.com/maps/place/Patanjali+Mega+Store/data=!4m7!3m6!1s0x397c42dbc1003ceb:0x1b7f0e6f9f434b37!8m2!3d23.2166943!4d77.395915!16s%2Fg%2F11c2pp3znp!19sChIJ6zwAwdtCfDkRN0tDn28Ofxs?authuser=0&hl=en&rclk=1,Patanjali Mega Store
JHZQWKsVCfDkRNHfgE0mE1vg," A-100, near Khedapati Hanuman, Kamla Nagar, Kotra Sultanabad, Bhopal, Madhya Pradesh 462003",General store, 094244 41450,23.217164,77.3927342,https://www.google.com/maps/place/ShopMax+%7C+Verma+Kirana/data=!4m7!3m6!1s0x397c42c52a16941d:0xf8d6844913e07734!8m2!3d23.217164!4d77.3927342!16s%2Fg%2F1q64f0jfs!19sChIJHZQWKsVCfDkRNHfgE0mE1vg?authuser=0&hl=en&rclk=1,ShopMax | Verma Kirana
JvdPyCL5CfDkR5wnNpuT10nw," Shop No 7, near Nagar Nigam Office, New Market, STT Nagar, TT Nagar, Bhopal, Madhya Pradesh 462002",Grocery store, 094250 26128,23.2347004,77.4005284,https://www.google.com/maps/place/Agrawal+Namkeen+Centre/data=!4m7!3m6!1s0x397c42be08f2d3bd:0x7cd2f5e4a6cd09e7!8m2!3d23.2347004!4d77.4005284!16s%2Fg%2F1q649krh7!19sChIJvdPyCL5CfDkR5wnNpuT10nw?authuser=0&hl=en&rclk=1,Agrawal Namkeen Centre
JaaRlWttCfDkR3YuhDlOdHKM," 336, Kamla Nagar, Chitragupt Nagar, Kotra Sultanabad, Bhopal, Madhya Pradesh 462003",Grocery store, 098267 43366,23.2161101,77.3950998,https://www.google.com/maps/place/Neha+Namkeen/data=!4m7!3m6!1s0x397c42db5a65a469:0xa31c9d530ea18bdd!8m2!3d23.2161101!4d77.3950998!16s%2Fg%2F1q65ctrq1!19sChIJaaRlWttCfDkR3YuhDlOdHKM?authuser=0&hl=en&rclk=1,Neha Namkeen
JHWwd5d5CfDkRAAAAsMRFjxI," Shabri Nagar, Nehru Nagar, Bhopal, Madhya Pradesh 462003",Grocery store, 079096 20046,23.2088797,77.3976259,https://www.google.com/maps/place/Vishwakarma+Kirana+%26General+Store/data=!4m7!3m6!1s0x397c42dee51d6c1d:0x128f45c4b0000000!8m2!3d23.2088797!4d77.3976259!16s%2Fg%2F11p6snw4ts!19sChIJHWwd5d5CfDkRAAAAsMRFjxI?authuser=0&hl=en&rclk=1,Vishwakarma Kirana &General Store
J_____7hCfDkR-y3vAclVb54," 6, Hanuman Mandir Ln, New Market, STT Nagar, TT Nagar, Bhopal, Madhya Pradesh 462003",Dry Fruit Store, 099263 10004,23.2354982,77.4008686,https://www.google.com/maps/place/Ahuja+Proteins+Dry+Fruit+Confectionery+%26+Bakery/data=!4m7!3m6!1s0x397c42b8ffffffff:0x9e6f55c901ef2dfb!8m2!3d23.2354982!4d77.4008686!16s%2Fg%2F1txc5fvn!19sChIJ_____7hCfDkR-y3vAclVb54?authuser=0&hl=en&rclk=1,Ahuja Proteins Dry Fruit Confectionery & Bakery
JG0F8RlFCfDkRmN7R6ahBmP4," 6C8J+297, Main Rd No. 3, Bittal Market Hart, E-5, Arera Colony, Bhopal, Madhya Pradesh 462003 Floor G · Parijat Complex",Supermarket, 0755 246 5719,23.2150476,77.430911,https://www.google.com/maps/place/Priyadrashni+Super+Bazar/data=!4m7!3m6!1s0x397c4251467c411b:0xfe9841a8e9d1de98!8m2!3d23.2150476!4d77.430911!16s%2Fg%2F11bbtpgchx!19sChIJG0F8RlFCfDkRmN7R6ahBmP4?authuser=0&hl=en&rclk=1,Priyadrashni Super Bazar
JAQAA8L1CfDkRmzmdNX610pg," 3/48, New Market Main Rd, New Market, STT Nagar, TT Nagar, Bhopal, Madhya Pradesh 462003",Grocery store, 0755 427 3990,23.2360246,77.4006651,https://www.google.com/maps/place/Milan+Namkeen/data=!4m7!3m6!1s0x397c42bdf0000001:0x98d2b57e359d399b!8m2!3d23.2360246!4d77.4006651!16s%2Fg%2F11c6zhpvsj!19sChIJAQAA8L1CfDkRmzmdNX610pg?authuser=0&hl=en&rclk=1,Milan Namkeen
JVV_paBlDfDkR_fjD3ESLb3A," Shop No 23, Ravi Shankar Market, Shivaji Nagar, Bhopal, Madhya Pradesh 462003",Indian grocery store, 062603 20245,23.2282901,77.4182739,https://www.google.com/maps/place/Patanjali+Arogya+Kendra/data=!4m7!3m6!1s0x397c431968e95f55:0x706f8b44dcc3f8fd!8m2!3d23.2282901!4d77.4182739!16s%2Fg%2F11v5x1wbvf!19sChIJVV_paBlDfDkR_fjD3ESLb3A?authuser=0&hl=en&rclk=1,Patanjali Arogya Kendra
Jxx-yNPlDfDkRUsfUU75guSI," Plot 02, Indrapuri C sector, Sector C, Indrapuri, Bhopal, Madhya Pradesh 462022",Grocery store, 079870 95944,23.2512918,77.4658151,https://www.google.com/maps/place/Priyam+Stores+Supermarket/data=!4m7!3m6!1s0x397c43f934b21fc7:0x22b960be53d4c752!8m2!3d23.2512918!4d77.4658151!16s%2Fg%2F11tjc0yh5r!19sChIJxx-yNPlDfDkRUsfUU75guSI?authuser=0&hl=en&rclk=1,Priyam Stores Supermarket
Jb3cztDxDfDkRk_pPLi35S3Y," SH-02, behind Central Bank, Jawahar Chowk, branch, TT Nagar, Bhopal, Madhya Pradesh 462023",Food court, 070497 30293,23.2311018,77.3937275,https://www.google.com/maps/place/SWAGATAM+PROTEINS/data=!4m7!3m6!1s0x397c433cb433776f:0x764bf92d2e4ffa93!8m2!3d23.2311018!4d77.3937275!16s%2Fg%2F11lm419_zb!19sChIJb3cztDxDfDkRk_pPLi35S3Y?authuser=0&hl=en&rclk=1,SWAGATAM PROTEINS
JmYautNBnfDkREA4lcv3pcUo," C-33, Housing Board Colony, Bhopal, Madhya Pradesh 462030",Indian grocery store, 090396 00802,23.2699191,77.373883,https://www.google.com/maps/place/BTN+%E2%80%9CBACK+TO+NATURAL%E2%80%9D/data=!4m7!3m6!1s0x397c67d0b4ae8699:0x4a71e9fd72250e10!8m2!3d23.2699191!4d77.373883!16s%2Fg%2F11qngq3k32!19sChIJmYautNBnfDkREA4lcv3pcUo?authuser=0&hl=en&rclk=1,BTN “BACK TO NATURAL”
JNxjw1g1ofDkRYG5sUNsgcJY," 799P+MX4, Idgah Hills Rd, Near Gurudwara Sahiv, Niyamatpura, Idgah Hills, Bhopal, Madhya Pradesh 462001",Grocery store, 090398 86776,23.2691264,77.3874404,https://www.google.com/maps/place/Jawahar+Kirana/data=!4m7!3m6!1s0x397c680dd6f01837:0x967020db506c6e60!8m2!3d23.2691264!4d77.3874404!16s%2Fg%2F1z44rcbs4!19sChIJNxjw1g1ofDkRYG5sUNsgcJY?authuser=0&hl=en&rclk=1,Jawahar Kirana
Jc7aKPLlCfDkR69gGBQndC5Q," No 13, MIG, Jawahar Nagar Chowk, MLA Quarters, New Market, North TT Nagar, TT Nagar, Bhopal, Madhya Pradesh 462003",Indian grocery store, 090391 66883,23.2343314,77.3966971,https://www.google.com/maps/place/Patanjali+Chikitsalay/data=!4m7!3m6!1s0x397c42b93c8ab673:0x940bdd090506d8eb!8m2!3d23.2343314!4d77.3966971!16s%2Fg%2F11ddx11fgc!19sChIJc7aKPLlCfDkR69gGBQndC5Q?authuser=0&hl=en&rclk=1,Patanjali Chikitsalay
JwZ2SezBDfDkRPUIrjPjRIx0," 627 prayag tower, Raisen Rd, near ram mandir, Bhopal, Madhya Pradesh 462022",Grocery store, 095165 15690,23.2504821,77.4877151,https://www.google.com/maps/place/Prayag+Supermarket/data=!4m7!3m6!1s0x397c43307b929dc1:0x1d23d1f88c2b423d!8m2!3d23.2504821!4d77.4877151!16s%2Fg%2F11hzhwbyp_!19sChIJwZ2SezBDfDkRPUIrjPjRIx0?authuser=0&hl=en&rclk=1,Prayag Supermarket
JZfDPu5FDfDkRQK-wnsEMb8o," Sai Vihar Colony, Danish Kunj, Kolar Rd, Gehun Kheda, Bhopal, Madhya Pradesh 462007",Grocery storeOpen ⋅ Closes 10:30 pm, 093004 14105,23.169748,77.4283784,https://www.google.com/maps/place/APNA+STORE/data=!4m7!3m6!1s0x397c4391bbcff065:0xca6f0cc19eb0af40!8m2!3d23.169748!4d77.4283784!16s%2Fg%2F11n0by8xkc!19sChIJZfDPu5FDfDkRQK-wnsEMb8o?authuser=0&hl=en&rclk=1,APNA STORE
J4xleTnNDfDkRWjeBFzwtCJc," Plot.No-6&7, Kolar Road Mandakini Colony, Shirdipuram, Bhopal, Madhya Pradesh 462042",Supermarket, 0755 422 5556,23.1829628,77.4175823,https://www.google.com/maps/place/Aapoorti+Super+Market/data=!4m7!3m6!1s0x397c43734e5e19e3:0x97082d3c1781375a!8m2!3d23.1829628!4d77.4175823!16s%2Fg%2F1td63qgy!19sChIJ4xleTnNDfDkRWjeBFzwtCJc?authuser=0&hl=en&rclk=1,Aapoorti Super Market
JzfBhiHlDfDkRI_hHsr7N4dc," Shop No. 23, GTB COMPLEX, Chhaap Emporium, TT Nagar, Bhopal, Madhya Pradesh 462003 Located in: GTB Complex",Grocery store, 086020 06612,23.2363323,77.3991506,https://www.google.com/maps/place/CHHAAP+Emporium/data=!4m7!3m6!1s0x397c43798861f0cd:0xd7e1cdbeb247f823!8m2!3d23.2363323!4d77.3991506!16s%2Fg%2F11rcg_20yn!19sChIJzfBhiHlDfDkRI_hHsr7N4dc?authuser=0&hl=en&rclk=1,CHHAAP Emporium
J_T8Ly8RCfDkRFpqY8aE1UmU," J-421, Kamla Nagar, Chitragupt Nagar, Kotra Sultanabad, Bhopal, Madhya Pradesh 462003",General store, 0755 276 4664,23.2171077,77.393821,https://www.google.com/maps/place/Agarwal+Kirana+%26+General+Stores/data=!4m7!3m6!1s0x397c42c4cb0b3ffd:0x655235a1f1989a16!8m2!3d23.2171077!4d77.393821!16s%2Fg%2F124sr3fts!19sChIJ_T8Ly8RCfDkRFpqY8aE1UmU?authuser=0&hl=en&rclk=1,Agarwal Kirana & General Stores
JrzpZvWdCfDkRqdEj0MEzRVs," Shop No.87, Jyoti Shopping Centre, Service Rd, Near Jyoti Cinema, Zone-I, Maharana Pratap Nagar, Bhopal, Madhya Pradesh 462011 Floor -1 · Jyoti Cineplex",Grocery store, 0755 427 0133,23.233205,77.433686,https://www.google.com/maps/place/Anand+Super+Bazar/data=!4m7!3m6!1s0x397c4267bd593aaf:0x5b4533c1d023d1a9!8m2!3d23.233205!4d77.433686!16s%2Fg%2F1tc_pdw7!19sChIJrzpZvWdCfDkRqdEj0MEzRVs?authuser=0&hl=en&rclk=1,Anand Super Bazar
Jv340yF1DfDkRdGPA527V3Zk," 6CVV+X6M, Unnamed Road, Sector C, Govindpura, Bhopal, Madhya Pradesh 462023",Grocery store, 097546 45515,23.2445977,77.4430497,https://www.google.com/maps/place/Mahabali+Traders/data=!4m7!3m6!1s0x397c435dc8347ebf:0x99ddd56ee7c06374!8m2!3d23.2445977!4d77.4430497!16s%2Fg%2F11gjj5vv22!19sChIJv340yF1DfDkRdGPA527V3Zk?authuser=0&hl=en&rclk=1,Mahabali Traders
Jjbqr2WVCfDkRHHLnNKKiom0," Plot Number 1, near Indira Press Complex, Indira Press Complex, Zone-I, Maharana Pratap Nagar, Bhopal, Madhya Pradesh 462021",Hypermarket, 072178 87870,23.2368306,77.4329204,https://www.google.com/maps/place/Vishal+Mega+Mart/data=!4m7!3m6!1s0x397c4265d9abba8d:0x6da2a2a234e7721c!8m2!3d23.2368306!4d77.4329204!16s%2Fg%2F1tf8rhr0!19sChIJjbqr2WVCfDkRHHLnNKKiom0?authuser=0&hl=en&rclk=1,Vishal Mega Mart
JAQAAwGdCfDkRr_5jTCajd0Q," 67, Zone-II, Maharana Pratap Nagar, Bhopal, Madhya Pradesh 462023 Located in: Bakshi Complex",Grocery store, 0755 424 0058,23.2325462,77.4351048,https://www.google.com/maps/place/Kabuliwala/data=!4m7!3m6!1s0x397c4267c0000001:0x4477a3264c63feaf!8m2!3d23.2325462!4d77.4351048!16s%2Fg%2F1tdj2m72!19sChIJAQAAwGdCfDkRr_5jTCajd0Q?authuser=0&hl=en&rclk=1,Kabuliwala
JTzWZ0mdCfDkR0GBa9nsxIIU," Shop 51,Zone 1,MP Nagar,Bhopal, Bhopal, Madhya Pradesh 462001",Indian grocery store, 095890 16060,23.234003,77.434739,https://www.google.com/maps/place/Jaish+%26+Son+kirana+store/data=!4m7!3m6!1s0x397c4267d299354f:0x8520317bf65a60d0!8m2!3d23.234003!4d77.434739!16s%2Fg%2F1q62bwchr!19sChIJTzWZ0mdCfDkR0GBa9nsxIIU?authuser=0&hl=en&rclk=1,Jaish & Son kirana store
JWbAK9BVDfDkR-nlKhMJQmXA," Ground Floor, Gurukripa Arcade, HIG-1, Beside Parul Hospital Shivaji Nagar, Arera Colony, Bhopal, Madhya Pradesh 462016",Supermarket, 088798 88797,23.2272094,77.4320354,https://www.google.com/maps/place/Grofru/data=!4m7!3m6!1s0x397c4315f40ab059:0x709950c2844a79fa!8m2!3d23.2272094!4d77.4320354!16s%2Fg%2F11vqhq7dnt!19sChIJWbAK9BVDfDkR-nlKhMJQmXA?authuser=0&hl=en&rclk=1,Grofru
JCcXQ-mhCfDkRscwwRSZS-Yo," Shop 1, Gautam Nagar, Housing Board Colony, Bhopal, Madhya Pradesh 462023 Located in: Gautam Nagar Shopping Complex",Grocery store, 081099 94752,23.2346495,77.4385952,https://www.google.com/maps/place/Kirana+Store/data=!4m7!3m6!1s0x397c4268fad0c509:0x8af952264530ccb1!8m2!3d23.2346495!4d77.4385952!16s%2Fg%2F1263zjv69!19sChIJCcXQ-mhCfDkRscwwRSZS-Yo?authuser=0&hl=en&rclk=1,Kirana Store
JuR1gr4ZCfDkRKekk8LT5P0A," Shop no 46, C.L.Colony, Jahangirabad, Bhopal, Madhya Pradesh 462008",General store, 081095 94166,23.2473576,77.419054,https://www.google.com/maps/place/Kumar+kirana+General+Store/data=!4m7!3m6!1s0x397c4286af601db9:0x403ff9b4f024e929!8m2!3d23.2473576!4d77.419054!16s%2Fg%2F11c5g9d843!19sChIJuR1gr4ZCfDkRKekk8LT5P0A?authuser=0&hl=en&rclk=1,Kumar kirana General Store
JZTMAN2ZCfDkRgEYdfsjXc1w," Near City Bank, Zone-I, Maharana Pratap Nagar, Bhopal, Madhya Pradesh 462023",Grocery storeOpen ⋅ Closes 7:30 pm, 099938 97203,23.2352745,77.4345294,"https://www.google.com/maps/place/Bhopal+bazar+%28bhopalbazar.com%29+online+deal+cake,flower,chocolate,vegetable+and+house+hold+item+bhopal/data=!4m7!3m6!1s0x397c426637003365:0x5c73d7c87e1d4680!8m2!3d23.2352745!4d77.4345294!16s%2Fg%2F11b5wn01l2!19sChIJZTMAN2ZCfDkRgEYdfsjXc1w?authuser=0&hl=en&rclk=1","Bhopal bazar (bhopalbazar.com) online deal cake,flower,chocolate,vegetable and house hold item bhopal"
JwXWp9V5CfDkRXFcpfdRdNA8," Shop No.1, 6 Number Bus Stop, Shivaji Nagar, Bhopal, Madhya Pradesh 462016",Grocery store, 099073 41491,23.2282192,77.4284102,https://www.google.com/maps/place/South+Indian+Hot+Chips/data=!4m7!3m6!1s0x397c425ef5a975c1:0xf345dd47d29575c!8m2!3d23.2282192!4d77.4284102!16s%2Fg%2F1q66544d1!19sChIJwXWp9V5CfDkRXFcpfdRdNA8?authuser=0&hl=en&rclk=1,South Indian Hot Chips
JiZUIXjJDfDkRTRuHWb2wI40," LG-20 Lower Ground Floor, Dainik Bhaskar Mall, DB City Mall, Zone-I, Maharana Pratap Nagar, Bhopal, Madhya Pradesh 462004 Floor 0 · DB City Mall",Organic shop, 080 3776 2739,23.233007,77.4302315,"https://www.google.com/maps/place/Organic+India+Store+-+Maharana+Pratap+Nagar,+Bhopal/data=!4m7!3m6!1s0x397c43325e089589:0x8d23b0bd59871b4d!8m2!3d23.233007!4d77.4302315!16s%2Fg%2F11h48jqj21!19sChIJiZUIXjJDfDkRTRuHWb2wI40?authuser=0&hl=en&rclk=1","Organic India Store - Maharana Pratap Nagar, Bhopal"
J6YRC_WZCfDkR_8WP-YAfzYU," Shop 13, Block C, Surendra Land Mark, Narmadapuram Rd, opposite Vrindavan Dhaba, DB City Mall, Zone-I, Maharana Pratap Nagar, Bhopal, Madhya Pradesh 462026 Floor 0 · DB City Mall",Indian grocery store, 096916 18187,23.2325634,77.4301761,https://www.google.com/maps/place/Patanjali+Arogya+Kendra/data=!4m7!3m6!1s0x397c4266fd4284e9:0x85cd1f80f98fc5ff!8m2!3d23.2325634!4d77.4301761!16s%2Fg%2F1q64xbgc2!19sChIJ6YRC_WZCfDkR_8WP-YAfzYU?authuser=0&hl=en&rclk=1,Patanjali Arogya Kendra
JjxmQzGBCfDkROZzIuCWbodk," Shop No 24 & 26, Lower Ground Floor, DB City Mall, Bhopal, Madhya Pradesh 462001 Floor 1 · DB City Mall",Grocery store, 0751 492 4124,23.232698,77.4298564,https://www.google.com/maps/place/Market99/data=!4m7!3m6!1s0x397c4260cc90198f:0xd9a19b25b8c89c39!8m2!3d23.232698!4d77.4298564!16s%2Fg%2F1q64tkgds!19sChIJjxmQzGBCfDkROZzIuCWbodk?authuser=0&hl=en&rclk=1,Market99
JoWcFw0RDfDkRvkvPkb28B_0," Plot No Z4, near HDFC Bank, Opposite Chittod Complex, Zone-I, Maharana Pratap Nagar, Bhopal, Madhya Pradesh 462011",Indian grocery store, 094251 41288,23.2364747,77.4345941,https://www.google.com/maps/place/Patanjali+Chikitsalay/data=!4m7!3m6!1s0x397c4344c30567a1:0xfd07bcbd91cf4bbe!8m2!3d23.2364747!4d77.4345941!16s%2Fg%2F1hm4cylnr!19sChIJoWcFw0RDfDkRvkvPkb28B_0?authuser=0&hl=en&rclk=1,Patanjali Chikitsalay
JVVVVxUJCfDkRZKu2EZW3X7M," shop no 01, 51, Near Pragati Petrol Pump, Zone-II, Maharana Pratap Nagar, Bhopal, Madhya Pradesh 462011 Located in: Chetak Complex",Wholesaler, 086023 56626,23.2299836,77.4351371,https://www.google.com/maps/place/Pooja+Sanitation/data=!4m7!3m6!1s0x397c4242c5555555:0xb35fb79511b6ab64!8m2!3d23.2299836!4d77.4351371!16s%2Fg%2F1wnbwf0l!19sChIJVVVVxUJCfDkRZKu2EZW3X7M?authuser=0&hl=en&rclk=1,Pooja Sanitation
J9chNr4JCfDkRElNFNU2ISF8," Ground, 1st And 2,d Floor, Lily Trade, Jahangirabad, Neelam Park, Madhya Pradesh 462008",Grocery store, 022 3340 0500,23.2534639,77.4131999,https://www.google.com/maps/place/DMart/data=!4m7!3m6!1s0x397c4282af4dc8f5:0x5f48884d35455312!8m2!3d23.2534639!4d77.4131999!16s%2Fg%2F124yl5bhv!19sChIJ9chNr4JCfDkRElNFNU2ISF8?authuser=0&hl=en&rclk=1,DMart
JfTRglvtDfDkRBaDYPd1NKcE," 7C28+2R2, Jhangir Colony, Pratap Nagar, Jahangirabad, Bhopal, Madhya Pradesh 462008",Grocery store, 096302 42872,23.25001,77.4170003,https://www.google.com/maps/place/Mathura/data=!4m7!3m6!1s0x397c43fb9660347d:0xc1294ddd3dd8a005!8m2!3d23.25001!4d77.4170003!16s%2Fg%2F11hz_3hn__!19sChIJfTRglvtDfDkRBaDYPd1NKcE?authuser=0&hl=en&rclk=1,Mathura
J8zIHB4NCfDkRTXwSDbc1aBo," 29, Post Office, Pratap Nagar, Jahangirabad, Bhopal, Madhya Pradesh 462008",Grocery store, 098932 81088,23.2501727,77.4155338,https://www.google.com/maps/place/Gurukripa+Achar+Kendra/data=!4m7!3m6!1s0x397c4283070732f3:0x1a6835b70d127c4d!8m2!3d23.2501727!4d77.4155338!16s%2Fg%2F1q62bcn6s!19sChIJ8zIHB4NCfDkRTXwSDbc1aBo?authuser=0&hl=en&rclk=1,Gurukripa Achar Kendra
JPaFenA1ofDkRi7nOxQHtovw," Shop No. 8, Gurudwara Rd, Gurudwara, Ram Nagar Colony, Idgah Hills, Bhopal, Madhya Pradesh 462001",Grocery store, 090397 59387,23.2717161,77.3888493,https://www.google.com/maps/place/Pooja+Kirana+%26+Protein+Store/data=!4m7!3m6!1s0x397c680d9c5ea13d:0xfca2ed01c5ceb98b!8m2!3d23.2717161!4d77.3888493!16s%2Fg%2F1q67ky8qh!19sChIJPaFenA1ofDkRi7nOxQHtovw?authuser=0&hl=en&rclk=1,Pooja Kirana & Protein Store
JofzcXUZpfDkRq6Tuze5ePWU," 72 A, Hazrat Nizamuddin Colony, Piplani, BHEL, Bhopal, Madhya Pradesh 462023",Grocery store, 0755 451 6422,23.259116,77.4629001,https://www.google.com/maps/place/Quality+Bazaar/data=!4m7!3m6!1s0x397c69465ddcfca1:0x653d5eeecdeea4ab!8m2!3d23.259116!4d77.4629001!16s%2Fg%2F11f61f9fn6!19sChIJofzcXUZpfDkRq6Tuze5ePWU?authuser=0&hl=en&rclk=1,Quality Bazaar
JO3uqAXVDfDkRT41fN14M54Q," MIG 270, near AARYA BHAVAN, Gautam Nagar, Housing Board Colony, Bhopal, Madhya Pradesh 462023",Produce market, 095846 10166,23.2369326,77.4396662,https://www.google.com/maps/place/Fresh+%26+Fine+Organic+Grocery/data=!4m7!3m6!1s0x397c437501aa7b3b:0x84e70c5e375f8d4f!8m2!3d23.2369326!4d77.4396662!16s%2Fg%2F11w240rxd3!19sChIJO3uqAXVDfDkRT41fN14M54Q?authuser=0&hl=en&rclk=1,Fresh & Fine Organic Grocery
Js0oyV2hCfDkRtvKoHUwNx8s," 6CPQ+563, Gautam Nagar, Housing Board Colony, Bhopal, Madhya Pradesh 462023",Grocery store, 090984 44390,23.2353764,77.4380565,https://www.google.com/maps/place/Agarwal+Super+Bazar/data=!4m7!3m6!1s0x397c426857324ab3:0xcbc70d4c1da8f2b6!8m2!3d23.2353764!4d77.4380565!16s%2Fg%2F1q665j0q9!19sChIJs0oyV2hCfDkRtvKoHUwNx8s?authuser=0&hl=en&rclk=1,Agarwal Super Bazar
JHxQOrHdCfDkRz7_DuRoHzi8," 9/B, Raisen Rd, Govind Garden, Govindpura, Bhopal, Madhya Pradesh 462023",Grocery store, 098265 91165,23.2528896,77.4386111,https://www.google.com/maps/place/Agrawal+Store/data=!4m7!3m6!1s0x397c4277ac0e141f:0x2fce071ab9c3bfcf!8m2!3d23.2528896!4d77.4386111!16s%2Fg%2F11c6vc_z9b!19sChIJHxQOrHdCfDkRz7_DuRoHzi8?authuser=0&hl=en&rclk=1,Agrawal Store
JBW9bG3BCfDkRNt5ktWrJelk," Shop no 6/19, Mehta market, Subash nagar, Bhopal, Madhya Pradesh 462023",Indian grocery store, 098269 91262,23.2441442,77.436531,https://www.google.com/maps/place/Nilesh+kumar+akhilesh+kumar/data=!4m7!3m6!1s0x397c42701b5b6f05:0x597ac96ab564de36!8m2!3d23.2441442!4d77.436531!16s%2Fg%2F11csr6_fxn!19sChIJBW9bG3BCfDkRNt5ktWrJelk?authuser=0&hl=en&rclk=1,Nilesh kumar akhilesh kumar
JKxOMy7xDfDkRLBMDzS1Zadw," G-2, Main Rd, Gulmohar, Shahpura, Bhopal, Madhya Pradesh 462039",Grocery store, 0755 423 2787,23.1894502,77.436005,https://www.google.com/maps/place/Nutanwala+Grocery+Store/data=!4m7!3m6!1s0x397c43bccb8c132b:0xdc69592dcd03132c!8m2!3d23.1894502!4d77.436005!16s%2Fg%2F12hsqsd17!19sChIJKxOMy7xDfDkRLBMDzS1Zadw?authuser=0&hl=en&rclk=1,Nutanwala Grocery Store
JKw9SuQNCfDkRrbLyz8aRc3Q," Sector C, Indrapuri, Bhopal, Madhya Pradesh 462022",Grocery storeOpen ⋅ Closes 8 pm, 1800 121 848 484,23.250131,77.4662723,https://www.google.com/maps/place/1+India+Family+Mart/data=!4m7!3m6!1s0x397c4203b9520f2b:0x747391c6cff2b2ad!8m2!3d23.250131!4d77.4662723!16s%2Fg%2F11gglqch61!19sChIJKw9SuQNCfDkRrbLyz8aRc3Q?authuser=0&hl=en&rclk=1,1 India Family Mart
Jq6qqWgFCfDkR5iG_WjuX_JI," Rajasthan Super Stores, 73, Raisen Rd, Indrapuri C sector, Sector C, Indrapuri, Bhopal, Madhya Pradesh 462022",Indian grocery store, 098260 86538,23.2519675,77.4640722,https://www.google.com/maps/place/RAJASTHAN+SUPER+STORES/data=!4m7!3m6!1s0x397c42015aaaaaab:0x92fc973b5abf21e6!8m2!3d23.2519675!4d77.4640722!16s%2Fg%2F113hw_fzj!19sChIJq6qqWgFCfDkR5iG_WjuX_JI?authuser=0&hl=en&rclk=1,RAJASTHAN SUPER STORES
JzVggS9FpfDkR6Qg_mECikGQ," 3, 80 Feet Rd, Shaid Colony, Ashok Vihar, Bhopal, Madhya Pradesh 462023",Indian grocery store, 070497 33883,23.2608759,77.4312839,https://www.google.com/maps/place/Waseem+Kirana+Store/data=!4m7!3m6!1s0x397c69d14b2058cd:0x6490a240983f08e9!8m2!3d23.2608759!4d77.4312839!16s%2Fg%2F11csqd8c13!19sChIJzVggS9FpfDkR6Qg_mECikGQ?authuser=0&hl=en&rclk=1,Waseem Kirana Store
Jhys-QjtDfDkRfYg9eCChw7A," Bawadiya Kalan Rd, Rohit Nagar, Bawadiya Kalan, Pallavi Nagar, Bhopal, Madhya Pradesh 462026 Located in: Abhivyakti Nagar",Supermarket, 062676 70433,23.1779758,77.4321482,https://www.google.com/maps/place/Day+to+day+supermarket/data=!4m7!3m6!1s0x397c433b423e2b87:0xb0c3a120783d887d!8m2!3d23.1779758!4d77.4321482!16s%2Fg%2F11s0lp99_c!19sChIJhys-QjtDfDkRfYg9eCChw7A?authuser=0&hl=en&rclk=1,Day to day supermarket
Jh4cRwfVBfDkR1rGgyutFBRw," 26, Gandhi Market, Piplani, BHEL, Bhopal, Madhya Pradesh 462021",Supermarket, 098934 64551,23.2395177,77.4718607,https://www.google.com/maps/place/Bansal+Super+Bazar/data=!4m7!3m6!1s0x397c41f5c1118787:0x1c0545ebcaa0b1d6!8m2!3d23.2395177!4d77.4718607!16s%2Fg%2F11bbtnqbzr!19sChIJh4cRwfVBfDkR1rGgyutFBRw?authuser=0&hl=en&rclk=1,Bansal Super Bazar
JKyDnGhFrfDkRcHnW5vB1xnk," Bhawna nagar Near Sai mandir, behind tanatan dabha, Ayodhya Bypass, Bhopal, Madhya Pradesh 462041",Grocery store, 098276 41320,23.2628505,77.4709476,https://www.google.com/maps/place/Harsh+super+store/data=!4m7!3m6!1s0x397c6b111ae7202b:0x79c675f0e6d67970!8m2!3d23.2628505!4d77.4709476!16s%2Fg%2F11mv49d2zx!19sChIJKyDnGhFrfDkRcHnW5vB1xnk?authuser=0&hl=en&rclk=1,Harsh super store
J--5Yf_9pfDkRDnAq3kc0zXU," East Kamla Nagar, Siddharth Enclave, Ayodhya Nagar, Bhopal, Madhya Pradesh 462021",Indian grocery storeOpen ⋅ Closes 10 pm, 099810 25667,23.2603374,77.469621,https://www.google.com/maps/place/A+One+Super+Store/data=!4m7!3m6!1s0x397c69ff7f58eefb:0x75cd3447de2a700e!8m2!3d23.2603374!4d77.469621!16s%2Fg%2F11gflxt0zv!19sChIJ--5Yf_9pfDkRDnAq3kc0zXU?authuser=0&hl=en&rclk=1,A One Super Store
JX_qfDmxdfDkRBX5SpYGVTZI," Shop no A-1 VISHAL NAGAR PHACE 3 MENDORI ROAD NEELBAD, Bhopal, Madhya Pradesh 462044",Indian grocery store, 074153 36360,23.1889115,77.3496497,https://www.google.com/maps/place/MAA+GANGA+DAILY+NEEDS+%26+KIRANA/data=!4m7!3m6!1s0x397c5d6c0e9ffa5f:0x924d9581a5527e05!8m2!3d23.1889115!4d77.3496497!16s%2Fg%2F11r_pqj004!19sChIJX_qfDmxdfDkRBX5SpYGVTZI?authuser=0&hl=en&rclk=1,MAA GANGA DAILY NEEDS & KIRANA
JgTMEE-pDfDkR7gZoSh2yK2I," Pacific Business Center, Narmadapuram Rd, Bhopal, Madhya Pradesh 462026",Supermarket, 022 3340 0500,23.1857255,77.4517634,https://www.google.com/maps/place/DMart/data=!4m7!3m6!1s0x397c43ea13043381:0x622bb21d4a6806ee!8m2!3d23.1857255!4d77.4517634!16s%2Fg%2F11bxdwkgzs!19sChIJgTMEE-pDfDkR7gZoSh2yK2I?authuser=0&hl=en&rclk=1,DMart
JHUpR_OdDfDkR5iunrOGN-Yo," Shopno 8, Rajat Shopping Complex, Rajat Vihar Colony, Danish Nagar, Bagmugaliya, Bhopal, Madhya Pradesh 462026",Indian grocery store, 099777 08441,23.1864594,77.4586358,https://www.google.com/maps/place/Hariom+Kirana+And+General+Stores/data=!4m7!3m6!1s0x397c43e7fc514a1d:0x8af98de1aca72be6!8m2!3d23.1864594!4d77.4586358!16s%2Fg%2F1q6h_d9_q!19sChIJHUpR_OdDfDkR5iunrOGN-Yo?authuser=0&hl=en&rclk=1,Hariom Kirana And General Stores
J2QHRgd9BfDkRCMkjqHu0p2g," shop no 4, near TIT College, Anand nagar, hathai kheda road, Bhopal, Madhya Pradesh 462021",Indian grocery store, 096178 56606,23.256119,77.4924782,https://www.google.com/maps/place/chouksey+kirana+and+general+store/data=!4m7!3m6!1s0x397c41df81d101d9:0x68a7b47ba823c908!8m2!3d23.256119!4d77.4924782!16s%2Fg%2F11c0rt_55p!19sChIJ2QHRgd9BfDkRCMkjqHu0p2g?authuser=0&hl=en&rclk=1,chouksey kirana and general store
JaeGHBnpCfDkRgAZ2m5djqM4," D-42, Subhash Nagar Rd, ward 43, Old Subhash Nagar Colony, Govindpura Industrial Area, Bhopal, Madhya Pradesh 462023",Grocery store, 094250 12353,23.2488751,77.4354474,https://www.google.com/maps/place/Sawariya+Namkeen/data=!4m7!3m6!1s0x397c427a0687e169:0xcea863979b760680!8m2!3d23.2488751!4d77.4354474!16s%2Fg%2F11dxmk3js8!19sChIJaeGHBnpCfDkRgAZ2m5djqM4?authuser=0&hl=en&rclk=1,Sawariya Namkeen
JgS-BnNBpfDkRBiwOcHlicD4," H. No.04 Sector-F, Sunder Nagar, Ashoka Garden, Bhopal, Madhya Pradesh 462023",Indian grocery store, 081099 10197,23.263099,77.435321,https://www.google.com/maps/place/Saniya+Kirana+%26+General+Store/data=!4m7!3m6!1s0x397c69d09c812f81:0x3e706279700e2c06!8m2!3d23.263099!4d77.435321!16s%2Fg%2F1q6b672cl!19sChIJgS-BnNBpfDkRBiwOcHlicD4?authuser=0&hl=en&rclk=1,Saniya Kirana & General Store
JF7JJWtppfDkRkPEuy6mMsV0," Plot No. 44, 60 Feet Rd, New Subhash Colony, Sector-A, Subhash Colony, Bhopal, Madhya Pradesh 462023",Grocery store, 086499 64621,23.263781,77.437779,https://www.google.com/maps/place/Rohan+Kirana+Store/data=!4m7!3m6!1s0x397c69da5a49b217:0x5db18ca9cb2ef190!8m2!3d23.263781!4d77.437779!16s%2Fg%2F1q667wcr2!19sChIJF7JJWtppfDkRkPEuy6mMsV0?authuser=0&hl=en&rclk=1,Rohan Kirana Store
JAYKYngFqfDkRXHAfCMfmV_M," AH-31, Ayodhya Bypass Rd, Ayodhya Phase 3, Sector A, Rajeev Nagar, Ayodhya Bypass, Bhopal, Madhya Pradesh 462041",Grocery delivery service, 083579 04406,23.2630298,77.4728346,https://www.google.com/maps/place/I+AM+SUPER+STORE/data=!4m7!3m6!1s0x397c6a019e988201:0xf357e6c7081f705c!8m2!3d23.2630298!4d77.4728346!16s%2Fg%2F11cs69bpzy!19sChIJAYKYngFqfDkRXHAfCMfmV_M?authuser=0&hl=en&rclk=1,I AM SUPER STORE
JCRqhyHhCfDkRm3A1-MvjZjw," Shop NO:70 Raisen Road Govind Garden, behind Apsara Talkies, Old Subhash Nagar, Old Subhash Nagar, Colony, Govindpura, Bhopal, Madhya Pradesh 462023",Indian grocery store, 089896 49255,23.251596,77.436836,"https://www.google.com/maps/place/Arihant+Kirana+Stores,pan+masala+%26+pooja+samagri/data=!4m7!3m6!1s0x397c4278c8a11a09:0x3c66e3cbf835709b!8m2!3d23.251596!4d77.436836!16s%2Fg%2F1tg7_wph!19sChIJCRqhyHhCfDkRm3A1-MvjZjw?authuser=0&hl=en&rclk=1","Arihant Kirana Stores,pan masala & pooja samagri"
JZ7UurXlCfDkRAAAAMG-4HzA," Shop No 08, New Market, Ward 44, Govindpura, Bhopal, Madhya Pradesh 462023",Indian grocery store, 099771 25737,23.252485,77.440694,https://www.google.com/maps/place/Patanjali+Chikitsalay/data=!4m7!3m6!1s0x397c4279ad2eb567:0x301fb86f30000000!8m2!3d23.252485!4d77.440694!16s%2Fg%2F11rdx16hhy!19sChIJZ7UurXlCfDkRAAAAMG-4HzA?authuser=0&hl=en&rclk=1,Patanjali Chikitsalay
JJekKhrFFfDkRRZSPyZWHgyA," D-411, BDA Colony, Salaiya, Bhopal, Madhya Pradesh 462026",Grocery store, 062656 19911,23.1635685,77.4483288,https://www.google.com/maps/place/Grocery+Point/data=!4m7!3m6!1s0x397c45b1860ae925:0x20838795c98f9445!8m2!3d23.1635685!4d77.4483288!16s%2Fg%2F11sgxzfr6r!19sChIJJekKhrFFfDkRRZSPyZWHgyA?authuser=0&hl=en&rclk=1,Grocery Point
JlwICx9VpfDkR0lu5gSoSIgU," Shop No.5, New Sabji Mandi, Ashoka Garden, Bhopal, Madhya Pradesh 462023",Indian grocery store, 097524 77226,23.2559869,77.4311992,https://www.google.com/maps/place/Anand+Kirana+Stores/data=!4m7!3m6!1s0x397c69d5c7020297:0x522122a81b95bd2!8m2!3d23.2559869!4d77.4311992!16s%2Fg%2F11ddxlsqmv!19sChIJlwICx9VpfDkR0lu5gSoSIgU?authuser=0&hl=en&rclk=1,Anand Kirana Stores
JAQAAkNVpfDkRiuR1WgfBGQk," Shop No 5, Housing Board Complex, Ashoka Garden, Bhopal, Madhya Pradesh 462023",Grocery store, 098935 76116,23.257419,77.4307262,https://www.google.com/maps/place/Chourasiya+General+Store/data=!4m7!3m6!1s0x397c69d590000001:0x919c1075a75e48a!8m2!3d23.257419!4d77.4307262!16s%2Fg%2F1tcwdcx7!19sChIJAQAAkNVpfDkRiuR1WgfBGQk?authuser=0&hl=en&rclk=1,Chourasiya General Store
