placeId,address,sub_channel,phone,latitude,longitude,googleUrl,outlet_name
Jfbr18VhbmTkRE29jIxXAerQ," SHOP NO-1&2, NKS PLAZA, near SBI BANK, BEHTA BAZAR, Lucknow, Behta, Uttar Pradesh 226026",Indian grocery store, 073885 22588,26.9815811,81.015717,https://www.google.com/maps/place/SARV+MART/data=!4m7!3m6!1s0x39995b58f1f5ba7d:0xb47ac01523636f13!8m2!3d26.9815811!4d81.015717!16s%2Fg%2F11vhqgzsnb!19sChIJfbr18VhbmTkRE29jIxXAerQ?authuser=0&hl=en&rclk=1,SARV MART
JV2i4cphXmTkRGLon-OYUkXE," 226022 1/5 sec.J jankipuram, Kursi Rd, near Canara bank jankipuram branch, Jankipuram, Lucknow, Uttar Pradesh 226022",Indian grocery store, 080049 21856,26.9205531,80.9655046,https://www.google.com/maps/place/RADHEY+STORES/data=!4m7!3m6!1s0x3999579872b86857:0x719114e6f827ba18!8m2!3d26.9205531!4d80.9655046!16s%2Fg%2F11dzw8pw4k!19sChIJV2i4cphXmTkRGLon-OYUkXE?authuser=0&hl=en&rclk=1,RADHEY STORES
Jz-2jTntZmTkR_F93X7ivm9I," W277+F93, Vaishnavi EInclave Marg, Rajauli, Uttar Pradesh 226026",Grocery store, 099194 19914,26.9136358,81.0134296,https://www.google.com/maps/place/Star+Family+Mart/data=!4m7!3m6!1s0x3999597b4ea3edcf:0xd29bafb85f775ffc!8m2!3d26.9136358!4d81.0134296!16s%2Fg%2F11rwh22mng!19sChIJz-2jTntZmTkR_F93X7ivm9I?authuser=0&hl=en&rclk=1,Star Family Mart
Jy2UI8O1ZmTkRTIMR6npcRd0," Chaman Enclave ( Mishrpur, Chauraha, Kursi Rd, near bharat Gass, Lucknow, Palaka, Uttar Pradesh 226026",Indian grocery store, 081759 65922,26.9766181,81.012366,https://www.google.com/maps/place/AHM+Grocery+Store/data=!4m7!3m6!1s0x399959edf00865cb:0xdd455c7aea11834c!8m2!3d26.9766181!4d81.012366!16s%2Fg%2F11vx5b5f67!19sChIJy2UI8O1ZmTkRTIMR6npcRd0?authuser=0&hl=en&rclk=1,AHM Grocery Store
Ja7eOQXhXmTkRQD8XM601gbQ," 2, Kursi Rd, opposite Simran khan ji Residence, Gudamba Thana, Eden Enclave, Lucknow, Guramba, Uttar Pradesh 226021",Indian grocery store, 088814 60606,26.9318551,80.9721377,https://www.google.com/maps/place/Pwb+Store/data=!4m7!3m6!1s0x39995778418eb76b:0xb48135ad33173f40!8m2!3d26.9318551!4d80.9721377!16s%2Fg%2F11qr3lgd2r!19sChIJa7eOQXhXmTkRQD8XM601gbQ?authuser=0&hl=en&rclk=1,Pwb Store
J17e65Cb9mzkRbApo77HGA24," Shop No-1, Complex, Manas Grn Rd, Indira Nagar, Lucknow, Uttar Pradesh 226016",Indian grocery store, 095809 52345,26.9196002,81.0112129,https://www.google.com/maps/place/Faithway+Market/data=!4m7!3m6!1s0x399bfd26e4bab7d7:0x6e03c6b1ef680a6c!8m2!3d26.9196002!4d81.0112129!16s%2Fg%2F11n7fqzn42!19sChIJ17e65Cb9mzkRbApo77HGA24?authuser=0&hl=en&rclk=1,Faithway Market
JK3V2vLfjmzkRWuSMKLRe0qg," 95, Rajveer Nagar, Patel Nagar Rd, Vistar-3, Lucknow, Uttar Pradesh 226016",Grocery store, 094522 93243,26.8804351,81.0093808,https://www.google.com/maps/place/Maa+Tara+Family+Store+-+Best+Grocery+Store+in+Lucknow/data=!4m7!3m6!1s0x399be3b7bc76752b:0xa8d25eb4288ce45a!8m2!3d26.8804351!4d81.0093808!16s%2Fg%2F11rsbq49tk!19sChIJK3V2vLfjmzkRWuSMKLRe0qg?authuser=0&hl=en&rclk=1,Maa Tara Family Store - Best Grocery Store in Lucknow
JVSRkRnhXmTkRDshqmo9zh2I," Jankipuram Gardens, Nehar Road, near Career Public School, Madiyaon, Lucknow, Uttar Pradesh 226021",Indian grocery store, 079856 95314,26.9332258,80.960744,https://www.google.com/maps/place/SHYAM+SUPER+STORE/data=!4m7!3m6!1s0x3999577846642455:0x6287738f9a6ac80e!8m2!3d26.9332258!4d80.960744!16s%2Fg%2F11jvh1hgvg!19sChIJVSRkRnhXmTkRDshqmo9zh2I?authuser=0&hl=en&rclk=1,SHYAM SUPER STORE
Jg_bTLM1XmTkRZuR8ZQneMPc," B - 19, Beli Garad Chauraha Main Rd, Sector-A, Sector K, Aliganj, Lucknow, Uttar Pradesh 226024",Supermarket, 093058 05241,26.8967708,80.9429785,https://www.google.com/maps/place/Pappoo+Store+Aliganj/data=!4m7!3m6!1s0x399957cd2cd3f683:0xf730de09657ce466!8m2!3d26.8967708!4d80.9429785!16s%2Fg%2F11b7ttnkz9!19sChIJg_bTLM1XmTkRZuR8ZQneMPc?authuser=0&hl=en&rclk=1,Pappoo Store Aliganj
Jv1uZ3KpXmTkRVzVXVLkuxkw," Shop No. 14, 60 Feet Rd, Sultanpur Village, Jankipuram, Lucknow, Uttar Pradesh 226021",Supermarket, 097932 57229,26.9267597,80.9432042,https://www.google.com/maps/place/Harish+Super+Store/data=!4m7!3m6!1s0x399957aadc995bbf:0x4cc62eb954573557!8m2!3d26.9267597!4d80.9432042!16s%2Fg%2F11c3k54l56!19sChIJv1uZ3KpXmTkRVzVXVLkuxkw?authuser=0&hl=en&rclk=1,Harish Super Store
JlcfVUwhXmTkRfc9obqXcbHo," Janki Vihar Colony, Jankipuram Vistar, Lucknow, Uttar Pradesh 226021",Supermarket, 094150 82297,26.9351632,80.9478219,https://www.google.com/maps/place/Arnav+mart/data=!4m7!3m6!1s0x3999570853d5c795:0x7a6cdca56e68cf7d!8m2!3d26.9351632!4d80.9478219!16s%2Fg%2F11qp4s7h8l!19sChIJlcfVUwhXmTkRfc9obqXcbHo?authuser=0&hl=en&rclk=1,Arnav mart
JG4XEwwNXmTkRzIDb27ZyZZU," 3/1246, Sector 3 Rd, Sector 3, Jankipuram Extension, Lucknow, Uttar Pradesh 226031",Indian grocery store, 080040 01475,26.9353879,80.9422914,https://www.google.com/maps/place/Grihasthi+Bazar/data=!4m7!3m6!1s0x39995703c3c4851b:0x956572b6dbdb80cc!8m2!3d26.9353879!4d80.9422914!16s%2Fg%2F11fy4vxlvg!19sChIJG4XEwwNXmTkRzIDb27ZyZZU?authuser=0&hl=en&rclk=1,Grihasthi Bazar
JiYHTM3tXmTkR_2gXjxTK2tM," WXM7+656, Gadriyanpurwa Rd, Janki Vihar Colony, Jankipuram, Lucknow, Uttar Pradesh 226021",Grocery store, 093350 14000,26.9330435,80.9628821,https://www.google.com/maps/place/EasyMart/data=!4m7!3m6!1s0x3999577b33d38189:0xd3daca148f1768ff!8m2!3d26.9330435!4d80.9628821!16s%2Fg%2F11n085bfcj!19sChIJiYHTM3tXmTkR_2gXjxTK2tM?authuser=0&hl=en&rclk=1,EasyMart
JD5nUDgzjmzkRZkp95-QTVu0," Shankar Puri Rd, Officers Colony, Shankar Puri, Kamta, Lucknow, Uttar Pradesh 226028",Grocery store, 070070 71491,26.8779262,81.0214539,https://www.google.com/maps/place/Annapurna+Super+Mart/data=!4m7!3m6!1s0x399be30c0ed4990f:0xed5613e4e77d4a66!8m2!3d26.8779262!4d81.0214539!16s%2Fg%2F11p6d4qjt7!19sChIJD5nUDgzjmzkRZkp95-QTVu0?authuser=0&hl=en&rclk=1,Annapurna Super Mart
JP-yIiCFXmTkRfIslMgU7WWI," 346, phase, Eden enclave society, 2, Kursi Rd, gudamba, Lucknow, Guramba, Uttar Pradesh 226021",Grocery store, 079059 37883,26.9329517,80.9721719,https://www.google.com/maps/place/Punjabi+Store/data=!4m7!3m6!1s0x399957218888ec3f:0x62593b0532258b7c!8m2!3d26.9329517!4d80.9721719!16s%2Fg%2F11mvhhxm_f!19sChIJP-yIiCFXmTkRfIslMgU7WWI?authuser=0&hl=en&rclk=1,Punjabi Store
J9XP5X0pXmTkRpfwOqZNxv-8," Unnamed Road, Phool Bagh Colony, Lucknow, Uttar Pradesh 226022",Grocery store, 091257 92901,26.912728,80.9687124,https://www.google.com/maps/place/Rathor+Genral+Store/data=!4m7!3m6!1s0x3999574a5ff973f5:0xefbf7193a90efca5!8m2!3d26.912728!4d80.9687124!16s%2Fg%2F11ffvrx9vk!19sChIJ9XP5X0pXmTkRpfwOqZNxv-8?authuser=0&hl=en&rclk=1,Rathor Genral Store
JfQ-qEaNXmTkRoYaP8NfdZtg," 6/70, Sector H, Jankipuram, Lucknow, Uttar Pradesh 226021",Grocery store, 099363 47544,26.920474,80.961244,https://www.google.com/maps/place/Aashirvaad+Store/data=!4m7!3m6!1s0x399957a311aa0f7d:0xd866ddd7f08f86a1!8m2!3d26.920474!4d80.961244!16s%2Fg%2F11c5_8jk0c!19sChIJfQ-qEaNXmTkRoYaP8NfdZtg?authuser=0&hl=en&rclk=1,Aashirvaad Store
JewGXVCdWmTkRQ6ddlsnTlH8," Near chota durga mandir,brahma nager, Sitapur Rd, Madehgunj, Lucknow, Uttar Pradesh 226020",Indian grocery store, 070806 43436,26.8817455,80.9263923,https://www.google.com/maps/place/Tiwari+General+Store/data=!4m7!3m6!1s0x399956275497017b:0x7f94d3c9965da743!8m2!3d26.8817455!4d80.9263923!16s%2Fg%2F11c20dd5xh!19sChIJewGXVCdWmTkRQ6ddlsnTlH8?authuser=0&hl=en&rclk=1,Tiwari General Store
JIecrAyFWmTkRwOHvLYS4Bw0," Triveni Nagar Sitapur Road, Near Park, Triveni Nagar 3, Lucknow, Uttar Pradesh 226026",Grocery store, 098892 40952,26.8844902,80.9242002,https://www.google.com/maps/place/Gupta+Store/data=!4m7!3m6!1s0x39995621032be721:0xd07b8842defe1c0!8m2!3d26.8844902!4d80.9242002!16s%2Fg%2F1th1b39n!19sChIJIecrAyFWmTkRwOHvLYS4Bw0?authuser=0&hl=en&rclk=1,Gupta Store
Jh9UkgE5XmTkRP9tQ_utW7oQ," 465, Kursi Rd, Gudamba Thana, Dandiya Bazar, Mishrapur, Lucknow, Uttar Pradesh 226026",Indian grocery store, 099180 42396,26.8866178,80.9521366,https://www.google.com/maps/place/Patanjali+Arogya+Kendra/data=!4m7!3m6!1s0x3999574e8024d587:0x84ee56ebfe50db3f!8m2!3d26.8866178!4d80.9521366!16s%2Fg%2F11vjxqqlq3!19sChIJh9UkgE5XmTkRP9tQ_utW7oQ?authuser=0&hl=en&rclk=1,Patanjali Arogya Kendra
J9Y1SHCdWmTkRvwYUK-2wOG0," 538K, 493, Sitapur Rd, Triveni Nagar - 2, Triveni Nagar, Lucknow, Uttar Pradesh 226020",Grocery store, 098399 75034,26.8818758,80.9278061,"https://www.google.com/maps/place/,Jai+Ambey+Super+Store/data=!4m7!3m6!1s0x399956271c528df5:0x6d38b0ed2b1406bf!8m2!3d26.8818758!4d80.9278061!16s%2Fg%2F11b6ll31w6!19sChIJ9Y1SHCdWmTkRvwYUK-2wOG0?authuser=0&hl=en&rclk=1",",Jai Ambey Super Store"
J4dN6AW3jmzkRyJX9zzsq9iQ," Pushu Ka Purwa, Yadav Market, Ameti University Malhaur Station, Uttar Pradesh 226010",Supermarket, 085738 63434,26.8564951,81.0573619,https://www.google.com/maps/place/M.D.+SUPER+MART/data=!4m7!3m6!1s0x399be36d017ad3e1:0x24f62a3bcffd95c8!8m2!3d26.8564951!4d81.0573619!16s%2Fg%2F11sbbj9jc_!19sChIJ4dN6AW3jmzkRyJX9zzsq9iQ?authuser=0&hl=en&rclk=1,M.D. SUPER MART
Jm4tuYR7jmzkRcLICL3j6kMk," 5/578, Amar Shaheed Path, Sector 5, Sector 6, Gomti Nagar, Extension, Uttar Pradesh 226010",Supermarket, 099164 67898,26.837609,81.013672,https://www.google.com/maps/place/WEDOST+Supermarket/data=!4m7!3m6!1s0x399be31e616e8b9b:0xc990fa782f02b270!8m2!3d26.837609!4d81.013672!16s%2Fg%2F11c0py5l9q!19sChIJm4tuYR7jmzkRcLICL3j6kMk?authuser=0&hl=en&rclk=1,WEDOST Supermarket
JTTSDHST7mzkR4-ruVGGNepI," Khasra No 1181 Bijnour Road, Amar Shaheed Path, near Omaxe City, Lucknow, Uttar Pradesh 226002",Grocery store, 078279 91006,26.7608922,80.9206538,https://www.google.com/maps/place/The+Grocery+Supermart/data=!4m7!3m6!1s0x399bfb241d83344d:0x927a8d6154eeeae3!8m2!3d26.7608922!4d80.9206538!16s%2Fg%2F11nnv7lfd6!19sChIJTTSDHST7mzkR4-ruVGGNepI?authuser=0&hl=en&rclk=1,The Grocery Supermart
JY3TvHez7mzkRpc3ML2Emn0Q," Sector O, Mansarovar, Transport Nagar, Lucknow, Uttar Pradesh 226012",Grocery store, 063946 31047,26.7732078,80.9035957,https://www.google.com/maps/place/G+S+Supermarket/data=!4m7!3m6!1s0x399bfbec1def7463:0x449f26612fcccda5!8m2!3d26.7732078!4d80.9035957!16s%2Fg%2F11kf34wbtn!19sChIJY3TvHez7mzkRpc3ML2Emn0Q?authuser=0&hl=en&rclk=1,G S Supermarket
JCxFjGrH9mzkRsPzxWf63xNE," 2, Shivaji Marg, Lucknow, Uttar Pradesh 226018",Produce market, 088961 87340,26.8430659,80.9282638,https://www.google.com/maps/place/Annapurna+Bhandar/data=!4m7!3m6!1s0x399bfdb11a63110b:0xd1c4b7fe59f1fcb0!8m2!3d26.8430659!4d80.9282638!16s%2Fg%2F1tjtgp8w!19sChIJCxFjGrH9mzkRsPzxWf63xNE?authuser=0&hl=en&rclk=1,Annapurna Bhandar
JAVff6E37mzkRKR0Ug8if1tU," Block B, 08, Raibareli Rd, South City, Lucknow, Uttar Pradesh 226025",Grocery store, 095175 55955,26.7714552,80.9431227,https://www.google.com/maps/place/KRITI+MART-Best+grocery+store+in+telibagh+Lucknow-Best+Mart+in+Talibagh+lucknow-Near+me+Mart/data=!4m7!3m6!1s0x399bfb4de8df5701:0xd5d69fc883141d29!8m2!3d26.7714552!4d80.9431227!16s%2Fg%2F11rx4j2cbg!19sChIJAVff6E37mzkRKR0Ug8if1tU?authuser=0&hl=en&rclk=1,KRITI MART-Best grocery store in telibagh Lucknow-Best Mart in Talibagh lucknow-Near me Mart
JWd0T5cL9mzkRxLH17f6wFBo," 26, R. A. Bazar, Topkhana, Cantonment, Lucknow, Uttar Pradesh 226002",Indian grocery store, 083039 37393,26.807003,80.9546999,https://www.google.com/maps/place/My+PAA+Store/data=!4m7!3m6!1s0x399bfdc2e513dd59:0x1a14b0feedf5b1c4!8m2!3d26.807003!4d80.9546999!16s%2Fg%2F11nn42mn9s!19sChIJWd0T5cL9mzkRxLH17f6wFBo?authuser=0&hl=en&rclk=1,My PAA Store
Js9tQAwT7mzkRrwVtNSP3SK8," QW2X+CGM, SGPGI Campus, Raibarely Road, dhuaraka puri ,Khalsa House, panchan khera road, near raibareli road, Haibat Mau Mawaiya, Lucknow, Uttar Pradesh 226014",Grocery store, 099841 52417,26.751082,80.9487823,https://www.google.com/maps/place/Rishi+General+merchant+Store/data=!4m7!3m6!1s0x399bfb040350dbb3:0xaf48f723356d05af!8m2!3d26.751082!4d80.9487823!16s%2Fg%2F11bv30jvmj!19sChIJs9tQAwT7mzkRrwVtNSP3SK8?authuser=0&hl=en&rclk=1,Rishi General merchant Store
J62pyegBXmTkRmAssO99Dt7M," 60 Feet Rd, Abhishekpuram, Alisha Nagar, Sultanpur Village, Jankipuram Extension, Lucknow, Uttar Pradesh 226021",Indian grocery store, 093353 44898,26.9301173,80.9447966,https://www.google.com/maps/place/Buddhiram+Stores/data=!4m7!3m6!1s0x399957007a726aeb:0xb3b743df3b2c0b98!8m2!3d26.9301173!4d80.9447966!16s%2Fg%2F11dywljbr8!19sChIJ62pyegBXmTkRmAssO99Dt7M?authuser=0&hl=en&rclk=1,Buddhiram Stores
J6R0zfbdXmTkRidwLnOd8uj4," B 1/121, Sector G Jankipuram, Sector G, Jankipuram, Lucknow, Uttar Pradesh 226021",Grocery store, 096828 12345,26.9102552,80.953899,https://www.google.com/maps/place/Goodies+Store/data=!4m7!3m6!1s0x399957b77d331de9:0x3eba7ce79c0bdc89!8m2!3d26.9102552!4d80.953899!16s%2Fg%2F11f2wlx4qw!19sChIJ6R0zfbdXmTkRidwLnOd8uj4?authuser=0&hl=en&rclk=1,Goodies Store
JxTeOQ_RXmTkRiA6_S_OWwCw," 8/7, Sahara States Rd, Sahara States, Janki Vihar Colony, Jankipuram, Lucknow, Uttar Pradesh 226021",Grocery store, 080909 48533,26.922171,80.9528218,https://www.google.com/maps/place/Apna+Store/data=!4m7!3m6!1s0x399957f4438e37c5:0x2cc096f34bbf0e88!8m2!3d26.922171!4d80.9528218!16s%2Fg%2F11mb_cklrx!19sChIJxTeOQ_RXmTkRiA6_S_OWwCw?authuser=0&hl=en&rclk=1,Apna Store
Jj9Ul6k5XmTkRYrsG0o33lJY," lower ground floor, E-1/257, 60 Feet Rd, Sector I, Sultanpur Village, Jankipuram Extension, Lucknow, Uttar Pradesh 226021",Indian grocery store, 099352 92482,26.9235016,80.941889,https://www.google.com/maps/place/Poorvanchal+Aata+Chakki+and+Store/data=!4m7!3m6!1s0x3999574eea25d58f:0x9694f78dd206bb62!8m2!3d26.9235016!4d80.941889!16s%2Fg%2F11y9nfn4x_!19sChIJj9Ul6k5XmTkRYrsG0o33lJY?authuser=0&hl=en&rclk=1,Poorvanchal Aata Chakki and Store
JA6otJQRXmTkRH6fsUkt4xqc," Janki Vihar Colony, Jankipuram, Lucknow, Uttar Pradesh 226021",Grocery storeOpen ⋅ Closes 9:30 pm, 086045 27224,26.9362788,80.9503535,https://www.google.com/maps/place/Lodhi+Enterprises+at+Lodhi+Chauraha+Sidpur+Jageer/data=!4m7!3m6!1s0x39995704252daa03:0xa7c6784b52eca71f!8m2!3d26.9362788!4d80.9503535!16s%2Fg%2F11fy4vtjl0!19sChIJA6otJQRXmTkRH6fsUkt4xqc?authuser=0&hl=en&rclk=1,Lodhi Enterprises at Lodhi Chauraha Sidpur Jageer
Jk-YDSClXmTkRPDWk_cJDvCg," Maurya nagar jankipuram ext Nirmal baba kuttiya mandir lodhi chauraha, Janki Vihar Colony, Madiyaon, Lucknow, Uttar Pradesh 226021",Grocery store, 085458 87331,26.9345735,80.952588,https://www.google.com/maps/place/Sainik+Ardh+Sanik+Canteen/data=!4m7!3m6!1s0x399957294803e693:0x28bc43c2fda4353c!8m2!3d26.9345735!4d80.952588!16s%2Fg%2F11sfkpg16v!19sChIJk-YDSClXmTkRPDWk_cJDvCg?authuser=0&hl=en&rclk=1,Sainik Ardh Sanik Canteen
Jq6vYNKlXmTkR4fNswafW-Uw," Madiyaon Gaon Rd, Sector I, Janki Vihar Colony, Jankipuram, Lucknow, Uttar Pradesh 226021",General store, 081819 49348,26.9239236,80.9486044,https://www.google.com/maps/place/Trust+Grocery+Store/data=!4m7!3m6!1s0x399957a934d8abab:0x4cf9d6a7c16cf3e1!8m2!3d26.9239236!4d80.9486044!16s%2Fg%2F11d_d3pnq4!19sChIJq6vYNKlXmTkR4fNswafW-Uw?authuser=0&hl=en&rclk=1,Trust Grocery Store
J624Z-HJXmTkRhtFpmb-GNEw," Indrapuri colony, sitapur, road, Lucknow, Uttar Pradesh 226021",Indian grocery store, 080815 93223,26.9264545,80.9351066,https://www.google.com/maps/place/Sameer+general+store/data=!4m7!3m6!1s0x39995772f8196eeb:0x4c3486bf9969d186!8m2!3d26.9264545!4d80.9351066!16s%2Fg%2F11rz3wpk72!19sChIJ624Z-HJXmTkRhtFpmb-GNEw?authuser=0&hl=en&rclk=1,Sameer general store
JP_W0fsdXmTkRB6TtwX_FHAo," No CP3, & CP4, Danbro Tower, Sitapur Rd Yojna, near Danbro Training Institute, Sector B, Aliganj, Lucknow, Uttar Pradesh 226021 Located in: Danbro Institute of Bakery & Culinary Art & Science",Hypermarket, 1800 891 0001,26.9074353,80.9458806,https://www.google.com/maps/place/Reliance+SMART+Bazaar/data=!4m7!3m6!1s0x399957c77eb4f53f:0xa1cc57fc1eda407!8m2!3d26.9074353!4d80.9458806!16s%2Fg%2F11w1lnxfl9!19sChIJP_W0fsdXmTkRB6TtwX_FHAo?authuser=0&hl=en&rclk=1,Reliance SMART Bazaar
JVdWAE4BXmTkRXIie6EI42fM," Sitapur Rd, near Engineering College Chauraha, Sector B, Jankipuram, Lucknow, Uttar Pradesh 226021",Hypermarket, 081788 08962,26.9105446,80.94828,https://www.google.com/maps/place/VISHAL+MEGA+MART/data=!4m7!3m6!1s0x399957801380d555:0xf3d93842e89e885c!8m2!3d26.9105446!4d80.94828!16s%2Fg%2F11qm38jyll!19sChIJVdWAE4BXmTkRXIie6EI42fM?authuser=0&hl=en&rclk=1,VISHAL MEGA MART
Jp8Ha-stXmTkRqLhdD-CfAN8," Sitapur Rd Yojna, Sector A, Jankipuram, Lucknow, Uttar Pradesh 226021",Grocery store, 099368 25498,26.9070092,80.9432493,https://www.google.com/maps/place/Vicky+General+Store/data=!4m7!3m6!1s0x399957cbfadac1a7:0xdf009fe00f5db8a8!8m2!3d26.9070092!4d80.9432493!16s%2Fg%2F11lgsctp9g!19sChIJp8Ha-stXmTkRqLhdD-CfAN8?authuser=0&hl=en&rclk=1,Vicky General Store
JWThXPdhXmTkR5seY9rjCBvw," Shop No, MDI 9, Sector I Main Rd, near Sahara Estate, Sector I, Janki Vihar Colony, Jankipuram, Lucknow, Uttar Pradesh 226021",Indian grocery store, 075186 02109,26.920136,80.952345,https://www.google.com/maps/place/Patanjali+Chikitsalay/data=!4m7!3m6!1s0x399957d83d573859:0xfc06c2b8f698c7e6!8m2!3d26.920136!4d80.952345!16s%2Fg%2F11gzq9z0p6!19sChIJWThXPdhXmTkR5seY9rjCBvw?authuser=0&hl=en&rclk=1,Patanjali Chikitsalay
JRRUCjLRXmTkRwpGH_TVP7AE," UGF 44Adarsh Complex, Sector B, Jankipuram, Lucknow, Uttar Pradesh 226021",Organic food store, 090441 03000,26.9107875,80.9451479,https://www.google.com/maps/place/Organic+Parivar/data=!4m7!3m6!1s0x399957b48c021545:0x1ec4f35fd8791c2!8m2!3d26.9107875!4d80.9451479!16s%2Fg%2F11c548_njr!19sChIJRRUCjLRXmTkRwpGH_TVP7AE?authuser=0&hl=en&rclk=1,Organic Parivar
JwSFhoVRWmTkR134rNtff0cQ," 60 Feet Rd, Sultanpur Village, Jankipuram, Lucknow, Uttar Pradesh 226021",Grocery store, 074085 74085,26.9245317,80.9420415,https://www.google.com/maps/place/Vestige+DLCP+Jankipuram/data=!4m7!3m6!1s0x39995654a16121c1:0xc4d1dfd7362b7ed7!8m2!3d26.9245317!4d80.9420415!16s%2Fg%2F11hchvty7f!19sChIJwSFhoVRWmTkR134rNtff0cQ?authuser=0&hl=en&rclk=1,Vestige DLCP Jankipuram
Jx26VJolXmTkR0zqrexgTCP4," Sahara Estate &Grace Road, in front of Glamour Beauty Parlour, Lucknow, Uttar Pradesh 226021",Produce market, 063887 78077,26.9210439,80.953323,https://www.google.com/maps/place/BABA+JI+VEGETABLES+SHOP/data=!4m7!3m6!1s0x3999578926956ec7:0xfe0813187bab3ad3!8m2!3d26.9210439!4d80.953323!16s%2Fg%2F11rvlqw5js!19sChIJx26VJolXmTkR0zqrexgTCP4?authuser=0&hl=en&rclk=1,BABA JI VEGETABLES SHOP
JFQHTQlZWmTkR-rYVDhFjcNY," PLOT NO. CP - 49, Sitapur Rd, Diguria, Sector E, SCHEME, Lucknow, Uttar Pradesh 226021",Hypermarket, 074284 34502,26.9266175,80.9357753,https://www.google.com/maps/place/Vishal+Mega+Mart/data=!4m7!3m6!1s0x3999565642d30115:0xd67063110e15b6fa!8m2!3d26.9266175!4d80.9357753!16s%2Fg%2F11y4tdmk6_!19sChIJFQHTQlZWmTkR-rYVDhFjcNY?authuser=0&hl=en&rclk=1,Vishal Mega Mart
JtfONyq_imzkRGKPvekAbMjo," Shivam Palace, Polytechnic Flyover, Near OBC/PNB bank, Block D, Indira Nagar, Lucknow, Uttar Pradesh 226016",Supermarket, 090059 99457,26.8755752,80.9955288,https://www.google.com/maps/place/Family+Bazar+Polytechnic/data=!4m7!3m6!1s0x399be2afca8df3b5:0x3a321b407aefa318!8m2!3d26.8755752!4d80.9955288!16s%2Fg%2F1hf31q_1b!19sChIJtfONyq_imzkRGKPvekAbMjo?authuser=0&hl=en&rclk=1,Family Bazar Polytechnic
JOyywQ6fimzkRTb_oh2U8ZVc," 10/706, Jama Masjid Rd, Sector 10, Indira Nagar, Lucknow, Uttar Pradesh 226016",Grocery store, 098072 55215,26.885476,81.002644,https://www.google.com/maps/place/ARYA+MART/data=!4m7!3m6!1s0x399be2a743b02c3b:0x57653c6587e8bf4d!8m2!3d26.885476!4d81.002644!16s%2Fg%2F11fxqqw1qs!19sChIJOyywQ6fimzkRTb_oh2U8ZVc?authuser=0&hl=en&rclk=1,ARYA MART
JFaXNYs_imzkR4jwEUl7DzjU," 4/267, Vivek Khand 4, Gomti Nagar, Lucknow, Uttar Pradesh 226010",Grocery store, 097920 06234,26.8547171,80.9979468,https://www.google.com/maps/place/Arora+Departmental+Store/data=!4m7!3m6!1s0x399be2cf62cda515:0x35cec35e52043ce2!8m2!3d26.8547171!4d80.9979468!16s%2Fg%2F1hm1r7my3!19sChIJFaXNYs_imzkR4jwEUl7DzjU?authuser=0&hl=en&rclk=1,Arora Departmental Store
JVVVV5QdYmTkRv9eNG4Lt8GY," 134, Sector 13, Indira Nagar, Lucknow, Uttar Pradesh 226016",Grocery store, 091450 12550,26.8867415,80.9974679,https://www.google.com/maps/place/24+7+Super+Store/data=!4m7!3m6!1s0x39995807e5555555:0x66f0ed821b8dd7bf!8m2!3d26.8867415!4d80.9974679!16s%2Fg%2F11n60d4549!19sChIJVVVV5QdYmTkRv9eNG4Lt8GY?authuser=0&hl=en&rclk=1,24 7 Super Store
Jc9NuevfjmzkRxLkorOUELfY," Shalimae Eldee Plaza, Sector 5, Indira Nagar, Lucknow, Uttar Pradesh 226016",Hypermarket, 1800 891 0001,26.8725343,80.9834778,https://www.google.com/maps/place/Reliance+SMART+Bazaar/data=!4m7!3m6!1s0x399be3f77a6ed373:0xf62d04e5ac28b9c4!8m2!3d26.8725343!4d80.9834778!16s%2Fg%2F11v44w72x9!19sChIJc9NuevfjmzkRxLkorOUELfY?authuser=0&hl=en&rclk=1,Reliance SMART Bazaar
JK80DKBT9mzkRSt2ZX918oyA," 1, Avadhpuri, Liberty Colony Park, Sarvodaya Nagar, Indira Nagar, Lucknow, Uttar Pradesh 226016",Grocery store, 098394 87476,26.8822427,80.9702203,https://www.google.com/maps/place/Jain+Provision+Store/data=!4m7!3m6!1s0x399bfd142803cd2b:0x20a37cdd5f99dd4a!8m2!3d26.8822427!4d80.9702203!16s%2Fg%2F11rj03sn6w!19sChIJK80DKBT9mzkRSt2ZX918oyA?authuser=0&hl=en&rclk=1,Jain Provision Store
Jc1E6Cj7jmzkR20lytKxGzFM," 297 A, 297 A, Sector 10 Main Rd, Sector 10, Indira Nagar, Lucknow, Uttar Pradesh 226016",Grocery store, 075100 03758,26.8883038,81.0034375,https://www.google.com/maps/place/Bestway+Supermart/data=!4m7!3m6!1s0x399be33e0a3a5173:0x53cc46acb47249db!8m2!3d26.8883038!4d81.0034375!16s%2Fg%2F11p64jmnjs!19sChIJc1E6Cj7jmzkR20lytKxGzFM?authuser=0&hl=en&rclk=1,Bestway Supermart
J9S0-GTXjmzkR3arAZA38nxg," Plot no 3, Yashoda colony, Matiyari, Chinhat, Lucknow, Uttar Pradesh 226028",Grocery store, 088023 29429,26.8803294,81.0401869,https://www.google.com/maps/place/City+Grocery+Shop/data=!4m7!3m6!1s0x399be335193e2df5:0x189ffc0d64c0aadd!8m2!3d26.8803294!4d81.0401869!16s%2Fg%2F11n07cwm4n!19sChIJ9S0-GTXjmzkR3arAZA38nxg?authuser=0&hl=en&rclk=1,City Grocery Shop
Jv8i84IlZmTkR-V7zIdxV0qQ," Khan Plaza, Ambedkar Chauraha, Budh Vihar, Shivaji Puram, Takrohi, Indira Nagar, Lucknow, Uttar Pradesh 226016",Grocery store, 072752 79969,26.8992041,81.0109486,https://www.google.com/maps/place/Daily+Delight+Grocery+Store/data=!4m7!3m6!1s0x39995989e0bcc8bf:0xa4d255dc21f35ef9!8m2!3d26.8992041!4d81.0109486!16s%2Fg%2F11l6yr1z75!19sChIJv8i84IlZmTkR-V7zIdxV0qQ?authuser=0&hl=en&rclk=1,Daily Delight Grocery Store
J81l2u59XmTkRBeUkHeFNE00," Picnic spot Road, Khurram Nagar Rd, opp. Fatimi masjid, Sector 8, Vikas Nagar, Lucknow, Uttar Pradesh 226022",Grocery store, 088819 99204,26.8894888,80.9680216,https://www.google.com/maps/place/New+Lucknow+store/data=!4m7!3m6!1s0x3999579fbb7659f3:0x4d134de11d24e505!8m2!3d26.8894888!4d80.9680216!16s%2Fg%2F11n6r7jyzk!19sChIJ81l2u59XmTkRBeUkHeFNE00?authuser=0&hl=en&rclk=1,New Lucknow store
JuSWykhZZmTkR5vhHEfEI9iE," 34, surya city, near, Takrohi Rd, Budh Vihar, Shivaji Puram, Takrohi, Indira Nagar, Lucknow, Uttar Pradesh 226016",Grocery store, 082990 23382,26.9013732,81.0121598,https://www.google.com/maps/place/UP+32+Super+Store/data=!4m7!3m6!1s0x3999591692b225b9:0x21f608f11147f8e6!8m2!3d26.9013732!4d81.0121598!16s%2Fg%2F11rcn91jtr!19sChIJuSWykhZZmTkR5vhHEfEI9iE?authuser=0&hl=en&rclk=1,UP 32 Super Store
JrzuBeln9mzkRiOkpxhWSJqg," A-1335/1, Vikas Bhawan Rd, Ghosi Purwa, Liberty Colony Park, Shakti Nagar, Indira Nagar, Lucknow, Uttar Pradesh 226016",Grocery store, 099353 83883,26.879359,80.9727971,https://www.google.com/maps/place/Pranami+Store/data=!4m7!3m6!1s0x399bfd597a813baf:0xa8269215c629e988!8m2!3d26.879359!4d80.9727971!16s%2Fg%2F11clh06805!19sChIJrzuBeln9mzkRiOkpxhWSJqg?authuser=0&hl=en&rclk=1,Pranami Store
JOYbopKjimzkRejC48Zvr-mA," D- 2058, Indira Nagar, Lucknow, Uttar Pradesh 226016",Discount supermarket, 088964 80864,26.8811724,80.9975651,https://www.google.com/maps/place/Kamal+Traders/data=!4m7!3m6!1s0x399be2a8a4e88639:0x60faeb9bf1b8307a!8m2!3d26.8811724!4d80.9975651!16s%2Fg%2F11bcd_82jx!19sChIJOYbopKjimzkRejC48Zvr-mA?authuser=0&hl=en&rclk=1,Kamal Traders
Jd_bppLLimzkRcA-iCWnHEoc," VXFQ+763, Azad Market, Opp HAL gate, Indira Nagar, Lucknow, Uttar Pradesh 226016",Grocery store, 094154 25152,26.873126,80.988035,https://www.google.com/maps/place/Lalit+Kirana+Store/data=!4m7!3m6!1s0x399be2b2a4e9f677:0x8712c76909a20f70!8m2!3d26.873126!4d80.988035!16s%2Fg%2F12hv2l1zm!19sChIJd_bppLLimzkRcA-iCWnHEoc?authuser=0&hl=en&rclk=1,Lalit Kirana Store
J10BlxDXjmzkRMxt35lKH5Ss," V322+QRH, Mahadev Plaza , In front of New Amity University, Malhor Laulai, Road, Lucknow, Uttar Pradesh 227105",Supermarket, 091985 81025,26.8519357,81.0521055,https://www.google.com/maps/place/MRS+SUPER+MARKET/data=!4m7!3m6!1s0x399be335c46540d7:0x2be58752e6771b33!8m2!3d26.8519357!4d81.0521055!16s%2Fg%2F11h3mv670h!19sChIJ10BlxDXjmzkRMxt35lKH5Ss?authuser=0&hl=en&rclk=1,MRS SUPER MARKET
JQdDQdzD_mzkRaareN7GY-WM," E-1045, Shaheed Bhagat Singh Marg, Block E, Rajajipuram, Lucknow, Uttar Pradesh 226017",Supermarket, 099188 85551,26.8391199,80.8763658,https://www.google.com/maps/place/Siddharth%28S-mart%29/data=!4m7!3m6!1s0x399bff3077d0d041:0x63f998b137deaa69!8m2!3d26.8391199!4d80.8763658!16s%2Fg%2F11gmf0qxqr!19sChIJQdDQdzD_mzkRaareN7GY-WM?authuser=0&hl=en&rclk=1,Siddharth(S-mart)
J-47bRi7_mzkRAeLTGoZhzPI," Main Road, Block D, Rajajipuram, Lucknow, Uttar Pradesh 226017",Grocery store, 0522 433 3704,26.8373344,80.8792306,https://www.google.com/maps/place/Shyam+Mart/data=!4m7!3m6!1s0x399bff2e46db8efb:0xf2cc61861ad3e201!8m2!3d26.8373344!4d80.8792306!16s%2Fg%2F11hzn3x3s9!19sChIJ-47bRi7_mzkRAeLTGoZhzPI?authuser=0&hl=en&rclk=1,Shyam Mart
Js3LY8nf_mzkRVvUrwMbTkIA," Block C, Rajajipuram, Lucknow, Uttar Pradesh 226017",Supermarket, 095320 75220,26.8433302,80.8876286,https://www.google.com/maps/place/Govind+Super+Store/data=!4m7!3m6!1s0x399bff77f2d872b3:0x8090d3c6c02bf556!8m2!3d26.8433302!4d80.8876286!16s%2Fg%2F11h01cwmnt!19sChIJs3LY8nf_mzkRVvUrwMbTkIA?authuser=0&hl=en&rclk=1,Govind Super Store
Jj6wnkor-mzkRGkCS6UrTcJk," Para Rd, Ram Vihar Colony, Devpur, Rajajipuram, Lucknow, Uttar Pradesh 226017",Grocery store, 099183 91660,26.8305761,80.8784073,https://www.google.com/maps/place/SAHU+GENERAL+STORE/data=!4m7!3m6!1s0x399bfe8a9227ac8f:0x9970d34ae992401a!8m2!3d26.8305761!4d80.8784073!16s%2Fg%2F11f37d817p!19sChIJj6wnkor-mzkRGkCS6UrTcJk?authuser=0&hl=en&rclk=1,SAHU GENERAL STORE
JyVmNimP-mzkR1Q1sgOxKlnE," S-57/17, Old, Double Puliyaa, near Community Centre, Block C, Rajajipuram, Lucknow, Uttar Pradesh 226017",Grocery store, 0522 400 9331,26.8373384,80.8837321,https://www.google.com/maps/place/G+MART+SUPER/data=!4m7!3m6!1s0x399bfe638a8d59c9:0x71964aec806c0dd5!8m2!3d26.8373384!4d80.8837321!16s%2Fg%2F11c3tj31fq!19sChIJyVmNimP-mzkR1Q1sgOxKlnE?authuser=0&hl=en&rclk=1,G MART SUPER
J6-gSEhD_mzkRrZCper3vSL8," Malpur Pakkabagh, New Haiderganj, Rajajipuram, Lucknow, Uttar Pradesh 226003",Grocery store, 096217 86051,26.84746,80.8855235,https://www.google.com/maps/place/Brothers+Store/data=!4m7!3m6!1s0x399bff101212e8eb:0xbf48efbd7aa990ad!8m2!3d26.84746!4d80.8855235!16s%2Fg%2F11h9l852_f!19sChIJ6-gSEhD_mzkRrZCper3vSL8?authuser=0&hl=en&rclk=1,Brothers Store
Js6Qgyjj-mzkRDgzK1qvX7Bo," Habibpur, Rajajipuram, Lucknow, Uttar Pradesh 226017",Grocery storeOpen ⋅ Closes 11 pm, 079051 54395,26.8560456,80.8705093,https://www.google.com/maps/place/Yousuf+General+Merchant/data=!4m7!3m6!1s0x399bfe38ca20a4b3:0x1aecd7abd6ca0c0e!8m2!3d26.8560456!4d80.8705093!16s%2Fg%2F11fylqbslb!19sChIJs6Qgyjj-mzkRDgzK1qvX7Bo?authuser=0&hl=en&rclk=1,Yousuf General Merchant
Ja-0ebb3_mzkRPoPDSjXVteI," Hardoi ring road, Devpur, Rajajipuram, Lucknow, Uttar Pradesh 226017",Indian grocery store, 089573 25890,26.8259317,80.8678724,https://www.google.com/maps/place/Mother+and+Baby+Retail+Mart/data=!4m7!3m6!1s0x399bffbd6d1eed6b:0xe2b5d5354ac3833e!8m2!3d26.8259317!4d80.8678724!16s%2Fg%2F11q4kp_8vh!19sChIJa-0ebb3_mzkRPoPDSjXVteI?authuser=0&hl=en&rclk=1,Mother and Baby Retail Mart
JRQCSjF_-mzkREL5G0Dz-yiE," D, D- Block, P.N.B. Bank, Rajajipuram, Lucknow, Uttar Pradesh 226017",Grocery store, 093691 09458,26.831891,80.875008,https://www.google.com/maps/place/Shri+Ram+Provision+Store/data=!4m7!3m6!1s0x399bfe5f8c920045:0x21cafe3cd046be10!8m2!3d26.831891!4d80.875008!16s%2Fg%2F1tmqdmkt!19sChIJRQCSjF_-mzkREL5G0Dz-yiE?authuser=0&hl=en&rclk=1,Shri Ram Provision Store
JFQF_-wb_mzkRX7Frda-NDLc," Sari Pura, Alamnagar, Rajajipuram, Lucknow, Uttar Pradesh 226017",Indian grocery storeOpen 24 hours, 083183 05306,26.8475059,80.8692579,https://www.google.com/maps/place/Food+Products+Lucknow/data=!4m7!3m6!1s0x399bff06fb7f0115:0xb70c8daf756bb15f!8m2!3d26.8475059!4d80.8692579!16s%2Fg%2F11n5sh5qzx!19sChIJFQF_-wb_mzkRX7Frda-NDLc?authuser=0&hl=en&rclk=1,Food Products Lucknow
JA0B__4__mzkR7MuyENIPrsA," F-3078, Matri Marg, Block F, Rajajipuram, Tadiyan, Lucknow, Uttar Pradesh 226011",Grocery store, 088404 72507,26.8428514,80.8735652,https://www.google.com/maps/place/All+In+One+Departmental+Store/data=!4m7!3m6!1s0x399bff8fff7f4003:0xc0ae0fd210b2cbec!8m2!3d26.8428514!4d80.8735652!16s%2Fg%2F11ltp2hq9d!19sChIJA0B__4__mzkR7MuyENIPrsA?authuser=0&hl=en&rclk=1,All In One Departmental Store
Jyz8ffl3-mzkRwPg4h5tLtc4," Shaheed Bhagat Singh Marg, Block E, Rajajipuram, Lucknow, Uttar Pradesh 226017",Grocery store, 0522 495 9980,26.840592,80.876504,https://www.google.com/maps/place/Patanjali+Mega+Store/data=!4m7!3m6!1s0x399bfe5d7e1f3fcb:0xceb54b9b8738f8c0!8m2!3d26.840592!4d80.876504!16s%2Fg%2F1ptyc27dw!19sChIJyz8ffl3-mzkRwPg4h5tLtc4?authuser=0&hl=en&rclk=1,Patanjali Mega Store
J0430p2P_mzkR7vQAwz0GOCA," Subrat Plaza, Block E, Rajajipuram, Lucknow, Uttar Pradesh 226017",Grocery store, 097958 36563,26.8453401,80.877202,https://www.google.com/maps/place/Blinkit+Super+Store+-+Rajajipuram/data=!4m7!3m6!1s0x399bff63a7f48dd3:0x2038063dc300f4ee!8m2!3d26.8453401!4d80.877202!16s%2Fg%2F11w34fkfhj!19sChIJ0430p2P_mzkR7vQAwz0GOCA?authuser=0&hl=en&rclk=1,Blinkit Super Store - Rajajipuram
JgxfSJov-mzkRq4sMCQrCGWQ," Devpur, Rajajipuram, Lucknow, Uttar Pradesh 226017",Grocery storeOpen ⋅ Closes 9 pm, 095069 55992,26.8284784,80.8775392,https://www.google.com/maps/place/Chauhan+Aata+Chakki/data=!4m7!3m6!1s0x399bfe8b26d21783:0x6419c20a090c8bab!8m2!3d26.8284784!4d80.8775392!16s%2Fg%2F11f32mfb0y!19sChIJgxfSJov-mzkRq4sMCQrCGWQ?authuser=0&hl=en&rclk=1,Chauhan Aata Chakki
JcyZRlrX_mzkRwUtppYFE2ak," E 3042, Mini Stadium Rd, Block E, Rajajipuram, Lucknow, Uttar Pradesh 226017",Indian grocery store, 088401 51533,26.843869,80.878751,https://www.google.com/maps/place/Laxmi+kirana+store/data=!4m7!3m6!1s0x399bffb596512673:0xa9d94481a5694bc1!8m2!3d26.843869!4d80.878751!16s%2Fg%2F11f9z_pr53!19sChIJcyZRlrX_mzkRwUtppYFE2ak?authuser=0&hl=en&rclk=1,Laxmi kirana store
J15g_HvX_mzkRKEUTJb-LJcI," Ground Floor, near Kings Hotel, Block C, Rajajipuram, Lucknow, Uttar Pradesh 226017",Indian grocery store, 094150 03718,26.846979,80.8761527,https://www.google.com/maps/place/Patanjali+Mega+Store/data=!4m7!3m6!1s0x399bfff51e3f98d7:0xc2258bbf25134528!8m2!3d26.846979!4d80.8761527!16s%2Fg%2F11kj81pnzr!19sChIJ15g_HvX_mzkRKEUTJb-LJcI?authuser=0&hl=en&rclk=1,Patanjali Mega Store
JdTIPd0L-mzkRNcQuaZmNlQA," Lucknow E block triyan, Mandir Marg, Rajajipuram, Lucknow, Uttar Pradesh 226017",Organic food store, 088583 65858,26.8425195,80.8772927,https://www.google.com/maps/place/N.G.FAST+FOOD/data=!4m7!3m6!1s0x399bfe42770f3275:0x958d99692ec435!8m2!3d26.8425195!4d80.8772927!16s%2Fg%2F11ckncjqp9!19sChIJdTIPd0L-mzkRNcQuaZmNlQA?authuser=0&hl=en&rclk=1,N.G.FAST FOOD
Jkf5L4hn_mzkR-4Z6B5-rFz0," No C2163, near Badam Ladu Chauraha, Sector G, Block A, Rajajipuram, Lucknow, Uttar Pradesh 226017",Indian grocery store, 075186 02106,26.8332259,80.8910438,https://www.google.com/maps/place/Patanjali+Chikitsalay/data=!4m7!3m6!1s0x399bff19e24bfe91:0x3d17ab9f077a86fb!8m2!3d26.8332259!4d80.8910438!16s%2Fg%2F11vc76271f!19sChIJkf5L4hn_mzkR-4Z6B5-rFz0?authuser=0&hl=en&rclk=1,Patanjali Chikitsalay
Jjbi_Ujj_mzkRKkMq2bqNLKY," Dubagga Chouraha, OPP. TV Tower, Lucknow, Uttar Pradesh 226017",Hypermarket, 078279 43408,26.8740682,80.8640511,https://www.google.com/maps/place/Vishal+Mega+Mart/data=!4m7!3m6!1s0x399bff3852bfb88d:0xa62c8dbad92a432a!8m2!3d26.8740682!4d80.8640511!16s%2Fg%2F11fk1dmz5k!19sChIJjbi_Ujj_mzkRKkMq2bqNLKY?authuser=0&hl=en&rclk=1,Vishal Mega Mart
JBWv472j-mzkRmUedfxAIZYo," C 2924, Mini Stadium Rd, Sapna Colony, Block C, Rajajipuram, Lucknow, Uttar Pradesh 226017",Restaurant, 073981 70797,26.8441243,80.8831794,https://www.google.com/maps/place/The+Foodywood+BY+RR%27s+Food+Hub/data=!4m7!3m6!1s0x399bfe68eff86b05:0x8a6508107f9d4799!8m2!3d26.8441243!4d80.8831794!16s%2Fg%2F11d_97047j!19sChIJBWv472j-mzkRmUedfxAIZYo?authuser=0&hl=en&rclk=1,The Foodywood BY RR's Food Hub
J6Xj-kcH_mzkRmniYNOF-0wY," VV8Q+GWG, Amber Ganj, Karim Ganj, Lucknow, Uttar Pradesh 226003",Supermarket, 076519 81363,26.8663189,80.8898293,https://www.google.com/maps/place/Apna+Mini+Store/data=!4m7!3m6!1s0x399bffc191fe78e9:0x6d37ee13498789a!8m2!3d26.8663189!4d80.8898293!16s%2Fg%2F11fkq8bs4x!19sChIJ6Xj-kcH_mzkRmniYNOF-0wY?authuser=0&hl=en&rclk=1,Apna Mini Store
JF1eEucn_mzkRT7UmH7N-Dbw," MIS chauraha, C-3383, beside Ki & ka salon, near Besides ki & ka salon, Block C, Rajajipuram, Lucknow, Uttar Pradesh 226017",Cafe, 083184 88612,26.8447241,80.8838775,https://www.google.com/maps/place/Pizza+Wizza+studio+%28Lucknow%29/data=!4m7!3m6!1s0x399bffc9b9845717:0xbc0d7eb31f26b54f!8m2!3d26.8447241!4d80.8838775!16s%2Fg%2F11mtmkz104!19sChIJF1eEucn_mzkRT7UmH7N-Dbw?authuser=0&hl=en&rclk=1,Pizza Wizza studio (Lucknow)
JfSVeNx79mzkRtXPYI1_0-pY," UGF, LGF, 195/067, Jagat Narayan Rd, Golaganj, Wazirganj, Lucknow, Uttar Pradesh 226018",Supermarket, 075710 20306,26.8571794,80.9198732,https://www.google.com/maps/place/P5+Bazaar+%28Golaganj%29+-+Fresh+Grocery+Store+%26+Supermarket+Essentials+for+Daily+Needs+%7C+Lucknow/data=!4m7!3m6!1s0x399bfd1e375e257d:0x96faf45f23d873b5!8m2!3d26.8571794!4d80.9198732!16s%2Fg%2F11y86qqf9k!19sChIJfSVeNx79mzkRtXPYI1_0-pY?authuser=0&hl=en&rclk=1,P5 Bazaar (Golaganj) - Fresh Grocery Store & Supermarket Essentials for Daily Needs | Lucknow
J_7ehd7n9mzkRsJK_QVkH9qw," 92, 14, Gautam Buddha Marg, Khayali Ganj, Aminabad, Lucknow, Uttar Pradesh 226018",Hypermarket, 062921 17028,26.8486004,80.9286608,https://www.google.com/maps/place/Kolkata+Mart/data=!4m7!3m6!1s0x399bfdb977a1b7ff:0xacf6075941bf92b0!8m2!3d26.8486004!4d80.9286608!16s%2Fg%2F1hd_lh2ts!19sChIJ_7ehd7n9mzkRsJK_QVkH9qw?authuser=0&hl=en&rclk=1,Kolkata Mart
Jgf2DF7f9mzkR7qhqCKdTNvE," 21, 141, Aminabad Rd, Fatehganj, Ganeshganj, Qurashi Nagar, Aminabad, Lucknow, Uttar Pradesh 226018",Indian grocery store, 094150 10424,26.844179,80.924768,https://www.google.com/maps/place/Moti+Ram+Provision+Store/data=!4m7!3m6!1s0x399bfdb71783fd81:0xf13653a7086aa8ee!8m2!3d26.844179!4d80.924768!16s%2Fg%2F1tgyz_gw!19sChIJgf2DF7f9mzkR7qhqCKdTNvE?authuser=0&hl=en&rclk=1,Moti Ram Provision Store
J8ZKeOLf9mzkRArZb91UWvAU," RWVG+X49, Aminabad Rd, near Garbar Jhala, near Jamuna Agency, Ganeshganj, Swadeshi Market, Aminabad, Lucknow, Uttar Pradesh 226018",Grocery store, 077040 01225,26.84491,80.92537,https://www.google.com/maps/place/Jamuna+Agencies/data=!4m7!3m6!1s0x399bfdb7389e92f1:0x5bc1655f75bb602!8m2!3d26.84491!4d80.92537!16s%2Fg%2F1thmctnb!19sChIJ8ZKeOLf9mzkRArZb91UWvAU?authuser=0&hl=en&rclk=1,Jamuna Agencies
J4ZOg1UL7mzkRMdYAPSBNZYs," shop no 9, The grocery paradice, Eldeco saubhgyam Arcade, Vrindavan Colony, Lucknow, Uttar Pradesh 226029",Grocery store, 098380 00219,26.7681361,80.9609863,https://www.google.com/maps/place/The+Grocery+Paradise/data=!4m7!3m6!1s0x399bfb42d5a093e1:0x8b654d203d00d631!8m2!3d26.7681361!4d80.9609863!16s%2Fg%2F11ltfyxj2c!19sChIJ4ZOg1UL7mzkRMdYAPSBNZYs?authuser=0&hl=en&rclk=1,The Grocery Paradise
J6X5VR1H9mzkR6YjRht58CuA," chauraha, Aminabad Rd, Fatehganj, Ganeshganj, Gallamandi, Aminabad, Lucknow, Uttar Pradesh 226018",Indian grocery store, 070079 18867,26.8438524,80.9241988,https://www.google.com/maps/place/Urban+grocery/data=!4m7!3m6!1s0x399bfd5147557ee9:0xe00a7cde86d188e9!8m2!3d26.8438524!4d80.9241988!16s%2Fg%2F11gjt97k_7!19sChIJ6X5VR1H9mzkR6YjRht58CuA?authuser=0&hl=en&rclk=1,Urban grocery
J-QwNRN9XmTkR1aT4gWxFjHA," Shop No. LS-2, 542-CC, Sector F, Jankipuram, Lucknow, Uttar Pradesh 226021",Indian grocery store, 082996 44309,26.9189876,80.9441609,https://www.google.com/maps/place/Kirana+Bazaar+Super+Market/data=!4m7!3m6!1s0x399957df440d0cf9:0x708c456c81f8a4d5!8m2!3d26.9189876!4d80.9441609!16s%2Fg%2F11vqldb726!19sChIJ-QwNRN9XmTkR1aT4gWxFjHA?authuser=0&hl=en&rclk=1,Kirana Bazaar Super Market
JzXj_4l37mzkRmtB2EbqNkZ0," Rewtapur Tiraha, Telibagh road, Durgapuri Colony, Neelmatha, Lucknow, 226002",Indian grocery store, 098382 77703,26.7846608,80.9659067,https://www.google.com/maps/place/Mishra+Grocery+and+Stationery+Shop/data=!4m7!3m6!1s0x399bfb5de2ff78cd:0x9d918dba1176d09a!8m2!3d26.7846608!4d80.9659067!16s%2Fg%2F11ddzqhjh_!19sChIJzXj_4l37mzkRmtB2EbqNkZ0?authuser=0&hl=en&rclk=1,Mishra Grocery and Stationery Shop
JedYiK6vjmzkR_etxhBslCFg," Bagiamau, Lucknow, Uttar Pradesh 226002",SupermarketOpen ⋅ Closes 9 pm, 095656 65839,26.7955967,81.0127271,https://www.google.com/maps/place/Singh+Market/data=!4m7!3m6!1s0x399be3ab2b22d679:0x5808251b8471ebfd!8m2!3d26.7955967!4d81.0127271!16s%2Fg%2F11gwmlhbcc!19sChIJedYiK6vjmzkR_etxhBslCFg?authuser=0&hl=en&rclk=1,Singh Market
J2XsSYS3imzkRNiDKjEURI7k," meva surjan market, yadavansi tiraha, chinhut, Lolai, Lucknow, Uttar Pradesh 226028",Grocery store, 096215 71078,26.8452993,81.0645324,https://www.google.com/maps/place/Meva+Surjan+Market/data=!4m7!3m6!1s0x399be22d61127bd9:0xb92311458cca2036!8m2!3d26.8452993!4d81.0645324!16s%2Fg%2F11c1pl0dlh!19sChIJ2XsSYS3imzkRNiDKjEURI7k?authuser=0&hl=en&rclk=1,Meva Surjan Market
JSZ6Vlc39mzkRecC8Lm44Vv8," 11-1142, Madhav Nagar, Sector 11, Indira Nagar, Lucknow, Uttar Pradesh 226016",Indian grocery store, 091704 80809,26.8883822,81.0053576,https://www.google.com/maps/place/Astitva+Mini+Mart/data=!4m7!3m6!1s0x399bfdcd95959e49:0xff56386e2ebcc079!8m2!3d26.8883822!4d81.0053576!16s%2Fg%2F11s9f91fmt!19sChIJSZ6Vlc39mzkRecC8Lm44Vv8?authuser=0&hl=en&rclk=1,Astitva Mini Mart
JgxGSKA_7mzkRXJS4JMmMFB0," Raibareli Rd, Sector 10, C/17, Vrindavan Colony, Lucknow, Baraulikhalilabad, Uttar Pradesh 226029",Indian grocery store, 099847 17627,26.765993,80.9721315,https://www.google.com/maps/place/FAMILY+MEGAMART/data=!4m7!3m6!1s0x399bfb0f28921183:0x1d148cc924b8945c!8m2!3d26.765993!4d80.9721315!16s%2Fg%2F11f7nscfwz!19sChIJgxGSKA_7mzkRXJS4JMmMFB0?authuser=0&hl=en&rclk=1,FAMILY MEGAMART
JE9OPlaz-mzkR5fq-SwHnTmw," QVPV+V2R, Hind Nagar, Sector C1, LDA Colony, Lucknow, Uttar Pradesh 226012",Supermarket, 080523 95410,26.7872408,80.8925068,https://www.google.com/maps/place/swastik+general+store/data=!4m7!3m6!1s0x399bfeac958fd313:0x6c4ee7014bbefae5!8m2!3d26.7872408!4d80.8925068!16s%2Fg%2F11gf9qgkw3!19sChIJE9OPlaz-mzkR5fq-SwHnTmw?authuser=0&hl=en&rclk=1,swastik general store
JN7PyPDH5mzkRKFimM_h4QFM," QVG9+JXM, Sunara Rustam Vihar colony near CIPET College, Lucknow, Uttar Pradesh 226008",Indian grocery store, 096956 72100,26.7765826,80.8699124,https://www.google.com/maps/place/Amit+Provision+Store/data=!4m7!3m6!1s0x399bf9313cf2b337:0x534078f833a65828!8m2!3d26.7765826!4d80.8699124!16s%2Fg%2F11bwf8rq3k!19sChIJN7PyPDH5mzkRKFimM_h4QFM?authuser=0&hl=en&rclk=1,Amit Provision Store
Je97DOeX6mzkRrBiKC-6Q3f8," 1, Raebareli Rd Vijay Nagar, Raibareli Rd, Vijay Nagar, Ekta Nagar, Kalli Pashchim, Lucknow, Uttar Pradesh 226301",Grocery store, 096286 16000,26.7334602,80.9550353,https://www.google.com/maps/place/yadav+provision+store/data=!4m7!3m6!1s0x399bfae539c3de7b:0xffdd90ee0b8a18ac!8m2!3d26.7334602!4d80.9550353!16s%2Fg%2F11g9qjtg2v!19sChIJe97DOeX6mzkRrBiKC-6Q3f8?authuser=0&hl=en&rclk=1,yadav provision store
Ji-K8b974mzkRAAAAMEeOb2w," Saurabh Ganral Stor, Amousi, Lucknow, Uttar Pradesh 226008",Indian grocery store, 081888 75071,26.7618293,80.8496671,https://www.google.com/maps/place/Saurabh+Ganral+Stor/data=!4m7!3m6!1s0x399bf8de6fbce28b:0x6c6f8e4730000000!8m2!3d26.7618293!4d80.8496671!16s%2Fg%2F11q96mmzjp!19sChIJi-K8b974mzkRAAAAMEeOb2w?authuser=0&hl=en&rclk=1,Saurabh Ganral Stor
Ji6CtpAj9mzkRgB25x84K2m4," B-34, Janpath Market, Janpath Market, Near Vehicle Stand, Hazratganj, Lucknow, Uttar Pradesh 226001",Grocery store, 0522 326 2949,26.84852,80.94742,https://www.google.com/maps/place/Retailers/data=!4m7!3m6!1s0x399bfd08a4ada08b:0x6eda0acec7b91d80!8m2!3d26.84852!4d80.94742!16s%2Fg%2F1td9z2g1!19sChIJi6CtpAj9mzkRgB25x84K2m4?authuser=0&hl=en&rclk=1,Retailers
J7QZBGr1XmTkR8cBj32YefkA," 3, 14, Kursi Rd, Sector H, Jankipuram, Lucknow, Uttar Pradesh 226021",Grocery store, 070813 65110,26.9171487,80.9627748,https://www.google.com/maps/place/BANSAL+SUPER+STORE/data=!4m7!3m6!1s0x399957bd1a4106ed:0x407e1e66df63c0f1!8m2!3d26.9171487!4d80.9627748!16s%2Fg%2F11g6nzyj5t!19sChIJ7QZBGr1XmTkR8cBj32YefkA?authuser=0&hl=en&rclk=1,BANSAL SUPER STORE
JSYLeE7pXmTkR557tVRdX9FE," SIH-20, Near, Prabhat Chauraha, Sector I, Janki Vihar Colony, Jankipuram, Lucknow, Uttar Pradesh 226021",Indian grocery store, 096708 59598,26.9225881,80.9464057,https://www.google.com/maps/place/A+To+Z+Daily+Needs/data=!4m7!3m6!1s0x399957ba13de8249:0x51f4571755ed9ee7!8m2!3d26.9225881!4d80.9464057!16s%2Fg%2F11b9061lb2!19sChIJSYLeE7pXmTkR557tVRdX9FE?authuser=0&hl=en&rclk=1,A To Z Daily Needs
JyTy-9sNXmTkReruAY27ueGY," 1/747, Vikas Nagar Rd, Sector 1, Vikas Nagar, Lucknow, Uttar Pradesh 226022",Department store, 086019 69777,26.9002425,80.9595111,https://www.google.com/maps/place/Aman+Store/data=!4m7!3m6!1s0x399957c3f6be3cc9:0x6678ee6e6380bb7a!8m2!3d26.9002425!4d80.9595111!16s%2Fg%2F11b8zpf1n8!19sChIJyTy-9sNXmTkReruAY27ueGY?authuser=0&hl=en&rclk=1,Aman Store
JZTWWEqxXmTkRyLew5vgYTTc," Madiyaon Gaon Rd, near UNITED CITY COLONY, Janki Vihar Colony, Jankipuram, Lucknow, Uttar Pradesh 226021",Indian grocery store, 085749 94917,26.9235294,80.9484676,https://www.google.com/maps/place/G.G.STORE/data=!4m7!3m6!1s0x399957ac12963565:0x374d18f8e6b0b7c8!8m2!3d26.9235294!4d80.9484676!16s%2Fg%2F11c75_h_jj!19sChIJZTWWEqxXmTkRyLew5vgYTTc?authuser=0&hl=en&rclk=1,G.G.STORE
JVWOld4hXmTkRV-u_IIrYTdE," 5/337, Sector 5, Jankipuram Extension, Lucknow, Uttar Pradesh 226031",Grocery store, 088876 59544,26.9362319,80.9426463,https://www.google.com/maps/place/Day+2+Day+Super+Mart/data=!4m7!3m6!1s0x3999578877a56355:0xd14dd88a20bfeb57!8m2!3d26.9362319!4d80.9426463!16s%2Fg%2F11t3gbfz7f!19sChIJVWOld4hXmTkRV-u_IIrYTdE?authuser=0&hl=en&rclk=1,Day 2 Day Super Mart
JRcNCG2hXmTkRLZGl0O9js5Y," Plot No 73A, 60 Feet Rd, near Krishna Bhakti Dham, Saraswatipuram, Janki Vihar Colony, Jankipuram, Lucknow, Uttar Pradesh 226021",Indian grocery store, 089487 00016,26.9319398,80.9462557,https://www.google.com/maps/place/Patanjali+Chikitsalay/data=!4m7!3m6!1s0x399957681b42c345:0x96b363efd0a5912d!8m2!3d26.9319398!4d80.9462557!16s%2Fg%2F11sjj_z7jg!19sChIJRcNCG2hXmTkRLZGl0O9js5Y?authuser=0&hl=en&rclk=1,Patanjali Chikitsalay
JI6jgaqlXmTkRstzRCR1eOak," WWGX+6P2, Madiyaon Gaon Rd, Janki Vihar Colony, Jankipuram, Lucknow, Uttar Pradesh 226021",Department store, 098383 88666,26.9255067,80.949267,https://www.google.com/maps/place/Naveen+Store/data=!4m7!3m6!1s0x399957a96ae0a823:0xa9395e1d09d1dcb2!8m2!3d26.9255067!4d80.949267!16s%2Fg%2F11b90cyw24!19sChIJI6jgaqlXmTkRstzRCR1eOak?authuser=0&hl=en&rclk=1,Naveen Store
Jf9koQ4NXmTkRn0xjCREQm4g," 8, Ravindra Garden Rd, Chandralok Colony, Chandralok, Lucknow, Uttar Pradesh 226020",Grocery store, 080525 11450,26.8899936,80.946328,https://www.google.com/maps/place/BANSAL+SUPER+STORE/data=!4m7!3m6!1s0x399957834328d97f:0x889b101109634c9f!8m2!3d26.8899936!4d80.946328!16s%2Fg%2F11smls_48d!19sChIJf9koQ4NXmTkRn0xjCREQm4g?authuser=0&hl=en&rclk=1,BANSAL SUPER STORE
JQZ7cga9XmTkRH-vfKckpb4w," H,, 5/97, Sector I Main Rd, Sector G, Jankipuram, Lucknow, Uttar Pradesh 226021",Grocery store, 081272 21222,26.921145,80.9537096,https://www.google.com/maps/place/Maa+Purna+Giirii+Store/data=!4m7!3m6!1s0x399957af81dc9e41:0x8c6f29c929dfeb1f!8m2!3d26.921145!4d80.9537096!16s%2Fg%2F11g5_n93gy!19sChIJQZ7cga9XmTkRH-vfKckpb4w?authuser=0&hl=en&rclk=1,Maa Purna Giirii Store
JaZ_7HmZXmTkRtF8oh-5kOZY," B-144,SECTOR F,OPP. ICICI BANK, SAHARA ESTATE, ROAD, Jankipuram, Lucknow, Uttar Pradesh 226021",Indian grocery store, 091364 86455,26.9180565,80.9518664,https://www.google.com/maps/place/Easyday+Club/data=!4m7!3m6!1s0x399957661efb9f69:0x963964ee87285fb4!8m2!3d26.9180565!4d80.9518664!16s%2Fg%2F11fks3r6gr!19sChIJaZ_7HmZXmTkRtF8oh-5kOZY?authuser=0&hl=en&rclk=1,Easyday Club
Jf6MD-RDjmzkR8Qq8gH7Eq98," C-2024, Aravali Marg, Block C, Indira Nagar, Lucknow, Uttar Pradesh 226016",Grocery store, 073554 31705,26.880803,80.991342,https://www.google.com/maps/place/Grocery+House/data=!4m7!3m6!1s0x399be310f903a37f:0xdfabc47e80bc0af1!8m2!3d26.880803!4d80.991342!16s%2Fg%2F11qzwn0d3m!19sChIJf6MD-RDjmzkR8Qq8gH7Eq98?authuser=0&hl=en&rclk=1,Grocery House
J4-RXMrBZmTkRZrndkZYLD1Y," VXWW+H8Q, 1 Bala Ji Market, Chandanapur, Indira Nagar, Lucknow, Uttar Pradesh 226016",Supermarket, 088406 64625,26.8964368,80.9958656,https://www.google.com/maps/place/Sri+Bala+Ji+Mart/data=!4m7!3m6!1s0x399959b03257e4e3:0x560f0b9691ddb966!8m2!3d26.8964368!4d80.9958656!16s%2Fg%2F11t4dp235s!19sChIJ4-RXMrBZmTkRZrndkZYLD1Y?authuser=0&hl=en&rclk=1,Sri Bala Ji Mart
JLx0J2E5ZmTkRxb4XJ4EnxRg," CHITRA COMPLEX, AMBEDKAR CHAURAHA, Budh Vihar, Shivaji Puram, Takrohi, Indira Nagar, Lucknow, Uttar Pradesh 226016",Grocery store, 096800 15677,26.8988943,81.0113143,https://www.google.com/maps/place/GRIHASTHI+SUPERMART/data=!4m7!3m6!1s0x3999594ed8091d2f:0x18c527812717bec5!8m2!3d26.8988943!4d81.0113143!16s%2Fg%2F11j7vtr3dg!19sChIJLx0J2E5ZmTkRxb4XJ4EnxRg?authuser=0&hl=en&rclk=1,GRIHASTHI SUPERMART
JVxail-rjmzkR13but748nFg," Shop no 19,20,21, 22, Kathauta Chauraha Rd, in front of petrol pump, Vijayant Khand, Gomti Nagar, Lucknow, Uttar Pradesh 226010",Supermarket, 088535 67103,26.8658214,81.0242527,https://www.google.com/maps/place/Express+daily+Mart/data=!4m7!3m6!1s0x399be3ea97a21657:0x589c3cbeb7ee76d7!8m2!3d26.8658214!4d81.0242527!16s%2Fg%2F11slf03wv1!19sChIJVxail-rjmzkR13but748nFg?authuser=0&hl=en&rclk=1,Express daily Mart
Jo7SBvF3-mzkRAJ4Frc8AAbI," 7, Gol Chauraha, Block C, Rajajipuram, Lucknow, Uttar Pradesh 226017",Indian grocery store, 098390 11373,26.8409858,80.8836569,https://www.google.com/maps/place/KHALSA+MALL+-+Grocery+Store+in+Rajajipuram/data=!4m7!3m6!1s0x399bfe5dbc81b4a3:0xb20100cfad059e00!8m2!3d26.8409858!4d80.8836569!16s%2Fg%2F11b7ty2wgt!19sChIJo7SBvF3-mzkRAJ4Frc8AAbI?authuser=0&hl=en&rclk=1,KHALSA MALL - Grocery Store in Rajajipuram
Ja1EJn779mzkRwH3F5UBDLlE," 69 A, Latouche Rd, opposite Durga khasta corner, adjacent to colour planet, Aminabad, Lucknow, Uttar Pradesh 226018",Industrial engineer, 094151 55088,26.842575,80.9273977,"https://www.google.com/maps/place/Bearing+Center-SKF,+NBC,+TEXSPIN,+ARB,+FENNER+V-BELTS+AUTHORISED+DEALER./data=!4m7!3m6!1s0x399bfdbe9f09516b:0x512e4340e5c57dc0!8m2!3d26.842575!4d80.9273977!16s%2Fg%2F11lybd484w!19sChIJa1EJn779mzkRwH3F5UBDLlE?authuser=0&hl=en&rclk=1","Bearing Center-SKF, NBC, TEXSPIN, ARB, FENNER V-BELTS AUTHORISED DEALER."
Jt0ddeZ77mzkRRtfROQPY1_E," near Akash Enclave Road, Babhnan Basti, Sector 6, Vrindavan Colony, Lucknow, Uttar Pradesh 226002",Indian grocery store, 073099 65015,26.7759644,80.9503585,https://www.google.com/maps/place/BIG+MAART/data=!4m7!3m6!1s0x399bfb9e795d47b7:0xf1d7d80339d1d746!8m2!3d26.7759644!4d80.9503585!16s%2Fg%2F11nm9r_488!19sChIJt0ddeZ77mzkRRtfROQPY1_E?authuser=0&hl=en&rclk=1,BIG MAART
J33IZ0wL7mzkR6gkmhoJph7Q," Behind Rajwansh Apartment, Near Ambedkar University, Shaheed Path, Raibareli Rd, Shaheed Nagar, Lucknow, Uttar Pradesh 226025",Indian grocery store, 095327 30724,26.7624972,80.9314137,https://www.google.com/maps/place/K+Mart+Grocery/data=!4m7!3m6!1s0x399bfb02d31972df:0xb4876982862609ea!8m2!3d26.7624972!4d80.9314137!16s%2Fg%2F11n0d61ds1!19sChIJ33IZ0wL7mzkR6gkmhoJph7Q?authuser=0&hl=en&rclk=1,K Mart Grocery
