placeId,address,category,phone,latitude,longitude,status,type,googleUrl,storeName,ratingText,stars,numberOfReviews,websites,coldCallProbabilityWeight
JfXTEXXv9DDkRrs2S_6iix58," Marina Arcade, G-7, Connaught Cir, Connaught Place, Delhi, 110001",Pharmaceuticals Exporter, 095605 43133,28.6339241,77.2170869,Available,NA,https://www.google.com/maps/place/METRO+CITY+PHARMACY/data=!4m7!3m6!1s0x390cfd7b5dc4747d:0x9fc7a2a8ff92cdae!8m2!3d28.6339241!4d77.2170869!16s%2Fg%2F11h8yfj32z!19sChIJfXTEXXv9DDkRrs2S_6iix58?authuser=0&hl=en&rclk=1,METRO CITY PHARMACY,4.1 stars 31 Reviews,4.1,31,"[""NA""]",100.00%
J3w2BVEj9DDkRfWNOZEiDkdw," Block G, Connaught Place, New Delhi, Delhi 110001",PharmacyCloses soon ⋅ 11 pm ⋅ Opens 7 am Tue, 080 4101 8123,28.6339233,77.217019,Available,In-store shopping,https://www.google.com/maps/place/Apollo+Pharmacy+-+Connaught+Place/data=!4m7!3m6!1s0x390cfd4854810ddf:0xdc918348644e637d!8m2!3d28.6339233!4d77.217019!16s%2Fg%2F124yb7n0b!19sChIJ3w2BVEj9DDkRfWNOZEiDkdw?authuser=0&hl=en&rclk=1,Apollo Pharmacy - Connaught Place,3.8 stars 228 Reviews,3.8,228,"[""https://www.apollopharmacy.in/?utm_source=gmb&utm_medium=organic&utm_campaign=sulekhapromanage-apollo-pharmacy""]",100.00%
Jj3JGgE_9DDkRXNopftg8nfQ," P. No. 121, GF, S. No. 88, opp. Hardinge Medical College, Sector 3, DIZ Area, Gole Market, New Delhi, Delhi 110001",Pharmacy, 080 4101 8138,28.6338301,77.2086662,Available,In-store shopping,https://www.google.com/maps/place/Apollo+Pharmacy+Diz+Staff+Quarters/data=!4m7!3m6!1s0x390cfd4f8046728f:0xf49d3cd87e29da5c!8m2!3d28.6338301!4d77.2086662!16s%2Fg%2F12q4qh3y8!19sChIJj3JGgE_9DDkRXNopftg8nfQ?authuser=0&hl=en&rclk=1,Apollo Pharmacy Diz Staff Quarters,3.7 stars 62 Reviews,3.7,62,"[""https://www.apollopharmacy.in/?utm_source=gmb&utm_medium=organic&utm_campaign=sulekhapromanage-apollo-pharmacy""]",100.00%
JseFYYwD9DDkRmCRZpd-PwWQ," 42, Bhagat Singh Market, Gole Market, New Delhi, Delhi 110001",Pharmacy, 074284 14710,28.6334813,77.207838,Available,Delivery,https://www.google.com/maps/place/SABD+PHARMACY/data=!4m7!3m6!1s0x390cfd006358e1b1:0x64c18fdfa5592498!8m2!3d28.6334813!4d77.207838!16s%2Fg%2F11ldxrhs5p!19sChIJseFYYwD9DDkRmCRZpd-PwWQ?authuser=0&hl=en&rclk=1,SABD PHARMACY,4.4 stars 13 Reviews,4.4,13,"[""NA""]",88.77%
JDRRjiDv9DDkRoUZdcnTsh38," Shop No 19, MCD Parking Complex, opposite GOVIND BALLABH PANT HOSPITAL, 64 Khamba, New Delhi, Delhi, 110002",Pharmacy, 098117 31473,28.6383186,77.2351267,Available,In-store shopping,https://www.google.com/maps/place/Zedson+Pharmacy/data=!4m7!3m6!1s0x390cfd3b8863140d:0x7f87ec74725d46a1!8m2!3d28.6383186!4d77.2351267!16s%2Fg%2F11n_y6xmkt!19sChIJDRRjiDv9DDkRoUZdcnTsh38?authuser=0&hl=en&rclk=1,Zedson Pharmacy,5.0 stars 27 Reviews,5,27,"[""http://www.zedsonpharmacy.com/""]",100.00%
JL3uTqVb9DDkRkHv6QgjcO40," Shop No 21, Gate No 6, Old Ramakrishna Ashram Marg, behind RML Hospital, North Block, Gole Market, New Delhi, Delhi 110001",Pharmacy, 011 2374 1627,28.6276988,77.1998572,Available,In-store shopping,https://www.google.com/maps/place/Rajkamal+Chemists/data=!4m7!3m6!1s0x390cfd56a9937b2f:0x8d3bdc0842fa7b90!8m2!3d28.6276988!4d77.1998572!16s%2Fg%2F11b8tx8d6x!19sChIJL3uTqVb9DDkRkHv6QgjcO40?authuser=0&hl=en&rclk=1,Rajkamal Chemists,3.8 stars 29 Reviews,3.8,29,"[""NA""]",98.80%
JRXVtJ9LiDDkRG2mLrCRfXRE," Chamber No 2, Bhagwan Das Rd, Government Officers Colony, India Gate, New Delhi, Delhi 110001",Pharmacy, 011 2338 8582,28.6196267,77.2396966,Available,In-store shopping,https://www.google.com/maps/place/Apollo+Pharmacy+Bhagwan+Das+Road/data=!4m7!3m6!1s0x390ce2d2276d7545:0x115d5f24ac8b691b!8m2!3d28.6196267!4d77.2396966!16s%2Fg%2F11cm0dvf3j!19sChIJRXVtJ9LiDDkRG2mLrCRfXRE?authuser=0&hl=en&rclk=1,Apollo Pharmacy Bhagwan Das Road,3.2 stars 35 Reviews,3.2,35,"[""https://www.apollopharmacy.in/?utm_source=locator&utm_medium=googleplaces""]",80.92%
JL7eO7VP9DDkRv-2hd2TbWBM," J6G2+GCJ, RML Hospital Campus, near Blood Bank Building, Ram Manohar Lohia Hospital, Type III, President's Estate, New Delhi, Delhi 110001",Pharmacy, 098683 91308,28.626339,77.2010114,Available,NA,https://www.google.com/maps/place/Amrit+Pharmacy/data=!4m7!3m6!1s0x390cfd53ed8eb72f:0x1358db6477a1edbf!8m2!3d28.626339!4d77.2010114!16s%2Fg%2F11d_88t499!19sChIJL7eO7VP9DDkRv-2hd2TbWBM?authuser=0&hl=en&rclk=1,Amrit Pharmacy,2.7 stars 28 Reviews,2.7,28,"[""NA""]",69.50%
JcRt8HEj9DDkRLqZLs82Xhew," Shop No. 2G Ground Floor Marine Arcade Rajiv chowk metro station Gate no 1, Block G, Connaught Place, New Delhi, Delhi 110001",Pharmacy, 098994 41605,28.6338409,77.2174297,Available,In-store pick-up,https://www.google.com/maps/place/Nath+Brothers/data=!4m7!3m6!1s0x390cfd481c7c1b71:0xec8597cdb34ba62e!8m2!3d28.6338409!4d77.2174297!16s%2Fg%2F1tdb76dp!19sChIJcRt8HEj9DDkRLqZLs82Xhew?authuser=0&hl=en&rclk=1,Nath Brothers,3.6 stars 347 Reviews,3.6,347,"[""NA""]",100.00%
JS99ihc39DDkRc-xrtGsDqfE," 4605, Main Bazar Rd, Bagichi Ramchander, Kaseru Walan, Paharganj, New Delhi, Delhi 110055",Pharmacy, 011 4285 1717,28.6413525,77.2152356,Available,Delivery,https://www.google.com/maps/place/Right+Aid+medicos/data=!4m7!3m6!1s0x390cfdcd8562df4b:0xf1a9036bb46bec73!8m2!3d28.6413525!4d77.2152356!16s%2Fg%2F11jp08pds5!19sChIJS99ihc39DDkRc-xrtGsDqfE?authuser=0&hl=en&rclk=1,Right Aid medicos,5.0 stars 26 Reviews,5,26,"[""NA""]",100.00%
JR-V9HEj9DDkRAe6sQOxzAB0," G-3, Marina Arcade, Block G, Connaught Place, New Delhi, Delhi 110001",Pharmacy, 011 2332 1747,28.6339267,77.2172076,Available,Delivery,https://www.google.com/maps/place/Medicine+House+Chemist+%26+Druggist/data=!4m7!3m6!1s0x390cfd481c7de547:0x1d0073ec40acee01!8m2!3d28.6339267!4d77.2172076!16s%2Fg%2F11cntcsz9v!19sChIJR-V9HEj9DDkRAe6sQOxzAB0?authuser=0&hl=en&rclk=1,Medicine House Chemist & Druggist,3.7 stars 53 Reviews,3.7,53,"[""NA""]",100.00%
JV7Tarzf9DDkR2rSo-dCaihk," G-45, Connaught Cir, Block G, Connaught Place, New Delhi, Delhi 110001",Pharmacy, 011 4359 2755,28.632094,77.2168367,Available,Delivery,https://www.google.com/maps/place/Chaturbhuj+%26+Brothers/data=!4m7!3m6!1s0x390cfd37afdab457:0x198a9ad0f9a8b4da!8m2!3d28.632094!4d77.2168367!16s%2Fg%2F1tp8yf7w!19sChIJV7Tarzf9DDkR2rSo-dCaihk?authuser=0&hl=en&rclk=1,Chaturbhuj & Brothers,4.3 stars 106 Reviews,4.3,106,"[""NA""]",100.00%
JZ38mc7cDDTkRrdWQi5lQ6sI," 10/43, gangaram hospital road, Block 10, Old Rajinder Nagar, Rajinder Nagar, New Delhi, Delhi, 110060",Pharmacy, 093104 18181,28.6367373,77.1864322,Available,In-store pick-up,https://www.google.com/maps/place/Anytime+pharmacy/data=!4m7!3m6!1s0x390d03b773267f67:0xc2ea50998b90d5ad!8m2!3d28.6367373!4d77.1864322!16s%2Fg%2F11n0kjtglb!19sChIJZ38mc7cDDTkRrdWQi5lQ6sI?authuser=0&hl=en&rclk=1,Anytime pharmacy,3.0 stars 12 Reviews,3,12,"[""NA""]",58.82%
Jk7RfA4n9DDkRiP2tFBwPq1k," Ab 310, Amar Puri, Nabi Karim, Paharganj, New Delhi, Delhi 110055",Pharmacy, 093126 08757,28.648215,77.21481,Available,Delivery,https://www.google.com/maps/place/HAYAT+PHARMACY/data=!4m7!3m6!1s0x390cfd89035fb493:0x59ab0f1c14adfd88!8m2!3d28.648215!4d77.21481!16s%2Fg%2F11pxw3zw0y!19sChIJk7RfA4n9DDkRiP2tFBwPq1k?authuser=0&hl=en&rclk=1,HAYAT PHARMACY,4.8 stars 12 Reviews,4.8,12,"[""NA""]",94.12%
JEwuuGST9DDkRfDQG0oKouxM," 34, Plot, Block No, Metro Pillar No.77, 3, Pusa Rd, opposite Bal Bharati Public School, Block 18 A, WEA, Karol Bagh, New Delhi, Delhi 110005",Pharmacy, 092892 00575,28.6453068,77.1954563,Available,NA,https://www.google.com/maps/place/Apollo+Pharmacy+Karol+Bagh/data=!4m7!3m6!1s0x390cfd2419ae0b13:0x13bba882d206347c!8m2!3d28.6453068!4d77.1954563!16s%2Fg%2F11x1gdy0cz!19sChIJEwuuGST9DDkRfDQG0oKouxM?authuser=0&hl=en&rclk=1,Apollo Pharmacy Karol Bagh,5.0 stars 3 Reviews,5,3,"[""https://www.apollopharmacy.in/""]",48.91%
JVVUJSjf9DDkRw6VxFOlxF6w," Municipal Market, 43-44, opp. York Hotel, Connaught Place, New Delhi, Delhi 110001",Homeopathic pharmacy,011 2374 2450,28.635515,77.2211952,Available,Delivery,https://www.google.com/maps/place/Bhandari+Homoeopathic+Stores/data=!4m7!3m6!1s0x390cfd374a095555:0xac1771e91471a5c3!8m2!3d28.635515!4d77.2211952!16s%2Fg%2F11j01bnx6b!19sChIJVVUJSjf9DDkRw6VxFOlxF6w?authuser=0&hl=en&rclk=1,Bhandari Homoeopathic Stores,4.1 stars 57 Reviews,4.1,57,"[""http://bhandarihomeos.com/""]",100.00%
Jsyh_H6MCDTkRcIf2BGWjHJ0," Ground Floor, Shop No, 57/11, Shankar Road, Old Rajinder Nagar, Rajinder Nagar, New Delhi, Delhi 110060",Pharmacy, 080 4101 8284,28.6418393,77.1858008,Available,In-store shopping,https://www.google.com/maps/place/Apollo+Pharmacy+Old+Rajinder+Nagar/data=!4m7!3m6!1s0x390d02a31f7f28b3:0x9d1ca36504f68770!8m2!3d28.6418393!4d77.1858008!16s%2Fg%2F124t0j105!19sChIJsyh_H6MCDTkRcIf2BGWjHJ0?authuser=0&hl=en&rclk=1,Apollo Pharmacy Old Rajinder Nagar,3.6 stars 94 Reviews,3.6,94,"[""https://www.apollopharmacy.in/?utm_source=gmb&utm_medium=organic&utm_campaign=sulekhapromanage-apollo-pharmacy""]",100.00%
Jvx4vOuPiDDkRD167BqfbKSo," Shop No. 46, Khanna Market Rd, near Kotak Mahindra Bank ATM, Lodi Colony, New Delhi, Delhi 110003",Pharmacy, 080 4101 8258,28.5825017,77.2206343,Available,In-store shopping,https://www.google.com/maps/place/Apollo+Pharmacy+Khanna+Market+Road/data=!4m7!3m6!1s0x390ce2e33a2f1ebf:0x2a29dba706bb5e0f!8m2!3d28.5825017!4d77.2206343!16s%2Fg%2F1hjg_xs60!19sChIJvx4vOuPiDDkRD167BqfbKSo?authuser=0&hl=en&rclk=1,Apollo Pharmacy Khanna Market Road,3.6 stars 47 Reviews,3.6,47,"[""https://www.apollopharmacy.in/?utm_source=gmb&utm_medium=organic&utm_campaign=sulekhapromanage-apollo-pharmacy""]",98.34%
JxapLToX9DDkRQSXq1eGRIZE," No. 5251, Kohlapur House, 32, Jawahar Marg, opp. Yadav Mittai Wala, Block F, Kamla Nagar, New Delhi, Delhi, 110007",Pharmacy, 080 4101 8300,28.6776746,77.2050628,Available,In-store shopping,https://www.google.com/maps/place/Apollo+Pharmacy+Jawahar+Marg/data=!4m7!3m6!1s0x390cfd854e4baac5:0x912191e1d5ea2541!8m2!3d28.6776746!4d77.2050628!16s%2Fg%2F126243mp7!19sChIJxapLToX9DDkRQSXq1eGRIZE?authuser=0&hl=en&rclk=1,Apollo Pharmacy Jawahar Marg,3.7 stars 26 Reviews,3.7,26,"[""https://www.apollopharmacy.in/?utm_source=gmb&utm_medium=organic&utm_campaign=sulekhapromanage-apollo-pharmacy""]",86.05%
JQbA99nr9DDkRtum0pZFMT1E," SHOP NO-1 Subway Gate No 3 RML, Baba Kharak Singh Rd, Delhi 110001",Pharmacy,011 2337 0009,28.6249533,77.2017067,Available,NA,https://www.google.com/maps/place/Jan+Aushadhi+kendra/data=!4m7!3m6!1s0x390cfd7af63db041:0x514f4c91a5b4e9b6!8m2!3d28.6249533!4d77.2017067!16s%2Fg%2F11fj451rpf!19sChIJQbA99nr9DDkRtum0pZFMT1E?authuser=0&hl=en&rclk=1,Jan Aushadhi kendra,3.1 stars 11 Reviews,3.1,11,"[""NA""]",58.89%
Jpee6daLkDDkRzmHFthwpQNU," K. No. 63, S. No, A8/392, Shashi Park Rd, near Raymond, Mayur Vihar, New Delhi, Delhi 110091",Pharmacy, 080 4101 8302,28.608023,77.2937122,Available,In-store shopping,https://www.google.com/maps/place/Apollo+Pharmacy+Mayur+Vihar+I/data=!4m7!3m6!1s0x390ce4a275bae7a5:0xd540291cb6c561ce!8m2!3d28.608023!4d77.2937122!16s%2Fg%2F1jkwd1bs0!19sChIJpee6daLkDDkRzmHFthwpQNU?authuser=0&hl=en&rclk=1,Apollo Pharmacy Mayur Vihar I,3.4 stars 27 Reviews,3.4,27,"[""https://www.apollopharmacy.in/?utm_source=gmb&utm_medium=organic&utm_campaign=sulekhapromanage-apollo-pharmacy""]",79.94%
JwwHQWz3jDDkRI3fW7jwFvuk," 19, near Batra Jewels, Block A, Defence Colony, New Delhi, Delhi 110024",Pharmacy, 080 4101 8124,28.5732545,77.230179,Available,In-store shopping,"https://www.google.com/maps/place/Apollo+Pharmacy+-+Defence+Colony,+Delhi/data=!4m7!3m6!1s0x390ce33d5bd001c3:0xe9be053ceed67723!8m2!3d28.5732545!4d77.230179!16s%2Fg%2F11t61cn_fj!19sChIJwwHQWz3jDDkRI3fW7jwFvuk?authuser=0&hl=en&rclk=1","Apollo Pharmacy - Defence Colony, Delhi",3.6 stars 20 Reviews,3.6,20,"[""https://www.apollopharmacy.in/?utm_source=gmb&utm_medium=organic&utm_campaign=sulekhapromanage-apollo-pharmacy""]",77.34%
Jq0J7iVT9DDkR72iWM61ppas," Baba Kharak Singh Rd, near Gurudwara Bangla Sahib, Ram Manohar Lohia Hospital, Type III, Connaught Place, New Delhi, Delhi 110001",Pharmacy, 011 2336 5525,28.625857,77.202697,Available,NA,https://www.google.com/maps/place/Dr.+Ram+Manohar+Lohia+Hospital/data=!4m7!3m6!1s0x390cfd54897b42ab:0xaba569ad339668ef!8m2!3d28.625857!4d77.202697!16s%2Fm%2F02qpsfy!19sChIJq0J7iVT9DDkR72iWM61ppas?authuser=0&hl=en&rclk=1,Dr. Ram Manohar Lohia Hospital,"3.6 stars 2,441 Reviews",3.6,"2,441","[""http://rmlh.nic.in/""]",27.91%
JzVVXwWj9DDkRPCVgfE8UvgI," Shop No 5 lower ground floor, csc DDA Market, Rani Jhansi Rd, Motia Khan, Paharganj, New Delhi, Delhi 110055",Pharmacy, 095605 30965,28.6500016,77.2077995,Available,Delivery,https://www.google.com/maps/place/SHIV+MEDICOS/data=!4m7!3m6!1s0x390cfd68c15755cd:0x2be144f7c60253c!8m2!3d28.6500016!4d77.2077995!16s%2Fg%2F11cn3pk44l!19sChIJzVVXwWj9DDkRPCVgfE8UvgI?authuser=0&hl=en&rclk=1,SHIV MEDICOS,3.8 stars 44 Reviews,3.8,44,"[""NA""]",100.00%
JX1hGmk_9DDkRcldlVX_LSEU," 110, Bangla Sahib Rd, Sector 4, Gole Market, New Delhi, Delhi 110001",Pharmacy, 093504 03803,28.6333661,77.208341,Available,Delivery,https://www.google.com/maps/place/Popular+Chemists/data=!4m7!3m6!1s0x390cfd4f9a46585f:0x4548cb7f55655772!8m2!3d28.6333661!4d77.208341!16s%2Fg%2F1tftpgsh!19sChIJX1hGmk_9DDkRcldlVX_LSEU?authuser=0&hl=en&rclk=1,Popular Chemists,3.2 stars 13 Reviews,3.2,13,"[""NA""]",64.56%
Jt0M2OlH9DDkRI0vGP__sNL0," Krishna Chemist, gate no.6 Dr, Shop no. 20, Old Ramakrishna Ashram Marg, Ram Manohar Lohia Hospital, President's Estate, New Delhi, Delhi 110001",Pharmacy, 093551 89200,28.6276775,77.1999593,Available,In-store shopping,https://www.google.com/maps/place/KRISHNA+CHEMISTS/data=!4m7!3m6!1s0x390cfd513a3643b7:0xbd34ecff3fc64b23!8m2!3d28.6276775!4d77.1999593!16s%2Fg%2F11byyhjfwt!19sChIJt0M2OlH9DDkRI0vGP__sNL0?authuser=0&hl=en&rclk=1,KRISHNA CHEMISTS,4.2 stars 34 Reviews,4.2,34,"[""NA""]",100.00%
JcQiRbz_9DDkRIalU7nVs0jk," 24, Ram Nagar Market, Near New Delhi Railway Station, Pahar Ganj, New Delhi, Delhi 110055",Pharmacy, 088104 35072,28.6464864,77.2180688,Available,In-store pick-up,https://www.google.com/maps/place/A+S+Medicos/data=!4m7!3m6!1s0x390cfd3f6f910871:0x39d26c75ee54a921!8m2!3d28.6464864!4d77.2180688!16s%2Fg%2F1tk6t8zd!19sChIJcQiRbz_9DDkRIalU7nVs0jk?authuser=0&hl=en&rclk=1,A S Medicos,3.7 stars 16 Reviews,3.7,16,"[""NA""]",80.14%
JLS6mtLrjDDkRpD4HoV1N5Fs," Shop No. 40, Nehru Nagar Market, New Delhi, Delhi 110065",Pharmacy, 087503 90390,28.5695004,77.2530324,Available,Delivery,https://www.google.com/maps/place/Veena+Pharmacy/data=!4m7!3m6!1s0x390ce3bab4a62e2d:0x5be44d5da1073ea4!8m2!3d28.5695004!4d77.2530324!16s%2Fg%2F1ptwc5k04!19sChIJLS6mtLrjDDkRpD4HoV1N5Fs?authuser=0&hl=en&rclk=1,Veena Pharmacy,4.0 stars 16 Reviews,4,16,"[""NA""]",86.63%
JywRcG1T9DDkR4pxOiGRXfe8," Shop No. 8 & 9, Dr, Old Ramakrishna Ashram Marg, near Gate No. 6, Ram Manohar Lohia Hospital, Type III, President's Estate, New Delhi, Delhi 110001",Pharmacy, 098716 56719,28.6271019,77.1995061,Available,NA,https://www.google.com/maps/place/HEALTH+N+CARE+-+RML/data=!4m7!3m6!1s0x390cfd541b5c04cb:0xef7d5764884e9ce2!8m2!3d28.6271019!4d77.1995061!16s%2Fg%2F11g8f_f06l!19sChIJywRcG1T9DDkR4pxOiGRXfe8?authuser=0&hl=en&rclk=1,HEALTH N CARE - RML,3.6 stars 16 Reviews,3.6,16,"[""NA""]",77.97%
Js2XJfFr9DDkRGNjqynOp2zY," J6M3+J69, 85/377, Peshwa Rd, Sector 1, Sector C, Gole Market, New Delhi, Delhi 110001",Pharmacy, 011 2336 5219,28.6341219,77.2029301,Available,NA,https://www.google.com/maps/place/CGHS+medical+stores+depot+cghs+gole+market/data=!4m7!3m6!1s0x390cfd5a7cc965b3:0x36dba973caead818!8m2!3d28.6341219!4d77.2029301!16s%2Fg%2F11by_h6szn!19sChIJs2XJfFr9DDkRGNjqynOp2zY?authuser=0&hl=en&rclk=1,CGHS medical stores depot cghs gole market,4.2 stars 77 Reviews,4.2,77,"[""NA""]",100.00%
JO72IEQH9DDkRSeGNh8ogecM," 1705/110, 1st Floor Onkar Bhawan, Bhagirath Palace, Chandni Chowk, Delhi, 110006",Pharmacy, 098999 62503,28.6509225,77.2285709,Available,Delivery,https://www.google.com/maps/place/The+Pharmacy/data=!4m7!3m6!1s0x390cfd011188bd3b:0xc37920ca878de149!8m2!3d28.6509225!4d77.2285709!16s%2Fg%2F11sp8wd6r4!19sChIJO72IEQH9DDkRSeGNh8ogecM?authuser=0&hl=en&rclk=1,The Pharmacy,4.6 stars 15 Reviews,4.6,15,"[""NA""]",97.50%
Jz8vgnyD9DDkR124ss4sNy_Y," 16, Netaji Subhash Marg, Daryaganj, Delhi, 110002",Pharmacy, 095559 03377,28.6449123,77.2406155,Available,In-store pick-up,https://www.google.com/maps/place/DeeJee+Pharmacy/data=!4m7!3m6!1s0x390cfd209fe0cbcf:0xf6cb0d8bb32c6ed7!8m2!3d28.6449123!4d77.2406155!16s%2Fg%2F1td5vjnv!19sChIJz8vgnyD9DDkR124ss4sNy_Y?authuser=0&hl=en&rclk=1,DeeJee Pharmacy,3.6 stars 19 Reviews,3.6,19,"[""http://www.deejee.in/""]",76.10%
JRVqSmU_9DDkR4Dp3vBeZwa0," 95, Bangla Sahib Rd, near Kaleva, New Khanna Market, Gole Market, New Delhi, Delhi 110001",Homeopathic pharmacy, 082875 20905,28.6329536,77.2083682,Available,In-store pick-up,https://www.google.com/maps/place/Original+Homeopathic+Pharmacy/data=!4m7!3m6!1s0x390cfd4f99925a45:0xadc19917bc773ae0!8m2!3d28.6329536!4d77.2083682!16s%2Fg%2F1tdpdl0c!19sChIJRVqSmU_9DDkR4Dp3vBeZwa0?authuser=0&hl=en&rclk=1,Original Homeopathic Pharmacy,4.2 stars 31 Reviews,4.2,31,"[""NA""]",100.00%
JLdZCRm79DDkRQqEHCnRo4tQ," Ground Floor, Elgin Rd, Netaji Subhash Marg, Parda Bagh, Daryaganj, New Delhi, Delhi, 110002",Pharmacy, 063534 51737,28.6497681,77.2394932,Available,Delivery,https://www.google.com/maps/place/davaindia+GENERIC+PHARMACY/data=!4m7!3m6!1s0x390cfd6e4642d62d:0xd4e268740a07a142!8m2!3d28.6497681!4d77.2394932!16s%2Fg%2F11kp_95mhw!19sChIJLdZCRm79DDkRQqEHCnRo4tQ?authuser=0&hl=en&rclk=1,davaindia GENERIC PHARMACY,5.0 stars 1 Reviews,5,1,"[""http://daryaganj.davaindia.com/""]",24.46%
JgexI-U_9DDkRwWMDFJDpAcs," 78,Near Gole Market, Shaheed Bhagat Singh Marg, Sector 4, Gole Market, New Delhi, Delhi 110001",Pharmacy, 098105 40437,28.6326812,77.2058805,Available,Delivery,https://www.google.com/maps/place/Vinod+Medical+Store/data=!4m7!3m6!1s0x390cfd4ff948ec81:0xcb01e990140363c1!8m2!3d28.6326812!4d77.2058805!16s%2Fg%2F1pp2tk5qt!19sChIJgexI-U_9DDkRwWMDFJDpAcs?authuser=0&hl=en&rclk=1,Vinod Medical Store,3.4 stars 10 Reviews,3.4,10,"[""http://www.vinodmedical.com/""]",57.53%
JG_rRkdb9DDkR1ry_m6mV1MY," 398, Chatta Lal Main Rd, near delhi gate, Chatta lal Miya, Chandni Mahal, Daryaganj, New Delhi, Delhi, 110002",Pharmacy, 099904 96832,28.6430673,77.238184,Available,Delivery,https://www.google.com/maps/place/MS+MEDICOS/data=!4m7!3m6!1s0x390cfdd691d1fa1b:0xc6d495a99bbfbcd6!8m2!3d28.6430673!4d77.238184!16s%2Fg%2F11h01x7rs_!19sChIJG_rRkdb9DDkR1ry_m6mV1MY?authuser=0&hl=en&rclk=1,MS MEDICOS,5.0 stars 15 Reviews,5,15,"[""NA""]",100.00%
Jj346ZN_8DDkRy8FhZJaliQc," 4933, Dayanand Rd, Daryaganj, New Delhi, Delhi, 110002",Pharmacy, 095604 82832,28.64467,77.241008,Available,NA,https://www.google.com/maps/place/Max+Care+Chemist/data=!4m7!3m6!1s0x390cfcdf643a7e8f:0x789a5966461c1cb!8m2!3d28.64467!4d77.241008!16s%2Fg%2F11rgh7551h!19sChIJj346ZN_8DDkRy8FhZJaliQc?authuser=0&hl=en&rclk=1,Max Care Chemist,4.8 stars 12 Reviews,4.8,12,"[""NA""]",94.12%
Jd7ieBQD9DDkRLYLwOSihIZo," 4382, Kaccha Pandit Main Bazar, Shah Ganj, Chandni Chowk, New Delhi, Delhi, 110006",Pharmacy, 092891 57897,28.6488274,77.2250673,Available,Delivery,https://www.google.com/maps/place/Health+Care+Pharmacy/data=!4m7!3m6!1s0x390cfd00059eb877:0x9a21a12839f0822d!8m2!3d28.6488274!4d77.2250673!16s%2Fg%2F11why8mnd8!19sChIJd7ieBQD9DDkRLYLwOSihIZo?authuser=0&hl=en&rclk=1,Health Care Pharmacy,4.9 stars 14 Reviews,4.9,14,"[""NA""]",100.00%
Jac6hWyD9DDkRtPNO0Al6KCA," 5027, Kedarnath Ln, near Dr Shroffs Charity Eye Hospital, Daryaganj, New Delhi, Delhi, 110002",Pharmacy, 088269 92204,28.6456662,77.2419743,Available,In-store shopping,https://www.google.com/maps/place/Apollo+Pharmacy+Daryaganj/data=!4m7!3m6!1s0x390cfd205ba1ce69:0x20287a09d04ef3b4!8m2!3d28.6456662!4d77.2419743!16s%2Fg%2F11cm0fc4gn!19sChIJac6hWyD9DDkRtPNO0Al6KCA?authuser=0&hl=en&rclk=1,Apollo Pharmacy Daryaganj,2.6 stars 14 Reviews,2.6,14,"[""https://www.apollopharmacy.in/?utm_source=gmb&utm_medium=organic&utm_campaign=sulekhapromanage-apollo-pharmacy""]",49.68%
JIRomoi_9DDkR7Cl9HPBI4W8," Office no 2, Second Floor, Property no 4958, 18, Netaji Subhash Marg, Daryaganj, Delhi, 110002",Pharmacy, 092122 92778,28.6445604,77.2405764,Available,In-store shopping,https://www.google.com/maps/place/Onco+Healthmart+-+Specialty+Medicine+Pharmacy+%26+Supplier/data=!4m7!3m6!1s0x390cfd2fa2261a21:0x6fe148f01c7d29ec!8m2!3d28.6445604!4d77.2405764!16s%2Fg%2F11sc29bsnr!19sChIJIRomoi_9DDkR7Cl9HPBI4W8?authuser=0&hl=en&rclk=1,Onco Healthmart - Specialty Medicine Pharmacy & Supplier,5.0 stars 10 Reviews,5,10,"[""https://www.oncohealthmart.com/""]",84.60%
JsWMTB6T9DDkRTqEUu8h_xP0," Plot No 2a & 2b, Scope Minar, Metro Station, near Nirman Vihar, Vishwakarma Park, Laxmi Nagar, New Delhi, Delhi, 110092",Pharmacy, 011 4058 0267,28.637175,77.2760042,Available,In-store shopping,https://www.google.com/maps/place/Apollo+Pharmacy+SAIL+Laxmi+Nagar/data=!4m7!3m6!1s0x390cfda4071363b1:0xfdc47fc8bb14a14e!8m2!3d28.637175!4d77.2760042!16s%2Fg%2F11rfd5bcjb!19sChIJsWMTB6T9DDkRTqEUu8h_xP0?authuser=0&hl=en&rclk=1,Apollo Pharmacy SAIL Laxmi Nagar,5.0 stars 1 Reviews,5,1,"[""https://www.apollopharmacy.in/?utm_source=locator&utm_medium=googleplaces""]",24.46%
Joaz-iBr9DDkRMGKRGG5mwsM," Near, Fatehpuri, 279, Kucha Ghasiram, Chandni Chowk, Delhi, 110006",Homeopathic pharmacy,070420 10503,28.6573262,77.2239676,Available,In-store shopping,https://www.google.com/maps/place/Segal%27s+Pharmacy/data=!4m7!3m6!1s0x390cfd1a88feaca1:0xc3c2666e18916230!8m2!3d28.6573262!4d77.2239676!16s%2Fg%2F1tf73xt4!19sChIJoaz-iBr9DDkRMGKRGG5mwsM?authuser=0&hl=en&rclk=1,Segal's Pharmacy,4.3 stars 94 Reviews,4.3,94,"[""NA""]",100.00%
JO5M75jz9DDkRLyCD1AGtFqQ," 2A 3 Asaf Ali Road Delhi, Gate, Daryaganj, New Delhi, Delhi 110002",Pharmacy,011 2323 9805,28.6437359,77.2281387,Available,NA,https://www.google.com/maps/place/Hamdard+Laboratories/data=!4m7!3m6!1s0x390cfd3ce63b933b:0xa416ad01d483202f!8m2!3d28.6437359!4d77.2281387!16s%2Fg%2F11fnw16l31!19sChIJO5M75jz9DDkRLyCD1AGtFqQ?authuser=0&hl=en&rclk=1,Hamdard Laboratories,5.0 stars 2 Reviews,5,2,"[""https://www.hamdard.in/""]",38.76%
JkzvJMST9DDkRiERMd_dnKIg," Shop Number 1, G/F, 2931, Gali Taksaliyan Khurd, Bazar Sirkiwalan, Sita Ram Bazar, Chandni Chowk, Delhi, 110006",Pharmacy, 070651 16811,28.6466407,77.2302111,Available,Delivery,https://www.google.com/maps/place/Medicines+Mall+Pharmacy+%26+Clinic/data=!4m7!3m6!1s0x390cfd2431c93b93:0x882867f7774c4488!8m2!3d28.6466407!4d77.2302111!16s%2Fg%2F11p49nn7dq!19sChIJkzvJMST9DDkRiERMd_dnKIg?authuser=0&hl=en&rclk=1,Medicines Mall Pharmacy & Clinic,5.0 stars 14 Reviews,5,14,"[""https://medicinesmall.com/""]",95.54%
JVy1MzRD9DDkRAFgu6MheXyI," 1400, Ballimaran Rd, Baradari, Chandni Chowk, New Delhi, Delhi, 110006",Pharmacy, 088604 64781,28.6546895,77.2257,Available,NA,https://www.google.com/maps/place/Shamsi+Dawakhana/data=!4m7!3m6!1s0x390cfd10cd4c2d57:0x225f5ec8e82e5800!8m2!3d28.6546895!4d77.2257!16s%2Fg%2F1tf7w2s0!19sChIJVy1MzRD9DDkRAFgu6MheXyI?authuser=0&hl=en&rclk=1,Shamsi Dawakhana,4.2 stars 17 Reviews,4.2,17,"[""https://vypzee.com/business/shamsi-dawakhana""]",85.66%
Jz-0NZN_8DDkRtDQReD4hVg8," 3721/7, Main Road, Near Moti Mahal Restaurant, Netaji Subhash Marg, Daryaganj Marg, Daryaganj, Delhi, 110002",Pharmacy, 011 2325 9419,28.6446697,77.2408043,Available,Delivery,https://www.google.com/maps/place/New+Delhi+Homoeo+Pharmacy/data=!4m7!3m6!1s0x390cfcdf640dedcf:0xf56213e781134b4!8m2!3d28.6446697!4d77.2408043!16s%2Fg%2F1tfwbwrp!19sChIJz-0NZN_8DDkRtDQReD4hVg8?authuser=0&hl=en&rclk=1,New Delhi Homoeo Pharmacy,4.1 stars 16 Reviews,4.1,16,"[""NA""]",88.80%
JkcMj7978DDkRf2a4XM81Oxg," 4216/20 ground floor, 1, Ansari Rd, Daryaganj, New Delhi, Delhi, 110002",Medical supply store, 098733 36444,28.6411103,77.2449927,Available,In-store shopping,https://www.google.com/maps/place/Oddway+International+%C2%AE+-+International+Wholesale+Specialty+Pharmacy/data=!4m7!3m6!1s0x390cfcdeef23c391:0x183b35cf5cb8667f!8m2!3d28.6411103!4d77.2449927!16s%2Fg%2F1hd_l9x4f!19sChIJkcMj7978DDkRf2a4XM81Oxg?authuser=0&hl=en&rclk=1,Oddway International ® - International Wholesale Specialty Pharmacy,4.9 stars 251 Reviews,4.9,251,"[""https://www.oddwayinternational.com/""]",100.00%
J3VkuCADjDDkRCagHXyImSm4," Shop no:-3 A, 22/4, South Extension I, Block A, New Delhi, Delhi 110049",Pharmacy, 074097 97037,28.573842,77.2189278,Available,In-store shopping,https://www.google.com/maps/place/JION+DRUGS+PHARMACY/data=!4m7!3m6!1s0x390ce300082e59dd:0x6e4a26225f07a809!8m2!3d28.573842!4d77.2189278!16s%2Fg%2F11y3cj_xd3!19sChIJ3VkuCADjDDkRCagHXyImSm4?authuser=0&hl=en&rclk=1,JION DRUGS PHARMACY,5.0 stars 20 Reviews,5,20,"[""NA""]",100.00%
J-ylnmJ3jDDkR-_LOZKq79G8," Ispat Bhawan, Lodhi Rd, CGO Complex, Pragati Vihar, New Delhi, Delhi 110033",Pharmacy, 080 4448 0978,28.5919759,77.237075,Available,In-store shopping,https://www.google.com/maps/place/Apollo+Pharmacy+Lodi+Road/data=!4m7!3m6!1s0x390ce39d986729fb:0x6ff4bbaa64cef2fb!8m2!3d28.5919759!4d77.237075!16s%2Fg%2F11mjyvztq7!19sChIJ-ylnmJ3jDDkR-_LOZKq79G8?authuser=0&hl=en&rclk=1,Apollo Pharmacy Lodi Road,1.5 stars 6 Reviews,1.5,6,"[""https://www.apollopharmacy.in/?utm_source=locator&utm_medium=googleplaces""]",20.60%
J0-K7aHbjDDkR3Mz2vU3WYRE," Shop no-1, G/F, Prop. no, 1409 & 1410, Gurudwara Rd, near Wazir Nagar, South Extension I, Mahaveer Nagar, Kotla Mubarakpur, New Delhi, Delhi 110033",Pharmacy, 098962 78020,28.5715846,77.2248681,Available,Delivery,https://www.google.com/maps/place/Zeelab+Pharmacy+-+Kotla+Mubarakpur/data=!4m7!3m6!1s0x390ce37668bbe2d3:0x1161d64dbdf6ccdc!8m2!3d28.5715846!4d77.2248681!16s%2Fg%2F11vk8vgyrm!19sChIJ0-K7aHbjDDkR3Mz2vU3WYRE?authuser=0&hl=en&rclk=1,Zeelab Pharmacy - Kotla Mubarakpur,5.0 stars 13 Reviews,5,13,"[""https://zeelabpharmacy.com/""]",93.11%
J9xYDgfPiDDkRWCmDGO2uCcY," NDMC, ENFORCEMENT STORE, New Khanna Market, no 72, Sri Aurobindo Marg, Laxmi Bai Nagar, New Delhi, Delhi 110023",Pharmacy, 088006 93276,28.5837252,77.2204227,Available,Delivery,https://www.google.com/maps/place/Guardian+Pharmacy/data=!4m7!3m6!1s0x390ce2f3810316f7:0xc609aeed18832958!8m2!3d28.5837252!4d77.2204227!16s%2Fg%2F11f0ky6_15!19sChIJ9xYDgfPiDDkRWCmDGO2uCcY?authuser=0&hl=en&rclk=1,Guardian Pharmacy,5.0 stars 3 Reviews,5,3,"[""https://www.guardian.in/""]",48.91%
Jy5eYyV3iDDkR5f6yqmbuPdE," No. 10, Rajeshwar Arya Marg, near Oxford Software Institute, South Extension I, Block E, New Delhi, Delhi 110003",Pharmacy, 080 4101 8269,28.570727,77.2198431,Available,In-store shopping,https://www.google.com/maps/place/Apollo+Pharmacy+DLF/data=!4m7!3m6!1s0x390ce25dc99897cb:0xd13dee66aab2fee5!8m2!3d28.570727!4d77.2198431!16s%2Fg%2F11cjj9rgh5!19sChIJy5eYyV3iDDkR5f6yqmbuPdE?authuser=0&hl=en&rclk=1,Apollo Pharmacy DLF,4.6 stars 38 Reviews,4.6,38,"[""https://www.apollopharmacy.in/?utm_source=gmb&utm_medium=organic&utm_campaign=sulekhapromanage-apollo-pharmacy""]",100.00%
JLSES_QbjDDkRLLO7yQYBzBQ," 371/3, Lachman Chamber Sahi, No. 370, Hospital Rd., nr. Axis Bank, Jangpura, Bhogal, New Delhi, Delhi 110014",Pharmacy, 080 4101 8139,28.5846708,77.2479534,Available,In-store shopping,https://www.google.com/maps/place/Apollo+Pharmacy+Jangpura/data=!4m7!3m6!1s0x390ce306fd12212d:0x14cc0106c9bbb32c!8m2!3d28.5846708!4d77.2479534!16s%2Fg%2F119vkpl5y!19sChIJLSES_QbjDDkRLLO7yQYBzBQ?authuser=0&hl=en&rclk=1,Apollo Pharmacy Jangpura,3.5 stars 20 Reviews,3.5,20,"[""https://www.apollopharmacy.in/?utm_source=gmb&utm_medium=organic&utm_campaign=sulekhapromanage-apollo-pharmacy""]",75.19%
Jx1EtIJXjDDkRnHMuf2JaHS0," Shop No-4 H, No-1, Birbal Rd, Jangpura Extension, Pant Nagar, New Delhi, Delhi 110014",Pharmacy, 098962 77615,28.5830584,77.2449525,Available,Delivery,https://www.google.com/maps/place/Zeelab+Pharmacy+-+Jangpura/data=!4m7!3m6!1s0x390ce395202d51c7:0x2d1d5a627f2e739c!8m2!3d28.5830584!4d77.2449525!16s%2Fg%2F11kjlw___k!19sChIJx1EtIJXjDDkRnHMuf2JaHS0?authuser=0&hl=en&rclk=1,Zeelab Pharmacy - Jangpura,4.5 stars 33 Reviews,4.5,33,"[""https://zeelabpharmacy.com/""]",100.00%
J3R_s-MrjDDkR7B7IUN1Rqtc," Lala Lajpat Rai Rd, near Grand FFOUR, Block F, Greater Kailash, New Delhi, Delhi 110065",Pharmacy, 080 4101 8303,28.5546229,77.2432514,Available,In-store shopping,https://www.google.com/maps/place/Apollo+Pharmacy+East+of+Kailash/data=!4m7!3m6!1s0x390ce3caf8ec1fdd:0xd7aa51dd50c81eec!8m2!3d28.5546229!4d77.2432514!16s%2Fg%2F1tdyjlkz!19sChIJ3R_s-MrjDDkR7B7IUN1Rqtc?authuser=0&hl=en&rclk=1,Apollo Pharmacy East of Kailash,3.1 stars 54 Reviews,3.1,54,"[""https://www.apollopharmacy.in/?utm_source=gmb&utm_medium=organic&utm_campaign=sulekhapromanage-apollo-pharmacy""]",87.66%
JeR_JmwbjDDkRqY4tFGp6SdM," 428/2, Jangpura Rd, opp. Sahi Hospital, Jangpura, Bhogal, New Delhi, Delhi 110014",Pharmacy, 011 4501 4825,28.585203,77.248708,Available,In-store shopping,https://www.google.com/maps/place/Ram+Chemist/data=!4m7!3m6!1s0x390ce3069bc91f79:0xd3497a6a142d8ea9!8m2!3d28.585203!4d77.248708!16s%2Fg%2F1tqfzq9m!19sChIJeR_JmwbjDDkRqY4tFGp6SdM?authuser=0&hl=en&rclk=1,Ram Chemist,4.1 stars 26 Reviews,4.1,26,"[""NA""]",100.00%
J_60yLvfiDDkROfEt_feR-L8," #104, Mehar Chand Market, Fourth Avenue Road, Lodi Colony, New Delhi, Delhi 110003",Pharmacy, 011 4475 9101,28.5834258,77.226831,Available,In-store shopping,https://www.google.com/maps/place/Nagpal+Healthcare+Chemists/data=!4m7!3m6!1s0x390ce2f72e32adff:0xbff891f7fd2df139!8m2!3d28.5834258!4d77.226831!16s%2Fg%2F124yjgn2n!19sChIJ_60yLvfiDDkROfEt_feR-L8?authuser=0&hl=en&rclk=1,Nagpal Healthcare Chemists,4.2 stars 25 Reviews,4.2,25,"[""NA""]",100.00%
J7zklkg7jDDkRfe4pBZEr4GE," 50/1, 50/2, Ground Floor Yusuf Sarai, Green Park, Delhi 110016",Pharmacy,091522 28689,28.5583852,77.2030881,Available,Delivery,https://www.google.com/maps/place/BL%27s+The+Pharmacy/data=!4m7!3m6!1s0x390ce30e922539ef:0x61e02b910529ee7d!8m2!3d28.5583852!4d77.2030881!16s%2Fg%2F11hyzc47j1!19sChIJ7zklkg7jDDkRfe4pBZEr4GE?authuser=0&hl=en&rclk=1,BL's The Pharmacy,1.9 stars 22 Reviews,1.9,22,"[""NA""]",45.54%
JDa6f1TfjDDkR0XopY8bZ3zE," 3rd floor, E-19, Shiniwas Puri, Block D, Defence Colony, New Delhi, Delhi 110024",Health consultant,1800 309 0101,28.57414,77.2377139,Available,NA,https://www.google.com/maps/place/MeraDoc/data=!4m7!3m6!1s0x390ce337d59fae0d:0x31dfd9c663297ad1!8m2!3d28.57414!4d77.2377139!16s%2Fg%2F11t8c9twdk!19sChIJDa6f1TfjDDkR0XopY8bZ3zE?authuser=0&hl=en&rclk=1,MeraDoc,5.0 stars 34 Reviews,5,34,"[""https://www.meradoc.com/""]",100.00%
JEzfc3gDjDDkRf0cCDxhRFq0," 8/8, Hospital Rd., Jangpura, Jungpura Extension, New Delhi, Delhi 110014",Pharmacy, 097171 77631,28.5829561,77.2453357,Available,In-store shopping,https://www.google.com/maps/place/Jhankar+Chemist/data=!4m7!3m6!1s0x390ce300dedc3713:0xad1651180f02477f!8m2!3d28.5829561!4d77.2453357!16s%2Fg%2F11h7rr7cqv!19sChIJEzfc3gDjDDkRf0cCDxhRFq0?authuser=0&hl=en&rclk=1,Jhankar Chemist,4.7 stars 222 Reviews,4.7,222,"[""NA""]",100.00%
JCUTqk1viDDkRDxeW19i9lKY," Shop No: 1820 A, Gurudwara Rd, South Extension I, Kotla Mubarakpur, New Delhi, Delhi 110003",Pharmacy, 098714 04099,28.5706168,77.2242148,Available,Delivery,https://www.google.com/maps/place/Lakshmi+Chemist/data=!4m7!3m6!1s0x390ce25b93ea4409:0xa694bdd8d796170f!8m2!3d28.5706168!4d77.2242148!16s%2Fg%2F11bzv5njh5!19sChIJCUTqk1viDDkRDxeW19i9lKY?authuser=0&hl=en&rclk=1,Lakshmi Chemist,4.0 stars 12 Reviews,4,12,"[""NA""]",78.43%
JD3AwUnfjDDkRBjCBTsdmUV4,Shop No.-2,Pharmacy, 080 4101 8142,28.5753269,77.2415709,Available,In-store shopping,https://www.google.com/maps/place/Apollo+Pharmacy+Lajpat+Nagar+2/data=!4m7!3m6!1s0x390ce3775230700f:0x5e5166c74e813006!8m2!3d28.5753269!4d77.2415709!16s%2Fg%2F11q1vbmq7k!19sChIJD3AwUnfjDDkRBjCBTsdmUV4?authuser=0&hl=en&rclk=1,Apollo Pharmacy Lajpat Nagar 2,3.7 stars 14 Reviews,3.7,14,"[""NA""]",76.59%
J2aor8gLjDDkRObVrqxdqDAI,"Shop No T-33, 9A",Pharmacy, 098712 75857,28.5890926,77.2423941,Available,In-store pick-up,https://www.google.com/maps/place/Anas+medical+store/data=!4m7!3m6!1s0x390ce302f22baad9:0x20c6a17ab6bb539!8m2!3d28.5890926!4d77.2423941!16s%2Fg%2F11bxfty3rh!19sChIJ2aor8gLjDDkRObVrqxdqDAI?authuser=0&hl=en&rclk=1,Anas medical store,4.2 stars 19 Reviews,4.2,19,"[""NA""]",96.18%
JqeRX-nnjDDkRNw1ygWTGxHU,"No O/11A, Ground Floor, Near Dominoz Pizza, 163, Market Rd",Pharmacy, 087996 35795,28.566927,77.2466115,Available,Delivery,https://www.google.com/maps/place/davaindia+GENERIC+PHARMACY/data=!4m7!3m6!1s0x390ce379fa57e4a9:0x75c4c66481720d37!8m2!3d28.566927!4d77.2466115!16s%2Fg%2F11t5stqhbt!19sChIJqeRX-nnjDDkRNw1ygWTGxHU?authuser=0&hl=en&rclk=1,davaindia GENERIC PHARMACY,4.9 stars 65 Reviews,4.9,65,"[""NA""]",100.00%
JKeqMYq7jDDkRQQBx6M8ghfw,6/49 old double story,Pharmacy, 096541 68608,28.5609053,77.2390784,Available,Kerbside pickup,https://www.google.com/maps/place/Nagi+Pharmacy/data=!4m7!3m6!1s0x390ce3ae628cea29:0xfc8520cfe8710041!8m2!3d28.5609053!4d77.2390784!16s%2Fg%2F11rmp3hp34!19sChIJKeqMYq7jDDkRQQBx6M8ghfw?authuser=0&hl=en&rclk=1,Nagi Pharmacy,5.0 stars 11 Reviews,5,11,"[""NA""]",94.98%
Jy7zh8VDjDDkRD5hqTNdmSjQ,"Shop no.1, 1035, Nehru Rd",Pharmacy, 089207 71945,28.5726531,77.2273488,Available,In-store shopping,https://www.google.com/maps/place/Siyaram+Medicos+-+Heal+the+world/data=!4m7!3m6!1s0x390ce350f1e1bccb:0x344a66d74c6a980f!8m2!3d28.5726531!4d77.2273488!16s%2Fg%2F11vcxc4gjk!19sChIJy7zh8VDjDDkRD5hqTNdmSjQ?authuser=0&hl=en&rclk=1,Siyaram Medicos - Heal the world,5.0 stars 19 Reviews,5,19,"[""NA""]",100.00%
JDX-J4WHjDDkRBYcDSj7K4X8,"Shop No 15836/ua, Plot No 1",Pharmacy, 080 4101 8286,28.569348,77.2376413,Available,In-store shopping,https://www.google.com/maps/place/Apollo+Pharmacy+Lajpat+Nagar/data=!4m7!3m6!1s0x390ce361e1897f0d:0x7fe1ca3e4a038705!8m2!3d28.569348!4d77.2376413!16s%2Fg%2F11ryll230j!19sChIJDX-J4WHjDDkRBYcDSj7K4X8?authuser=0&hl=en&rclk=1,Apollo Pharmacy Lajpat Nagar,3.7 stars 11 Reviews,3.7,11,"[""NA""]",70.28%
JmW3JSVfiDDkRIHCm84CfxFU,"Shop No. 4, Defence Colony Market, Defence Colony",Pharmacy, 011 2433 3475,28.5738193,77.2300756,Available,In-store shopping,https://www.google.com/maps/place/3G+Chemist+%28Evergreen+Chemists%29/data=!4m7!3m6!1s0x390ce25749c96d99:0x55c49f80f3a67020!8m2!3d28.5738193!4d77.2300756!16s%2Fg%2F1tt1flx0!19sChIJmW3JSVfiDDkRIHCm84CfxFU?authuser=0&hl=en&rclk=1,3G Chemist (Evergreen Chemists),3.9 stars 108 Reviews,3.9,108,"[""NA""]",100.00%
J74NUvF7iDDkR3i3dtyUWvp0,,Pharmacy, 098105 24934,28.571815,77.22498,Available,NA,https://www.google.com/maps/place/Gopal+Store/data=!4m7!3m6!1s0x390ce25ebc5483ef:0x9dbe1625b7dd2dde!8m2!3d28.571815!4d77.22498!16s%2Fg%2F1tfr8kpm!19sChIJ74NUvF7iDDkR3i3dtyUWvp0?authuser=0&hl=en&rclk=1,Gopal Store,4.2 stars 50 Reviews,4.2,50,"[""NA""]",100.00%
JZRd4R_3jDDkRadRTilkRF1U,"No. 2/C/40/44, Main Rd, near Central Dental",Pharmacy, 098103 01789,28.5716032,77.2387236,Available,In-store pick-up,https://www.google.com/maps/place/Davaindia+Generic+Pharmacy/data=!4m7!3m6!1s0x390ce3fd47781765:0x551711598a53d469!8m2!3d28.5716032!4d77.2387236!16s%2Fg%2F11lfzvjw_z!19sChIJZRd4R_3jDDkRadRTilkRF1U?authuser=0&hl=en&rclk=1,Davaindia Generic Pharmacy,4.8 stars 44 Reviews,4.8,44,"[""NA""]",100.00%
JgYKcuFviDDkRkklE8S-gkmw,"T1433, Kumar Complex, Street Number 7 South Extension I, Wazir Nagar",Pharmacy, 011 4657 8155,28.5710598,77.2250655,Available,Delivery,https://www.google.com/maps/place/B.Jain+Homoeo+Pharmacy/data=!4m7!3m6!1s0x390ce25bb89c8281:0x6c92a02ff1444992!8m2!3d28.5710598!4d77.2250655!16s%2Fg%2F12nqgndd2!19sChIJgYKcuFviDDkRkklE8S-gkmw?authuser=0&hl=en&rclk=1,B.Jain Homoeo Pharmacy,4.4 stars 31 Reviews,4.4,31,"[""NA""]",100.00%
J9c7KR7njDDkRNmMfL9KKvXU,"Block C, Shop 5",Pharmacy, 080 4101 8158,28.5627248,77.2419071,Available,In-store shopping,https://www.google.com/maps/place/Apollo+Pharmacy+Amar+Colony+Lajpat+Nagar/data=!4m7!3m6!1s0x390ce3b947cacef5:0x75bd8ad22f1f6336!8m2!3d28.5627248!4d77.2419071!16s%2Fg%2F11sz3s6j3p!19sChIJ9c7KR7njDDkRNmMfL9KKvXU?authuser=0&hl=en&rclk=1,Apollo Pharmacy Amar Colony Lajpat Nagar,2.5 stars 15 Reviews,2.5,15,"[""NA""]",52.99%
J____Y9_jDDkRUYPjBrQNLO8,"Shop no 16, post office, South, near nehru nagar, near 50m to post office",Pharmacy, 099111 55400,28.5694035,77.2538442,Available,Delivery,https://www.google.com/maps/place/Family+Farmace+pvt+Ltd/data=!4m7!3m6!1s0x390ce3df63ffffff:0xef2c0db406e38351!8m2!3d28.5694035!4d77.2538442!16s%2Fg%2F1tffh4bn!19sChIJ____Y9_jDDkRUYPjBrQNLO8?authuser=0&hl=en&rclk=1,Family Farmace pvt Ltd,4.6 stars 14 Reviews,4.6,14,"[""NA""]",95.23%
JmW3JSVfiDDkRFKpw4JN5jJo,"Shop number1, Defence Colony market, A Block, near mother dairy",Pharmacy, 011 4155 3946,28.5740448,77.2299516,Available,Delivery,https://www.google.com/maps/place/Popular+Medicos/data=!4m7!3m6!1s0x390ce25749c96d99:0x9a8c7993e070aa14!8m2!3d28.5740448!4d77.2299516!16s%2Fg%2F1th47sbl!19sChIJmW3JSVfiDDkRFKpw4JN5jJo?authuser=0&hl=en&rclk=1,Popular Medicos,4.1 stars 14 Reviews,4.1,14,"[""NA""]",84.88%
Jt-e67bHjDDkRKXPAwGAn7fs,"F-98 Ground Floor, near Shani Mandir",Pharmacy, 096259 96301,28.5724761,77.243048,Available,Kerbside pickup,https://www.google.com/maps/place/mChemist+Global+Pvt+Ltd/data=!4m7!3m6!1s0x390ce3b1edbae7b7:0xfbed2760c0c07329!8m2!3d28.5724761!4d77.243048!16s%2Fg%2F11bwfj3wr5!19sChIJt-e67bHjDDkRKXPAwGAn7fs?authuser=0&hl=en&rclk=1,mChemist Global Pvt Ltd,3.8 stars 26 Reviews,3.8,26,"[""NA""]",95.74%
JMeSd00ziDDkRfiqhHnt9,6/25,Pharmacy, 075035 34790,28.5638923,77.2410317,Available,Delivery,https://www.google.com/maps/place/Santosh+Pharmacy/data=!4m7!3m6!1s0x390ce24cd39de431:0x120a7d7b1ea12a7e!8m2!3d28.5638923!4d77.2410317!16s%2Fg%2F11k3x3113p!19sChIJMeSd00ziDDkRfiqhHnt9ChI?authuser=0&hl=en&rclk=1,Santosh Pharmacy,5.0 stars 18 Reviews,5,18,"[""NA""]",100.00%
Jb4eFQz79DDkRlRDjR6MpE8U," 7267, opposite VRINDHAVAN RESTAURANT, Prem Nagar, Block 22, Shakti Nagar, Delhi, 110007",Pharmacy, 083680 26904,28.6800991,77.1994946,Available,Delivery,https://www.google.com/maps/place/PRIME+PHARMACY/data=!4m7!3m6!1s0x390cfd3e4385876f:0xc51329a347e31095!8m2!3d28.6800991!4d77.1994946!16s%2Fg%2F11vhd_kgj8!19sChIJb4eFQz79DDkRlRDjR6MpE8U?authuser=0&hl=en&rclk=1,PRIME PHARMACY,4.8 stars 31 Reviews,4.8,31,"[""NA""]",100.00%
J_2k5JIn9DDkRRWB__wWJzxc," 2/3 & 2/4, Block 2, Roop Nagar, Delhi, 110007",Pharmacy, 084477 55718,28.6826121,77.1997871,Available,Delivery,https://www.google.com/maps/place/Satyawati+Drugs+%26+Departmental+Store/data=!4m7!3m6!1s0x390cfd89243969ff:0x17cf8905ff7f6045!8m2!3d28.6826121!4d77.1997871!16s%2Fg%2F1w344_n8!19sChIJ_2k5JIn9DDkRRWB__wWJzxc?authuser=0&hl=en&rclk=1,Satyawati Drugs & Departmental Store,"4.2 stars 2,069 Reviews",4.2,"2,069","[""NA""]",35.27%
Jcw_iA4_9DDkRNLOOYbPjayI," 172-D, Maharaja Agarsen Marg, Block C, Kamla Nagar, Delhi, 110007",Pharmacy, 098734 20707,28.681892,77.202809,Available,Delivery,https://www.google.com/maps/place/United+Pharmacy+-+Chemist+Shop+In+Kamla+Nagar+-+Medical+Shop+In+Kamla+Nagar+-+Cosmetic+Shop+In+kamla+Nagar+-+Ayurvedic+Shop+In+Kamla+Nagar/data=!4m7!3m6!1s0x390cfd8f03e20f73:0x226be3b3618eb334!8m2!3d28.681892!4d77.202809!16s%2Fg%2F1thr5kdn!19sChIJcw_iA4_9DDkRNLOOYbPjayI?authuser=0&hl=en&rclk=1,United Pharmacy - Chemist Shop In Kamla Nagar - Medical Shop In Kamla Nagar - Cosmetic Shop In kamla Nagar - Ayurvedic Shop In Kamla Nagar,4.2 stars 19 Reviews,4.2,19,"[""NA""]",96.18%
JBaNM8ND9DDkRJksXXyuFTss," T, Apposite, MCD Poly clinic, 510, Chamelian Marg, Police Colony, Bara Hindu Rao, Sadar Bazaar, Delhi, 110006",Pharmacy, 097166 60769,28.6572355,77.2051374,Available,In-store shopping,https://www.google.com/maps/place/DELHI+PHARMACY/data=!4m7!3m6!1s0x390cfdd0f04ca305:0xcb4e852b5f174b26!8m2!3d28.6572355!4d77.2051374!16s%2Fg%2F11t0rgc87d!19sChIJBaNM8ND9DDkRJksXXyuFTss?authuser=0&hl=en&rclk=1,DELHI PHARMACY,5.0 stars 9 Reviews,5,9,"[""https://www.delhipharmacycouncil.in/""]",81.24%
JX15thKr9DDkR6Uf5zjpe2Rs," A -825, Dr Bhim Rao Ambedkar Marg, Kabir Basti, Delhi, 110007",Pharmacy, 098113 68643,28.6729851,77.2072506,Available,Delivery,https://www.google.com/maps/place/MSD+PHARMACY/data=!4m7!3m6!1s0x390cfdaa846d5e5f:0x1bd95e3acef947e9!8m2!3d28.6729851!4d77.2072506!16s%2Fg%2F11h8l671d_!19sChIJX15thKr9DDkR6Uf5zjpe2Rs?authuser=0&hl=en&rclk=1,MSD PHARMACY,4.8 stars 24 Reviews,4.8,24,"[""NA""]",100.00%
JHRTetw_9DDkRWfaHuEgAlu4," No. 1, Main Road, near Lotus Banquet, Block A, Kamla Nagar, New Delhi, Delhi, 110009",Pharmacy, 080 4101 8273,28.6808355,77.1992475,Available,In-store shopping,https://www.google.com/maps/place/Apollo+Pharmacy+Kamla+Nagar/data=!4m7!3m6!1s0x390cfd0fb7de141d:0xee960048b887f659!8m2!3d28.6808355!4d77.1992475!16s%2Fg%2F11hczzly8j!19sChIJHRTetw_9DDkRWfaHuEgAlu4?authuser=0&hl=en&rclk=1,Apollo Pharmacy Kamla Nagar,2.5 stars 17 Reviews,2.5,17,"[""https://www.apollopharmacy.in/?utm_source=gmb&utm_medium=organic&utm_campaign=sulekhapromanage-apollo-pharmacy""]",50.99%
Jva44GP79DDkRpynuuhIshIw," H.No-1170, 5/6, Mills, Shakti Nagar, New Delhi, Delhi 110007",Medical supply store, 091389 59038,28.6833493,77.1969423,Available,Delivery,https://www.google.com/maps/place/ZEELAB+Pharmacy+-+Shakti+Nagar/data=!4m7!3m6!1s0x390cfdfe1838aebd:0x8c842c12baee29a7!8m2!3d28.6833493!4d77.1969423!16s%2Fg%2F11rdvc70xt!19sChIJva44GP79DDkRpynuuhIshIw?authuser=0&hl=en&rclk=1,ZEELAB Pharmacy - Shakti Nagar,5.0 stars 241 Reviews,5,241,"[""https://zeelabpharmacy.com/""]",100.00%
JB3fliDT9DDkRtHh1TjWAVSs," B-35, Block B, Vijay Nagar, Sinngle story, Delhi, 110009",Pharmacy, 072788 38383,28.6910097,77.2014316,Available,Delivery,https://www.google.com/maps/place/ChemCos+pharmacy/data=!4m7!3m6!1s0x390cfd3488e57707:0x2b5580354e7578b4!8m2!3d28.6910097!4d77.2014316!16s%2Fg%2F11h0373101!19sChIJB3fliDT9DDkRtHh1TjWAVSs?authuser=0&hl=en&rclk=1,ChemCos pharmacy,3.9 stars 16 Reviews,3.9,16,"[""NA""]",84.47%
JPe3MQVr9DDkRZp_Ta-5dU7M," Harphool Singh Building, 5133, Ghanta Ghar - Kohlapur Rd, Basti Harphool Singh, Subzi Mandi, Delhi, 110007 Located in: Clock Tower",Pharmacy, 080100 27886,28.6758161,77.2025879,Available,In-store pick-up,https://www.google.com/maps/place/First+Care+Medicos/data=!4m7!3m6!1s0x390cfd5a41cced3d:0xb3535dee6bd39f66!8m2!3d28.6758161!4d77.2025879!16s%2Fg%2F11qp52rcc2!19sChIJPe3MQVr9DDkRZp_Ta-5dU7M?authuser=0&hl=en&rclk=1,First Care Medicos,5.0 stars 27 Reviews,5,27,"[""NA""]",100.00%
JKUzoG-j9DDkR9XO4D3lF2mg," 2131, mukeem pura, subzi mandi, main market, near clock tower, &, Malka Ganj, Delhi, 110007",Drug store, 098739 95883,28.6748679,77.2050254,Available,In-store pick-up,https://www.google.com/maps/place/Kishita+Pharmacy/data=!4m7!3m6!1s0x390cfde81be84c29:0x68da45790fb873f5!8m2!3d28.6748679!4d77.2050254!16s%2Fg%2F11qqktq5qg!19sChIJKUzoG-j9DDkR9XO4D3lF2mg?authuser=0&hl=en&rclk=1,Kishita Pharmacy,4.9 stars 12 Reviews,4.9,12,"[""NA""]",96.08%
Jw2wItwv9DDkRimYGaxahR8s," Ghanta Ghar, 2697, Lala Jagan Nath Marg, near Punjabi Basti, opp. Dr. Chawla's Diabetes Care Clinic, Sita Saran Colony, Subzi Mandi, New Delhi, Delhi, 110007",Medical supply store, 091389 59023,28.6739775,77.2042852,Available,Delivery,https://www.google.com/maps/place/ZEELAB+Pharmacy+-+Ghanta+Ghar/data=!4m7!3m6!1s0x390cfd0bb7086cc3:0xcb47a1166b06668a!8m2!3d28.6739775!4d77.2042852!16s%2Fg%2F11qh94hz25!19sChIJw2wItwv9DDkRimYGaxahR8s?authuser=0&hl=en&rclk=1,ZEELAB Pharmacy - Ghanta Ghar,4.9 stars 135 Reviews,4.9,135,"[""https://zeelabpharmacy.com/""]",100.00%
J01WUMTcCDTkR2FFVP4tQy2g," Shop No 1, CSC, 7, Lawrence Rd, Keshav Puram, New Delhi, Delhi 110035",Pharmacy, 080 4101 8161,28.6917597,77.1577247,Available,In-store shopping,https://www.google.com/maps/place/Apollo+Pharmacy+Lawrence+Rd/data=!4m7!3m6!1s0x390d0237319455d3:0x68cb508b3f5551d8!8m2!3d28.6917597!4d77.1577247!16s%2Fg%2F12hkklpw8!19sChIJ01WUMTcCDTkR2FFVP4tQy2g?authuser=0&hl=en&rclk=1,Apollo Pharmacy Lawrence Rd,3.7 stars 14 Reviews,3.7,14,"[""https://www.apollopharmacy.in/?utm_source=gmb&utm_medium=organic&utm_campaign=sulekhapromanage-apollo-pharmacy""]",70.70%
Jk4Q0LIn9DDkRbFuUEZap_tg," D-2, Kamla Nagar, Delhi - 110007. India, Satyawati Marg, Block D,Kamla Nagar, Delhi, 110007",Pharmacy, 098111 34056,28.6826115,77.1997741,Available,Delivery,https://www.google.com/maps/place/Bharat+Chemist/data=!4m7!3m6!1s0x390cfd892c348493:0xd8fea99611945b6c!8m2!3d28.6826115!4d77.1997741!16s%2Fg%2F11g8pdzcs9!19sChIJk4Q0LIn9DDkRbFuUEZap_tg?authuser=0&hl=en&rclk=1,Bharat Chemist,3.2 stars 23 Reviews,3.2,23,"[""NA""]",77.74%
JkyxmNyP9DDkR8PThFwVTu9Q," 11439, Block 23, Shakti Nagar, Delhi, 110007",Pharmacy, 096676 57256,28.6811502,77.198067,Available,In-store shopping,https://www.google.com/maps/place/PharmEasy+Store+-+The+Chemist+Corner/data=!4m7!3m6!1s0x390cfd2337662c93:0xd4bb530517e1f4f0!8m2!3d28.6811502!4d77.198067!16s%2Fg%2F11tnbfc8_y!19sChIJkyxmNyP9DDkR8PThFwVTu9Q?authuser=0&hl=en&rclk=1,PharmEasy Store - The Chemist Corner,4.0 stars 2 Reviews,4,2,"[""https://pharmeasy.in/franchise-stores?utm_source=google&utm_medium=gmb&utm_campaign=franchise-stores""]",31.01%
J9ZMDtNL9DDkR9x8V5tB8saE," 2889, Main Market, Subzi Mandi, Delhi 110007",Homeopathic pharmacy, 081309 09435,28.6719551,77.2058018,Available,In-store shopping,https://www.google.com/maps/place/HomoeoWORLD+Homoeopathic+pharmacy/data=!4m7!3m6!1s0x390cfdd2b40393f5:0xa1b17cd0e6151ff7!8m2!3d28.6719551!4d77.2058018!16s%2Fg%2F11h249x6m1!19sChIJ9ZMDtNL9DDkR9x8V5tB8saE?authuser=0&hl=en&rclk=1,HomoeoWORLD Homoeopathic pharmacy,4.9 stars 96 Reviews,4.9,96,"[""NA""]",100.00%
Jz0w13wgCDTkRbQenS--_bpc," Shop No 05, Mall Rd, Outram Lines, GTB Nagar, New Delhi, Delhi, 110009",Pharmacy, 080 4101 8272,28.7037126,77.2059551,Available,In-store shopping,https://www.google.com/maps/place/Apollo+Pharmacy+Gtb+Nagar/data=!4m7!3m6!1s0x390d0208df354ccf:0x976ebfef4ba7076d!8m2!3d28.7037126!4d77.2059551!16s%2Fg%2F11cm0bx8t5!19sChIJz0w13wgCDTkRbQenS--_bpc?authuser=0&hl=en&rclk=1,Apollo Pharmacy Gtb Nagar,3.7 stars 18 Reviews,3.7,18,"[""https://www.apollopharmacy.in/?utm_source=gmb&utm_medium=organic&utm_campaign=sulekhapromanage-apollo-pharmacy""]",76.87%
Js_j3CY79DDkRABtl49g6YC4," Shop No 1 , Ground floor, Ajendra Market, Plot No 7259, near Shakti Mandir Marg, near Kamla Nagar, Prem Nagar, Shakti Nagar, Delhi, 110007",Homeopathic pharmacy,093122 92400,28.6806256,77.1989157,Available,In-store shopping,"https://www.google.com/maps/place/Swarnim+Homoeopathic+Pharmacy+%7C+Dr+Swarnim+Agrawal+%7C+Shakti+Nagar,+Delhi/data=!4m7!3m6!1s0x390cfd8e09f7f8b3:0x2e603ad8e3651b00!8m2!3d28.6806256!4d77.1989157!16s%2Fg%2F11sq51cx1w!19sChIJs_j3CY79DDkRABtl49g6YC4?authuser=0&hl=en&rclk=1","Swarnim Homoeopathic Pharmacy | Dr Swarnim Agrawal | Shakti Nagar, Delhi",5.0 stars 63 Reviews,5,63,"[""NA""]",100.00%
J87vGe30CDTkRknlCCsjL-_4," 152A East Moti Bagh Sarai Rohilla, 2, Old Rohtak Rd, East Moti Bagh, Sarai Rohilla, Delhi, 110007",Pharmacy, 098917 92021,28.6666583,77.1854688,Available,Delivery,https://www.google.com/maps/place/Daily+Care/data=!4m7!3m6!1s0x390d027d7bc6bbf3:0xfefbcbc80a427992!8m2!3d28.6666583!4d77.1854688!16s%2Fg%2F11bxfm1grm!19sChIJ87vGe30CDTkRknlCCsjL-_4?authuser=0&hl=en&rclk=1,Daily Care,4.8 stars 12 Reviews,4.8,12,"[""https://dailycare.in/""]",86.88%
J8aSObpgCDTkRrivbciJ0vHk," Deep Complex Central Market, No. 1/31 & 39, Wazirpur Village, Ashok Vihar, New Delhi, Delhi 110052",Pharmacy, 080 4101 8301,28.6929876,77.1730959,Available,In-store shopping,https://www.google.com/maps/place/Apollo+Pharmacy+Ashok+Vihar/data=!4m7!3m6!1s0x390d02986e8ea4f1:0x79bc742272db2bae!8m2!3d28.6929876!4d77.1730959!16s%2Fg%2F11hczzmr4v!19sChIJ8aSObpgCDTkRrivbciJ0vHk?authuser=0&hl=en&rclk=1,Apollo Pharmacy Ashok Vihar,3.2 stars 30 Reviews,3.2,30,"[""https://www.apollopharmacy.in/?utm_source=gmb&utm_medium=organic&utm_campaign=sulekhapromanage-apollo-pharmacy""]",77.54%
Jc0GrAJsDDTkR56Bhocxhbvs," No. A-204, Ground Floor, Block B, Shastri Nagar, New Delhi, Delhi, 110052",Pharmacy, 063510 98290,28.6756218,77.1805498,Available,Delivery,https://www.google.com/maps/place/davaindia+GENERIC+PHARMACY/data=!4m7!3m6!1s0x390d039b00ab4173:0xfb6e61cca161a0e7!8m2!3d28.6756218!4d77.1805498!16s%2Fg%2F11vqrqq8lt!19sChIJc0GrAJsDDTkR56Bhocxhbvs?authuser=0&hl=en&rclk=1,davaindia GENERIC PHARMACY,5.0 stars 1 Reviews,5,1,"[""https://blockb-shastrinagar.davaindia.com/""]",24.46%
Jwb6fMY_9DDkRsl4FjKEk--0," 87, Block A, Kamla Nagar, Delhi, 110007",Homeopathic pharmacy, 098102 77117,28.6813794,77.2005838,Available,In-store shopping,https://www.google.com/maps/place/Homoeo+Drug+Centre/data=!4m7!3m6!1s0x390cfd8f319fbec1:0xedfb24a18c055eb2!8m2!3d28.6813794!4d77.2005838!16s%2Fg%2F1tp1x601!19sChIJwb6fMY_9DDkRsl4FjKEk--0?authuser=0&hl=en&rclk=1,Homoeo Drug Centre,3.6 stars 17 Reviews,3.6,17,"[""NA""]",79.54%
Je0tGd-79DDkRMPH3r_OYxxk," 1995 outram, lane, Banda Bahadur Marg, near nulife hospital, Kingsway Camp, GTB Nagar, Delhi, 110009",Pharmacy,011 4513 2152,28.70042,77.2084378,Available,Delivery,https://www.google.com/maps/place/The+Homeopathic+Store/data=!4m7!3m6!1s0x390cfdee77464b7b:0x19c798f3aff7f130!8m2!3d28.70042!4d77.2084378!16s%2Fg%2F12hmhdvgj!19sChIJe0tGd-79DDkRMPH3r_OYxxk?authuser=0&hl=en&rclk=1,The Homeopathic Store,3.6 stars 59 Reviews,3.6,59,"[""NA""]",100.00%
J____P3kfDTkRMx3CZ3r908A," 2707, Main Bazar, Subzi Mandi, Clock Tower, Subzi Mandi, New Delhi, Delhi 110007",Pharmacy, 099115 49434,28.6736134,77.204487,Available,Delivery,https://www.google.com/maps/place/Raghav+Medical+Store/data=!4m7!3m6!1s0x390d1f793fffffff:0xc0d3fd7a67c21d33!8m2!3d28.6736134!4d77.204487!16s%2Fg%2F1tjdv8x8!19sChIJ____P3kfDTkRMx3CZ3r908A?authuser=0&hl=en&rclk=1,Raghav Medical Store,4.0 stars 12 Reviews,4,12,"[""NA""]",78.43%
JmUPq1O4CDTkRmAs8CmWTF7E," Shop No. 1, Property, 13/2, Munshi Ram Sethi Marg, Block 13, West Patel Nagar, Patel Nagar, New Delhi, Delhi, 110008",Pharmacy, 080 4101 8120,28.6503122,77.1658246,Available,In-store shopping,https://www.google.com/maps/place/Apollo+Pharmacy+New+Patel+Nagar/data=!4m7!3m6!1s0x390d02eed4ea4399:0xb11793650a3c0b98!8m2!3d28.6503122!4d77.1658246!16s%2Fg%2F11h_445fp3!19sChIJmUPq1O4CDTkRmAs8CmWTF7E?authuser=0&hl=en&rclk=1,Apollo Pharmacy New Patel Nagar,3.1 stars 29 Reviews,3.1,29,"[""https://www.apollopharmacy.in/?utm_source=gmb&utm_medium=organic&utm_campaign=sulekhapromanage-apollo-pharmacy""]",74.40%
