placeId,address,sub_channel,latitude,longitude,outlet_name,coldCallProbabilityWeight
Jw5e5c8L9DDkRR5ID8niIvIs," Rajiv Chowk, B Block, Connaught Place, New Delhi, Delhi 110001",Clothing store,28.63417,77.2192,H&M,NaN%
Jq6qqPzb9DDkRqspUorgpw3o," SHOP NO 172 , ENTRY FROM GATE NO 6, Palika Bazar, Connaught Place, New Delhi, Delhi 110001",Perfume store,28.6307131,77.2193827,Jain Super Store,NaN%
JZxOonzf9DDkRJ0-B-vFQ3m4," number 4, E Block, E-5, Rajiv Chowk, opposite Metro Gate, Connaught Place, New Delhi, Delhi 110001",Home goods store,28.6330279,77.2213922,MINISO CP,NaN%
Jd-3rnjD9DDkRCk-jwCG6sn8," Hamilton House, CONNAUGHT PLACE, A-1, next to Starbucks Coffee, Block A, Connaught Place, New Delhi, Delhi 110001",Clothing store,28.6322495,77.2178216,"Fabindia, Connaught Place (A Block)",NaN%
JO1Zdzkn9DDkRSUeULbmtONo," No M55, Ground Floor, Opposite Haldiram, Connaught Place, New Delhi, Delhi 110001",Cosmetics store,28.6337683,77.2224373,The Body Shop,NaN%
Jbw25cTf9DDkRt54TjVfjwyk," Ground Floor, Odeon Cine Complex, Middle Cir, D Block, Connaught Place, New Delhi, Delhi 110001 Located in: Odeon",Electronics store,28.634153,77.2213305,Croma - Odeon CP,NaN%
J7RrOnBv9DDkRY2urtGlPLUg," Building No. 1, 1-A, Radial Rd Number 2, Block A, Connaught Place, New Delhi, Delhi 110001",Clothing store,28.6323437,77.2177076,"UNIQLO Connaught Place, Delhi",NaN%
J3w2BVEj9DDkRfWNOZEiDkdw," Block G, Connaught Place, New Delhi, Delhi 110001",PharmacyOpen ⋅ Closes 11 pm,28.6339233,77.217019,Apollo Pharmacy - Connaught Place,NaN%
J1TYCHTj9DDkRguyXSs-TBkY," GF Plaza cinema bldg, Block H, Connaught Place, New Delhi, Delhi 110001 Floor 0 · PVR Plaza-CP,Delhi",Clothing store,28.6350721,77.2195027,Marks and Spencer,NaN%
JcRt8HEj9DDkRLqZLs82Xhew," Shop No. 2G Ground Floor Marine Arcade Rajiv chowk metro station Gate no 1, Block G, Connaught Place, New Delhi, Delhi 110001",Pharmacy,28.6338409,77.2174297,Nath Brothers,NaN%
JU0LT6Un9DDkRwyP0LYELdZA," 10, Regal Building, Sansad Marg, beside Barista, Hanuman Road Area, Connaught Place, New Delhi, Delhi 110001",Clothing store,28.6301162,77.2174334,The Shop,NaN%
JDdV2GTf9DDkRUCWl79BG3bg," Shop E, 10, Rajiv Chowk, Block E, Connaught Place, New Delhi, Delhi 110001 Located in: Rajiv Chowk",Clothing store,28.633792,77.22097,W for Woman CP E - Block,NaN%
JL3p9fjb9DDkR6nXlf7fa4Dg," F-19, Connaught Cir, Block F, Connaught Place, New Delhi, Delhi 110001",Clothing store,28.6313115,77.2200454,Ivory Palace Store In Cp | Colorplus | U S POLO ASSN | Madame | Park Avenue,NaN%
Jv8FvSDH9DDkRu6hi5JfBZdI," B-45/47 , Radial Road Number 4, PVR Cinema Road, BLock B, Connaught Place, New Delhi, Delhi 110001",Western apparel store,28.6346732,77.2195764,AND Connaught Place,NaN%
Jx4nUQzL9DDkRSBy8VvVxC_8," Marina Arcade, G-21, Connaught Cir, Block G, Connaught Place, New Delhi, Delhi 110001",Cell phone store,28.632925,77.2167304,Telepathy,NaN%
Jv3KLLUj9DDkRY-gol3vJ8jo," G 52, Block G, Connaught Place, New Delhi, Delhi 110001",Sportswear store,28.6317445,77.2169799,Sports Station,NaN%
JFbF6SO79DDkR4jbUvkKSfdI," No A, 2, Rajiv Chowk, Block A, Connaught Place, New Delhi, Delhi 110001",Men's clothing store,28.6324635,77.2180766,"Rare Rabbit, Connaught Place",NaN%
JU3pYji79DDkRen5o9jm2rjA," Ground Floor, 25 f, Rajiv Chowk, Block F, Connaught Place, New Delhi, Delhi 110001",Sporting goods store,28.6313059,77.2196378,Gupta Sports House,NaN%
JMZ5S7Tf9DDkR3iLfjLFukAQ," B-28, Rajiv Chowk, Block B, Connaught Place, New Delhi, Delhi 110001",Clothing store,28.634304,77.219266,Planet Fashion,NaN%
Jk_Wd-SL9DDkRnI8p2r0eGSQ," N9, Connaught Cir, Block N, Connaught Place, New Delhi, Delhi 110001",Electronics store,28.630095,77.219866,Future World - Apple Premium Reseller Authorised Service Provider,NaN%
Jm-sg_jb9DDkR89sQWlZtk8w," F-20, Connaught Place, New Delhi, Delhi 110001",Men's clothing store,28.6318403,77.2190339,JACK&JONES STORE,NaN%
JHUwcczf9DDkR7HNui-BSyvk," D-8, D Block, Connaught Place, New Delhi, Delhi 110001",Clothing store,28.6339039,77.2208676,Snowhite Square,NaN%
Jj_lM4Tb9DDkRz0clvfsCtIw," E-23, Block E, Connaught Place, New Delhi, Delhi 110001",Grocery store,28.6319856,77.2215145,The Oriental Fruits Mart,NaN%
JXSkMp5T9DDkRBvORtLIt2vs," F, 13, Rajiv Chowk, near Metro Gate No: 5, Block F, Connaught Place, New Delhi, Delhi 110001",Clothing store,28.6313629,77.2205529,"Allen Solly, CP, Family Store",NaN%
JtTyDEEj9DDkRiHuU5UhMszU," No P6, 90, Connaught Cir, Block P, Connaught Place, New Delhi, Delhi 110001",Computer Hardware Company,28.6317949,77.2162755,HP World - Connaught Place,NaN%
JJ03aITf9DDkRaxiwh0rTPPc," Shop No E1, Gate No 4, Rajiv Chowk, opposite Metro Station, Block E, Connaught Place, New Delhi, Delhi 110001",Watch store,28.6333096,77.2214161,Titan World,NaN%
Jw6YKOeH9DDkR3gerYHDsBRM," No G, 54, Radial Rd Number 2, Block G, Connaught Place, New Delhi, Delhi 110001",Electronics store,28.6317391,77.2169804,Future World - Apple Authorised Reseller Authorised Service Provider,NaN%
J9WM9cDf9DDkRYvvU_INeXqg," D-1, Odeon Building, Radial Rd 5, Connaught Place, New Delhi, Delhi 110001",Toy store,28.6343115,77.2211807,Ram Chander & Sons Toy Store,NaN%
JNXcKNEj9DDkRVKCdD1wKPSI," N Block, N-22, Connaught Cir, Block N, Connaught Place, New Delhi, Delhi 110001",Cell phone store,28.6303688,77.2209381,Samsung Experience Store - Siyaram Brothers - Connaught Place,NaN%
JBx2xxTf9DDkRd7UVF7kgCKo," No. 12, C Block, Rajiv Chowk, Block C, Connaught Place, New Delhi, Delhi 110001",Clothing store,28.6343363,77.2203912,Park Avenue,NaN%
JvT0k3kn9DDkRC7QIAsjz9TI," Regal Building, 16 A, Connaught Place, New Delhi, Delhi 110001",Leather goods store,28.6305407,77.2173963,Sreeleathers Showroom,NaN%
JY2xo9MriDDkREUnh7_iuhnQ," Shop No N 1, Gate 6, near Palika Parking, Block N, Connaught Place, New Delhi, Delhi 110001",Home audio store,28.6302535,77.2198838,The Bose Store,NaN%
J6aYR7Tf9DDkR-soEb8jmhWE," 19, Block B, B, Near, Mc Donald, Inner Circle, Connaught Place, New Delhi, Delhi 110001",Clothing store,28.6340992,77.2188951,Levi's Exclusive Store,NaN%
JAzzMcjf9DDkRNSZLdMaMP4o," D-9 Near Odeon Cinema, Rajiv Chowk, Connaught Place, New Delhi, Delhi 110001",Shoe store,28.6339077,77.2210939,The Heels,NaN%
JfQW2sDX9DDkRFqetHBQr36A," Sony Center, F 30, Janpath Rd, Block F, Connaught Place, New Delhi, Delhi 110001",Electronics store,28.6307572,77.2197979,SONY CENTER - AVIT DIGITAL,NaN%
JCZ2dujf9DDkRa7FxA-U6WsQ," # F-6, Rajiv Chowk, Connaught Place, New Delhi, Delhi 110001",Clothing store,28.6317583,77.220936,Tommy Hilfiger Store,NaN%
JsSRokTb9DDkRun7xtB--CIs," N-40,Outer Cirlce, Connaught Place, New Delhi, Delhi 110001",Camera store,28.6307479,77.221515,Canon Flagship Store,NaN%
JU_yJHSv9DDkRNkHGQYS7uo4," Gate No. 8, Metro Station, Shop #A-14 A Block, Connaught Cir, New Delhi, Delhi 110001",Men's clothing store,28.6331865,77.2181373,Louis Philippe - CP A Block,NaN%
JgQV9yjD9DDkR6wEJ1cl0k_o," D Block, Shop-5 Inner Circle, STREET NO 5, near BATA SHOW, Connaught Place, New Delhi, Delhi 110001 Located in: Rajiv Chowk",Clothing store,28.6339219,77.220817,JOCKEY STORE (STOCKIST),NaN%
J4TE7HDf9DDkRW5InAHZRO6g," no- 4, E-3,Ground, Mezzanine & E-30, First and second floor, Rajiv Chowk, near Metro gate, Block E, Connaught Place, New Delhi, Delhi 110001",Sportswear store,28.633101,77.221446,Adidas Store,NaN%
JEelMwTf9DDkRWoExgq6CRkI," 16 -B, Ground Floor, Inner Circle, Connaught Place, New Delhi, Delhi 110001",Shoe store,28.6342823,77.2194729,Woodland,NaN%
J0S4b7Df9DDkRBXhY55uARYg," No B16, B Block, Rajiv Chowk, opposite Metro Gate No 1, Block B, Connaught Place, New Delhi, Delhi 110001",Outdoor clothing and equipment shop,28.634142,77.2190296,Wildcraft,NaN%
JK4HFHTf9DDkRHTZhiaANK1w," 11-E, Inner Circle, Block E, Connaught Place, Delhi, New Delhi, Delhi 110001",Clothing store,28.6325588,77.2214154,The Raymond shop,NaN%
JHT-X7jf9DDkRz3oUIeeiIZE," D-4, Radial Rd 5, D Block, Connaught Place, New Delhi, Delhi 110001",Shoe store,28.6340125,77.2207747,Bata Shoe Store,NaN%
Jm_PO2Ob9DDkRMnjp6xMVu3k," No. C, C Block, 15, Rajiv Chowk, Block C, Connaught Place, New Delhi, Delhi 110001",Clothing store,28.6342019,77.2204811,Van Heusen Connaught Place - C Block,NaN%
Jh1555zf9DDkRYNaJIqb5Wao," No A24, Block A, Connaught Place, Delhi, New Delhi, Delhi 110001 Floor 0 · Rajiv Chowk",Cell phone store,28.633705,77.2177549,Hotspot Mobile Store,NaN%
JRfRBUpn8DDkR_MoVmcstNc4," Mezzanine Floor, No:4, Block C-6, Ground, &, Radial Road, Delhi, 110001 Located in: Jain Book Depot",Clothing store,28.6345831,77.2200787,"Go Colors - Connaught Place | Women's Leggings, Jeans & Pants",NaN%
JT64yWHT9DDkRTd2xcYJ_mSo," Auliya Masjid, shop no 33 NDMC Market, Outer Circle, Connaught Place Opposite Lazeez Affair Block K Connaught Place outer circle, Minto Rd, Before, New Delhi, Delhi 110001",Cell phone store,28.6355414,77.2208503,iGENIUS | Apple Authorised Store | Apple Service |,NaN%
JRbjCa8j9DDkRJQYJrjJMeqI," Shop No B22 and B23, Ground Floor, Rajiv Chowk, Block B, Connaught Place, Central Delhi, New Delhi, Delhi 110001",Clothing store,28.6342137,77.2190474,Jockey Exclusive Store,NaN%
JPToc01LiDDkRhlijj6y14ZE," C-7, Rajiv Chowk, Connaught Place, New Delhi, Delhi 110001 Floor 0 · Manyavar",Shoe store,28.6340051,77.2199106,Hush Puppies Store,NaN%
Je3AA6zf9DDkRRN7pNxhgdCQ," Rajiv Chowk Metro Station, RCK/K-30 Gate 1, 2, Unpaid Area, New Delhi, Delhi 110001 Located in: Rajiv Chowk",Department store,28.6341454,77.2188525,WHSmith Store,NaN%
JkbbRGyv9DDkRTISpwgGQTG4," F, 11, Block F, Connaught Place, New Delhi, Delhi 110001",Clothing store,28.6315776,77.2206429,Cantabil,NaN%
JL6z2Eun9DDkRxGcT_-GAEl8," No. 3, Metro Station Gate, CONNAUGHT PLACE, Shop # E-17 E-Block, New Delhi, Delhi 110001",Men's clothing store,28.6322394,77.221248,Louis Philippe CP-E Block,NaN%
JydoTm-L9DDkRUV99MBrmz-c," shop no 24, B 24 block, Connaught Ln, Hanuman Road Area, Connaught Place, New Delhi, Delhi 110001",Shoe store,28.6310484,77.2166368,Bata Shoe Store,NaN%
Jlxxg4Db9DDkRwvtD2UkXkQo," E Block, 9, Middle Cir, Inner Circle, Block E, Connaught Place, New Delhi, Delhi 110001",Men's clothing store,28.632817,77.221532,Jainson,NaN%
Jr2bI5cniDDkRH0jux_xuCYA," C-4 Oppsites Pvr Plaza, Connaught Place, New Delhi, Delhi 110001 Located in: Go Colors - Connaught Place | Women's Leggings, Jeans & Pants",Law Book Store,28.6346329,77.2200736,Jain Book Depot,NaN%
JL3p9fjb9DDkRqMJyrSXnHHA," B-21, Rajiv Chowk, Block B, Connaught Place, New Delhi, Delhi 110001",Men's clothing store,28.6343507,77.2193593,Mohanlal Sons,NaN%
JszbP6Tb9DDkRWCc_ZYPbg_w," E - 27, near HP Petrol Pump, Block E, Connaught Place, New Delhi, Delhi 110001",Linens store,28.6318965,77.2216407,Linen Club,NaN%
J__9v5zX9DDkR9IcxFNoa85s," Shop No 25, Janpath Bhawan,, Janpath Market, New Delhi, Delhi 110001",Book store,28.62882,77.218512,Famous Book Store,NaN%
J3_XyNzL9DDkRI-2uqdecfLA," E-12, Rajiv Chowk, Inner Circle, Block E, Connaught Place, New Delhi, Delhi 110001",Leather goods store,28.6325553,77.2214952,Da Milano Italia,NaN%
JJRo_97H9DDkRadsACtJK4Zk," shop no.34, N.D.M.C Market, opp. york hotel, Railway Colony, Connaught Place, New Delhi, Delhi 110001",Mobile phone repair shop,28.6355901,77.2208984,I way support,NaN%
J9UUc0Q39DDkRrm-ribd3KH4," Block P, Connaught Place, New Delhi, Delhi 110001",Computer storeOpen ⋅ Closes 8:30 pm,28.6316468,77.2164051,Dell Exclusive Store - Connaught Place,NaN%
JF9k6mTf9DDkRU7rmR_Y5QSU," Shop No E, 14, Rajiv Chowk, Inner Circle, Block E, Connaught Place, New Delhi, Delhi 110001",Clothing store,28.6325099,77.2214595,Blackberrys,NaN%
JcdtO7Tf9DDkRyTeYlzRF-w0," Block B, Block-B Connaught Place, B-27, Inner Circle, Block B, Connaught Place, Block B, Connaught Place, New Delhi, Delhi 110001",Shoe store,28.6342523,77.2194086,Balujas,NaN%
JD0pQ4jb9DDkR7aHc5SeAdO4," E-20, Block E, Connaught Place, New Delhi, Delhi 110001",Women's clothing store,28.6320423,77.2214116,Greenways,NaN%
Jy0lnATj9DDkRJADSuy9fRuc," 49, Baba Kharak Singh Rd, Janpath, Connaught Place, New Delhi, Delhi 110001",Clothing store,28.6318773,77.2168239,Hidesign Boutique,NaN%
JkWqFTGn9DDkRK69QxRLxfGQ," No F14/15, Ground Floor, below Chaayos, Inner Circle, Block F, Connaught Place, New Delhi, Delhi 110001",Women's clothing store,28.631385,77.2205133,BIBA,NaN%
Jj_vKwzf9DDkRwq8HbKblKP0," Block-B Connaught Place, Block B, Rajiv Chowk, Connaught Place, 17-b, Radial Road Number 3, Block B, Connaught Place, New Delhi, Delhi 110001 Located in: Kuthiala Building",Clothing store,28.63382,77.2184543,U.S. Polo ASSN.,NaN%
Jm7ntcfL9DDkRKydRh3tV_Zg," No C/11, Ground Floor, near Cafe coffee Day, Connaught Place, New Delhi, Delhi 110001 Located in: Dr.Zombie",Men's clothing store,28.6341145,77.219913,Manyavar,NaN%
Jp5JfZjb9DDkR5rtQ3QkbvCY," N-2, Outer Circle, Janpath Rd, Connaught Place, New Delhi, Delhi 110001",Clothing store,28.6303842,77.2198258,Lacoste,NaN%
JcRt8HEj9DDkRokA0qtzw4Zs," Marina Arcade, G-8A, New Delhi, Delhi 110001",Musical instrument store,28.6337659,77.2169274,Rikhi Ram Musical Instruments Official Store - since 1920,NaN%
Jc_8NeQ79DDkRBEDEZ9edWRo," C-7, Ground Floor, Radial Road Number 4, Connaught Place, New Delhi, Delhi 110001 Located in: PVR Plaza-CP,Delhi",Clothing store,28.6344615,77.2199925,Zodiac Retail Store,NaN%
J41eKOIb9DDkRfhHXjSlftMs," Shop No A10, Rajiv Chowk, Block A, Connaught Place, New Delhi, Delhi 110001",Clothing store,28.6329615,77.2181108,Blackberrys,NaN%
Jk7L44jf9DDkRM4TEOf1BWsw," B-13, Middle Cir, Block B, Connaught Place, New Delhi, Delhi 110001",Clothing store,28.6340348,77.2186473,Blackberry Retail Brand Store,NaN%
Jcw1TQrP9DDkRORE6alJahRM," Platform 3, METRO STATION GATE, D8/1, near RAJIV CHOWK, D Block, Connaught Place, New Delhi, Delhi 110001",Watch store,28.6337823,77.2209715,Watch store | watch Repair | Sikka and Sons |Tissot |Gc |Seiko |DW |Just Cavalli |Guess |Fossil | Alba |Casio |Titan |Timex|,NaN%
JX8ehxTf9DDkRqn9PJTQfyGE," Shop No: A, 16 Near Road, Rajiv Chowk, Block A, Connaught Place, New Delhi, Delhi 110001",Bakery and Cake Shop,28.6334122,77.2181287,Wenger's,NaN%
JXXDE3jb9DDkRCmEb2Tff2dE," Block L, Connaught Place, New Delhi, Delhi 110001",Ice Cream,28.6344056,77.2220968,Naturals Ice Cream,NaN%
JH4e3Mk_9DDkREWt-H4EopBw," C Block, C42/2 1st Floor Dwarka Sadan, Middle Cir, Connaught Place, New Delhi, Delhi 110001",Drone shop,28.6347864,77.2202582,NV Drone Store,NaN%
Jh091czf9DDkRuebu3nXWSyk," A-5, 1st Floor, Inner Circle, Radial Road 5, New Delhi, Delhi 110001",Shoe store,28.6342118,77.2204632,Vanson,NaN%
Jq6q6Rjf9DDkR-1HTW2DiIuY," No. 9/3, L Block, Mezzanine Floor, Connaught Cir, Connaught Place, New Delhi, Delhi 110001",Musical instrument store,28.6344854,77.2220328,Hare Krishna Musicals,NaN%
JWYZYgjf9DDkRaxLkxal74_s," C 14, First Floor, C Block, opp. Oden Cinema, Block C, Connaught Place, New Delhi, Delhi 110001",Cafe,28.6341728,77.2202765,Cafe Coffee Day - The Square,NaN%
JO1Zdzkn9DDkRl0P4AKhKb98," CONNAUGHT PLACE, E-4, Rajiv Chowk, Block E, Connaught Place, Delhi, New Delhi, Delhi 110001",Jewelry store,28.6332559,77.22139,Tanishq Jewellery - Delhi - Connaught Place,NaN%
JWcIuy9j9DDkRqo7vIWiD2Sk," Faiz Bazar, 3620/21, Netaji Subhash Marg, Kucha Alam, Estate, Daryaganj, New Delhi, Delhi, 110002",Electronics store,28.6433779,77.2403567,Croma - Daryaganj,NaN%
JJ4IB0eL9DDkRyrif-PU-gB4," 16B/4, Asaf Ali Rd, opposite LNJP Hospital, Chatta lal Miya, Chandni Mahal, Daryaganj, New Delhi, Delhi, 110002",Electronics store,28.6410889,77.2379692,VIJAY SALES - DARYAGANJ,NaN%
JMUPZ-ir9DDkRTwl8BZEpzs0," Shop No-3720, Faiz Bazar Netaji Subhash Marg, Central, Lal Qila, Daryaganj, Delhi, 110002",Shoe store,28.6469261,77.2401024,Campus Exclusive Store,NaN%
JM_0wZN_8DDkRr40nruKKhiY," No 4935/3, Hotel Flora Building, Dayanand Rd, Daryaganj, New Delhi, Delhi, 110002",Cell phone store,28.6448209,77.2410326,Samsung Experience Store - Phonestore - Darya Ganj,NaN%
JtaRgaITjDDkRu2PPSlBxaGs," Shop No, 19, Netaji Subhash Marg, near Kotak Bank, Daryaganj, New Delhi, Delhi, 110002",Cell phone store,28.6442394,77.2404784,Hotspot Mobile Store,NaN%
JEbqonyD9DDkRVD7Qmd-ox94," 3575/76, Netaji Subhash Marg, Kucha Alam, Khabas Pura, Daryaganj, Delhi, 110002",Electronics store,28.6428381,77.2403748,LG Best Shop (Shri Shyamji Enterprises),NaN%
JGSj-4k_9DDkRyXy6sVpNL2s," Shop No 60, Ground Floor, Dayanand Rd, Daryaganj, New Delhi, Delhi, 110002",Clothing store,28.6448269,77.2412763,Cantabil,NaN%
JkZbQI9X8DDkRPYGU7mZlMlU," Central Revenue Building, Indraprashta Marg, IP Estate, Delhi, 110002",Grocery store,28.6270212,77.2430009,Kendriya Bhandaar,NaN%
JbeOj5_r9DDkR4ILSpipXPn4," 3531, Netaji Subhash Marg, Kucha Lal Man, Daryaganj, New Delhi, Delhi, 110002",Book store,28.6421758,77.2403808,Book Affair,NaN%
J022CNN_8DDkRnD-2ScQpMWs," 91-B, Shyam Lal Rd, opposite Hindi Park, Daryaganj, New Delhi, Delhi, 110002",Sporting goods store,28.6432818,77.2424512,Baba Sports,NaN%
JN2lUZyf9DDkReroLrSw-zP8," Shop No. 3449, Delhi Chamber Building, Delhi Gate, Old Delhi, New Delhi, Delhi, 110002",Medical supply store,28.6411903,77.2405826,"Super Medicare | Cpap, Bipap, Oxygen Concentrator and Cylinder for Sale, Rent in Delhi, Noida, Gurgaon, Faridabad, Ghaziabad",NaN%
Jve1fPvn9DDkRfp9aGBx9Qqg," Ground Floor, 4873/1B, 24, Ansari Road, 110002, Daryaganj, New Delhi, Delhi, 110002",Wallpaper store,28.6411539,77.2432721,DELHI WALL MALL,NaN%
JDxj4vh_9DDkRTTGa5ft0xIw," 11-B, Netaji Subhash Marg, Daryaganj, New Delhi, Delhi, 110002",Electronics store,28.6454115,77.2405714,Aggrellios & Company,NaN%
J2cY_YSf9DDkRxu-y6Ov8Wy4," 3466, Netaji Subhash Marg, Kucha Lal Man, Daryaganj, New Delhi, Delhi, 110002",Dairy store,28.641432,77.240291,Mother Dairy,NaN%
J-6B2OSj9DDkRSuShY_nmlOQ," MAMC, Near Departmental canteen, Delhi 110002 Located in: Maulana Azad Medical College (MAMC)",Medical Book Store,28.6350273,77.2394833,Avni Book Store,NaN%
JVx1FELT9DDkR1WXZsoofCWA," Partap Gali, Kucha Alam, Khabas Pura, Old Delhi, New Delhi, Delhi, 110002",Pet supply store,28.6436635,77.2399596,Persian Cat Gallery Delhi NCR Kitten House Daryaganj Pet Shop Jama Masjid,NaN%
JhekBZgD9DDkRixSDAD5F32A," 3483, Netaji Subhash Marg, Kucha Lal Man, Daryaganj, New Delhi, Delhi, 110002",Book store,28.642003,77.240362,Mukta Book Agency,NaN%
JIThV7bz9DDkRmRjer6CtnBU," 4223, Allahabad Bank, 1, Ansari Rd, beside Indian, Daryaganj, New Delhi, Delhi, 110002",Book store,28.6411245,77.2444994,Bokaro Students Friend Pvt. Ltd.- Daryaganj,NaN%
JD1wkeiD9DDkRAL2EDnUBXAU," 3695, 1, Netaji Subhash Marg, Kucha Chalan, Khabas Pura, Daryaganj, New Delhi, Delhi, 110002",Musical instrument store,28.6462311,77.2404697,Avtar Musical,NaN%
JOfKJZ-z9DDkR65v58ZdCu8s," 3636, Netaji Subhash Marg, near Golcha Cinema, Kucha Chalan, Khabas Pura, Daryaganj, New Delhi, Delhi, 110002",Clothing store,28.6452316,77.2402143,Paradise Cotton - original Pakistani suits wholesale,NaN%
JQ7MVBvpkz6kRigczS0qBPNU," Varun House, 4819/24, Ansari Rd, Daryaganj, New Delhi, Delhi, 110002",Book store,28.6426232,77.244668,BookBuzzz - Online Book Store,NaN%
JEdVekCD9DDkRE2RjGznMGck," 3109, Sir Syed Ahmed Rd, Kucha Alam, Khabas Pura, Daryaganj, New Delhi, Delhi, 110002",Bakery and Cake Shop,28.644155,77.239105,Blue Ribbon Bakers and Confectioners,NaN%
JqRRxGsj9DDkR_9cmeTAwJXo," 19, Ansari Rd, Daryaganj, New Delhi, Delhi, 110002",Book store,28.6462449,77.2433955,DELHI BOOK STORE,NaN%
JwXlKI9X8DDkRj_Ey-_QarpA," Shop No. LGF1, Hans Bhavan, Behind C A Institute, ITO, New Delhi, Delhi 110002",Law Book Store,28.6270568,77.2426777,Pooja Law House,NaN%
JVVWJbdn8DDkR_Fc9hIQrgjg," Street No. 1, Ansari Rd, near MCD Dispensary, opposite Ambedkar Stadium, Delhi Gate, Old Delhi, New Delhi, Delhi, 110002",Kitchen supply store,28.6409744,77.2452707,Modern Kitchen Equipment,NaN%
Jn4AeEwr9DDkRUUpiqDGeLkA," Milk Shop 42401 Shop No 5 Vikram Nagar Kotla Firoz Shah, Delhi, 110002",Dairy store,28.63455,77.24285,Mother Dairy Milk Shop 42401,NaN%
J4Xi1bgP9DDkRDRYHEahArrM," Shop No.15, 16, Netaji Subhash Marg, Daryaganj, New Delhi, Delhi, 110002",Gents Tailor,28.644935,77.2407209,M Usman Drapers & Tailors,NaN%
JPRUrqpL9DDkRAlr1trZDSA0," 1636, Delhi 110002",Watch store,28.6352202,77.2468858,Vintage Plus Watches,NaN%
Jn46Loij9DDkRvOF2sIs-YKs," J6PP+CC9, Mirdard Marg, Maulana Azad Medical College Campus, Mandi House, New Delhi, Delhi, 110002 Located in: Maulana Azad Medical College (MAMC)",Indian grocery store,28.636037,77.2361109,Kendriya Bhandar,NaN%
JyZzfYt_8DDkRJh4LDIVy1MU," 15, Netaji Subhash Marg, opposite Golcha Cinema, Diagonally, Daryaganj, New Delhi, Delhi, 110002",Tea store,28.644865,77.240602,"Aap Ki Pasand Tea Gallery (India's Oldest Gourmet Tea Store), Sancha Tea",NaN%
JjZlp-DH9DDkRQpTFPgziLgA," Shop number 13 Streat, 4855/24, Ansari Rd, Daryaganj, Delhi, 110002",Wallpaper store,28.6415431,77.243124,Brothers Wall Coverings,NaN%
Jn8uKCCD9DDkRc9y-DcGQDtg," 3638, 3640, Netaji Subhash Marg, Kucha Alam, Khabas Pura, Daryaganj, New Delhi, Delhi, 110002",Music store,28.6452416,77.240209,Goonj Musical Gallery,NaN%
Ji8r_hlP9DDkR0Qf2Gibs2vg," 4853-54, 24, Ansari Rd, Daryaganj, New Delhi, Delhi 110002",Wallpaper store,28.6414328,77.2432043,Home Fashion,NaN%
JPZFv8KT9DDkROuigYVRjclU," PARK, 3632/2, Netaji Subhash Marg, near GOLCHA CINEMA DELHI MANSION, New Friends Colony, Kucha Alam, Khabas Pura, Daryaganj, New Delhi, Delhi, 110002",Motorcycle shop,28.6447116,77.2401324,TVS - YM TVS (TVS SHOWROOM DELHI),NaN%
JR4z1W9H9DDkRKepOmHEfn8E," No 3632/11, In, Park Mansion, Netaji Subhash Marg, near Golcha Cinema, Daryaganj, New Delhi, Delhi, 110002",Two Wheeler Dealer,28.6465517,77.2405674,TVS - My Enterprises,NaN%
JxeOFkDj9DDkRefIZ-R20mC8," Shop No-5, Mirdard Marg, Maulana Azad Medical College Campus, LNJP Colony, New Delhi, Delhi, 110002",Bakery and Cake Shop,28.6362303,77.2364131,A Cake 'O' Clock,NaN%
Jv60cj-D8DDkRGYQR6C3gofY," Viraj Tower, 2 4259/3, Ansari Rd, Daryaganj, New Delhi, Delhi 110002",Book store,28.6428869,77.2446238,Buy Books India,NaN%
J30G5zt78DDkRHMOguidfSqE," 4306, 3, Ansari Rd, near Bank of India, Daryaganj, New Delhi, Delhi, 110002",Dairy Products Supplier,28.6437114,77.2443894,Juneja Dairy,NaN%
J0WwVeiD9DDkR7Ym9fOwqfjQ," 2-B, Netaji Subhash Marg, Main, Road, opposite subzi mandi, Daryaganj, New Delhi, Delhi 110002",Musical instrument store,28.646163,77.2404628,R N Bhargava and Company,NaN%
J15aTx978DDkR2O8zGpsnNN8," Harbans Singh Street, 4858A, 24, Ansari Rd, near Sanjeevan Hospital, Daryaganj, Delhi, 110002",Wallpaper store,28.6412267,77.2433853,Wall Fashion,NaN%
JGYvutRb9DDkRnUonwJu4NrM," Shop No 10, Delhi Gate, Ambedkar Football Stadium, Feroze Shah Kotla, Vikram Nagar, Delhi, 110002",Carpet wholesaler,28.6395917,77.2423263,Rajmahal Carpets,NaN%
J7-9NItn8DDkR33F7U0tr1Pw," 4819/24, Ansari Rd, Daryaganj, New Delhi, Delhi, 110002",Wallpaper store,28.6417943,77.2439841,Vrinda Wallpaper Store,NaN%
JLfiYDCT9DDkRwQxbpLXG1-0," 4/5B, Asaf Ali Rd, near Delite Cinema, next to Kotak Mahindra ATM, Chatta lal Miya, Chandni Mahal, Chandni Chowk, New Delhi, Delhi, 110002",Book store,28.641074,77.237079,Hindi Book Centre,NaN%
JHb2TbpD9DDkR281GeCylry4," 4360/4, Ansari Rd, Daryaganj, New Delhi, Delhi, 110002",Book store,28.6438748,77.2444032,Chaukhamba Sanskrit Pratishthan,NaN%
JBeh9Q9_8DDkRhSazKz6FHFM," 13, Ansari Market, Kedarnath Ln, Daryaganj, New Delhi, Delhi 110002",Copy shop,28.6441491,77.2414408,Delhi Copier,NaN%
JmXU70tD8DDkR8BQvWu5phhE," C 59/49, Mata Sundri Road, Near By ITO, New Delhi, Delhi 110002",Office furniture store,28.635349,77.246566,Irshad Wooden Scrap,NaN%
JAQAAQN_8DDkRoXov7n0JdwA," 24, 4800, Bharat Ram Rd, near Choudhury Eye Center, Daryaganj, New Delhi, Delhi, 110002",Office equipment supplier,28.642111,77.243599,G. B. Tech(India),NaN%
JcQftO9n8DDkR5NRJOO0FPRU," LG-2, Ansari Rd, Daryaganj, New Delhi, Delhi 110002",Law Book Store,28.642122,77.244388,Commercial House,NaN%
JAQAAQN_8DDkRCwEIpUjIymU," 5051/16, Netaji Subash Marg Opp. Moti Mahal Restaurant, Daryaganj, New Delhi, Delhi 110002",Aquarium shop,28.6448307,77.2402265,Sea Fish Aquarium,NaN%
J06IhGif9DDkRFp5Cev2Os90," Service Lane, 166,Ground Floor, Chatta Lal Mian, Asaf Ali Rd, New Delhi, Delhi 110002",Clothing store,28.6413876,77.2371716,Saeed Collections - Designer Suits Wholesalers in Delhi India,NaN%
JQ3ODsUn9DDkRM_AlVnfgM9c," A-3/4, State Emporia Building, Baba Kharak Singh Rd, New Delhi, Delhi 110001",Craft store,28.631332,77.215414,Delhi Emporium,NaN%
JQxrmkbXkDDkRKX2kqJle1FM," G-1, Atlantic plaza, I P Extension Delhi, opposite Ajanta Apartments, New Delhi, Delhi 110092",General store,28.6282995,77.3078674,Healthways Departmental Store,NaN%
JF3eO4Nj8DDkRcfs7WQhSvdU," The WallKing, 109, Ansari Rd, Daryaganj, New Delhi, Delhi, 110002",Wallpaper store,28.6413554,77.2432959,Customize Wallpaper,NaN%
JHSAxl978DDkRbXQtCDlg7UM," 2/25, 1st Floor, arun house, Ansari Rd, Daryaganj, New Delhi, Delhi 110002",Medical Book Store,28.6427738,77.2452039,Atithi Medical Books Pvt Ltd,NaN%
Jv6g8w978DDkROmxkGe0rQMo," 2/14, Ground Floor, Gali No. 2, Ansari Road, Daryaganj, Delhi, 110002",Book store,28.6424791,77.244873,BooksWagon : India's Largest Online Bookstore,NaN%
JAVY9Vif9DDkRx0fFmhCxXSo," No 3535, Netaji Subhash Marg, Kalan Mahal, Daryaganj, New Delhi, Delhi, 110002",Car dealer,28.6425839,77.2402133,"Tata Motors Cars Showroom - Arya Motors, Dariya Ganj",NaN%
J9_u55yv9DDkRxTYhGliReBk," FF, Delhi Chamber Building, 108-108A, Delhi Gate, New Delhi, Delhi, 110002",Medical equipment supplier,28.6397177,77.240055,Oxygen Concentrator on rent,NaN%
Jpc8pWCf9DDkRQoASP_ZJE7Y," shop no 3487, Darya Ganj Ln, Kucha Lal Man, Old Delhi, New Delhi, Delhi, 110002",Watch store,28.6421017,77.2404053,relex watch company,NaN%
JixzqCSf-DDkRG9fpJNGkQvU," Shop No 4864, Gali No 24 Jain Bhavan, near Sanjeevan Hospital, Daryaganj, New Delhi, Delhi 110002",Wallpaper store,28.64164,77.2432156,Sonu Art And Ultra Walls,NaN%
JoQVmAnH2ZxQR-GvRIH_w9c0," Bharat Scouts Building, 113A, Ansari Rd, Daryaganj, New Delhi, Delhi, 110002",Book store,28.6434234,77.2431578,Prakash Books India Private Limited,NaN%
JOZYk2SD9DDkRuq42YR4YdlQ," Gate No. 3, Metro Station, 1057, Tiraha Behram Khan Rd, near Delhi Gate, Bazar Chitli Qabar, Rakab Ganj, Chandni Mahal, Daryaganj, New Delhi, Delhi, 110002",Calligraphy lesson,28.6436562,77.2377166,Tattoo Guru Javed Ali,NaN%
J_S0EVBf9DDkRzHvEs-_7oZw," S13, Sir Syed Ahmed Khan Rd, behind delite cinema, Bazar Chitli Qabar, Rakab Ganj, Sheesh Mahal, Ganjmeer, Delhi, 110002",Sign shop,28.6430314,77.2362103,S. S. Sign Board,NaN%
JkRwRXNj8DDkRvs2KSHkWGIg," 15, Dr. Ambedkar Stadium, Jawaharlal Nehru Marg, Delhi Gate, Vikram Nagar, Delhi, 110002",Carpet store,28.639657,77.242252,Raja Carpets,NaN%
JkWsA1i_9DDkRPutJt9ziAF4," 4846, 49/24, Ansari Rd, near Sanjeevan Hospital, Daryaganj, New Delhi, Delhi, 110002",Medical Book Store,28.6411974,77.24358,All India Book House- AIBH,NaN%
JHa7Mad_8DDkRzThINJhuliw," 68, Dr Subhash Bhargava Marg, Daryaganj, New Delhi, Delhi, 110002",Book store,28.6437892,77.2417188,BookVistas.com,NaN%
JCULA0ND8DDkRWidufUnYHK0," 12-H, New Daryaganj Road, opp. Officers' Mess, New Delhi, Delhi 110002",Children's Book Store,28.6352202,77.2468858,Little Scholarz Pvt. Ltd,NaN%
JBRU-HNn8DDkR6ZUS54jl56o," 4859, 24, Ansari Rd, Daryaganj, New Delhi, Delhi, 110002",Book publisher,28.6416739,77.2432523,Sultan Chand & Sons Pvt. Ltd.,NaN%
JPTD_4CD9DDkR3OIS99M5fN8," G-7, Vardhman City 2 Plaza, Asaf Ali Rd, Kalyanpura, Chandni Chowk, New Delhi, Delhi, 110002",Indian,28.6424975,77.2318719,Smile Darbar A Family Restaurant,NaN%
JFzkmDJ4CDTkRSsgpEawWkFo," Municipal Market, 131, Karol Bagh, New Delhi, Delhi 110005 Located in: Sai care salutions",Cell phone store,28.6501151,77.1908037,Vaishno Electronics Private Limited,NaN%
Jw0HPwdj8DDkRkiFxd4CQciQ," 74, Daryaganj, Delhi, 110002",Electronics store,28.6417592,77.2422415,"Elgin Electronics Private Limited | Authorised Distributor of Pioneer TOA , QSC JBL in Delhi",NaN%
