outlet_name,outletcode,location_hierarchy,sub_channel,coordinate,latitude,longitude,address
PARDHAN PET SHOP-Silver,PS012101,Metro > ASE-SPT-NCR-East > New Delhi > Delhi > North > New Delhi > North Metro SPT > India,Petshop,[object Object],28.68210218,77.2989655,"4649-1(A) , NEW MODERN SAHADRA , MANDOLI ROAD , OPP- BHAGAT JI SWEETS--32"
Mohan Store,DS001290,Metro > ASE-GT-NCR-South > New Delhi > Delhi > North > New Delhi > NCR-HAR > India,Super Grocery,[object Object],28.49883,77.2941126,C-221 Sharma Mkt T-Point Pul Prahlad Pur
Galaxy pharmacy,PH098089,Metro > ASE-GT-NCR-South > New Delhi > Delhi > North > New Delhi > NCR-HAR > India,Pharmacy,[object Object],28.4985184,77.1895353,"Shop no-3,kh.no-254, chhattarpur"
Kapoor drp Store,TG023020,Metro > ASE-GT-NCR-North > New Delhi > Delhi > North > New Delhi > NCR-HAR > India,Traditional Grocery,[object Object],28.6361966,77.089512,C-37gnesh Nagar
AURA DEPARTMENTAL STORE,DS001288,Metro > ASE-GT-NCR-South > New Delhi > Delhi > North > New Delhi > NCR-HAR > India,MG Supermarket,[object Object],28.5002101,77.2901373,A-4 PUL PRAHLADPUR SURAJ KUND ROAD New Delhi 110044
RAJESH MEDICOS,PH111115,Metro > ASE-GT-NCR-North > New Delhi > Delhi > North > New Delhi > NCR-HAR > India,Pharmacy,[object Object],28.6527737,77.095545,WZ-88/5A
Maruti medicos,PH120460,Metro > ASE-GT-NCR-North > New Delhi > Delhi > North > New Delhi > NCR-HAR > India,Pharmacy,[object Object],28.7291184,77.2046729,D-29 main road jharoda burari
ANMOL PHARMACY,PH090616,Metro > ASE-GT-NCR-North > New Delhi > Delhi > North > New Delhi > NCR-HAR > India,Pharmacy,[object Object],28.6495252,77.088104,WZ-31 A PLOT NO -131 STREET NO 27
Maxx Departmental Store,TG022648,Metro > ASE-GT-NCR-North > New Delhi > Delhi > North > New Delhi > NCR-HAR > India,Traditional Grocery,[object Object],28.6486196,77.1161227,C-724 Sudershan Park
Max Care Chemist(ROA),PH021294,Metro > ASE-GT-NCR-North > New Delhi > Delhi > North > New Delhi > NCR-HAR > India,Pharmacy,[object Object],28.6448455,77.2409327,"4933, Dayanand Road , Ansari Roaddaryaganj Near Golcha Cinema110002"
Gauri medicos,PH079030,Metro > ASE-GT-NCR-North > New Delhi > Delhi > North > New Delhi > NCR-HAR > India,Pharmacy,[object Object],28.6168638,77.0767725,"B-78, GF, 40 Feet road, chanakya"
Shri shyam Medicos,PH102393,Metro > ASE-GT-NCR-North > New Delhi > Delhi > North > New Delhi > NCR-HAR > India,Pharmacy,[object Object],28.5828116,77.0886025,Old Mehroli Road Palam colony
Al Shifa Medicos,WP002798,Metro > ASE-GT-NCR-East > New Delhi > Delhi > North > New Delhi > NCR-HAR > India,Wholesale Pharmacy,[object Object],28.6922842,77.2830603,"Gali No.1, Main Road Kabur Nagar"
Chirag Medicos,PH114221,Metro > ASE-GT-NCR-North > New Delhi > Delhi > North > New Delhi > NCR-HAR > India,Pharmacy,[object Object],28.5828083,77.0886017,Rzh-66 Raj Nagar Paat 2 palam
Subham Kiryana Store(Roshanpura Nagafgarh),DS009053,Metro > ASE-GT-NCR-North > New Delhi > Delhi > North > New Delhi > NCR-HAR > India,MG Supermarket,[object Object],28.6061597,76.9864239,RZ-49 B BLOCK OLD ROSHAN PURA MAIN GURGAON RONAJAFGARH NEW DELHI
Shree Radhey Krishna Medicare,PH111091,Metro > ASE-GT-NCR-North > New Delhi > Delhi > North > New Delhi > NCR-HAR > India,Pharmacy,[object Object],28.7404202,77.1960703,A2 Block 41Futa road West sant
Sachdeva Chemist,PH129737,Metro > ASE-GT-NCR-North > New Delhi > Delhi > North > New Delhi > NCR-HAR > India,Pharmacy,[object Object],28.6486749,77.1160367,"C-113-B, Moto Nagar"
Retevik pharmacy,PH122801,Metro > ASE-GT-NCR-North > New Delhi > Delhi > North > New Delhi > NCR-HAR > India,Pharmacy,[object Object],28.5829543,77.0887499,Palam colony near Jaat chappal
HARNAM STORE,TG023102,Metro > ASE-GT-NCR-North > New Delhi > Delhi > North > New Delhi > NCR-HAR > India,Traditional Grocery,[object Object],28.6468727,77.0915994,WZ-144 PLOT NO 62
All needs pharmacy,PH116902,Metro > ASE-GT-NCR-East > New Delhi > Delhi > North > New Delhi > NCR-HAR > India,Pharmacy,[object Object],28.6942187,77.2912683,"A-10,20 futa road Chand Bagh"
AGGARWAL SUPER STORE,DS021644,Metro > ASE-GT-NCR-North > New Delhi > Delhi > North > New Delhi > NCR-HAR > India,Super Grocery,[object Object],28.5952153,77.003349,"261, Gali No 22, main 25 feet Road"
Dada Dev Medicos,PH102394,Metro > ASE-GT-NCR-North > New Delhi > Delhi > North > New Delhi > NCR-HAR > India,Pharmacy,[object Object],28.5827688,77.0886185,"RZF-49,Gf,Raj Nagar Paat 2"
Naba Medicos,WP002565,Metro > ASE-GT-NCR-East > New Delhi > Delhi > North > New Delhi > NCR-HAR > India,Wholesale Pharmacy,[object Object],28.6956484,77.2717459,"D-10, Near Sattar Wali Gali,"
All 4 Pets -Silver,PS022261,Metro > ASE-SPT-NCR-North-West 1 > New Delhi > Delhi > North > New Delhi > North Metro SPT > India,Petshop,[object Object],28.5681564,77.245964,K 81 B Basment Near Shree Hari
Inaya medicos,WP002924,Metro > ASE-GT-NCR-East > New Delhi > Delhi > North > New Delhi > NCR-HAR > India,Wholesale Pharmacy,[object Object],28.7141155,77.2702453,33 futa road dayal Pur mustafabad
24 GHANTE BY CHAWLAS,MGS006420,Metro > ASE-GT-NCR-North > New Delhi > Delhi > North > New Delhi > NCR-HAR > India,MG Supermarket,[object Object],28.6644266,77.047031,A -61sham nagar Punjabi mkt road
Kumar Pet Clinic(ROA)-Silver,CL000431,Metro > ASE-SPT-NCR-East > New Delhi > Delhi > North > New Delhi > North Metro SPT > India,Clinic,[object Object],28.68210218,77.2989655,C-5/214 Yamuna Viharnear Rathwala Mandir Delhi- 110053
Khidmat pharmacy,PH101121,Metro > ASE-GT-NCR-East > New Delhi > Delhi > North > New Delhi > NCR-HAR > India,Pharmacy,[object Object],28.6942519,77.2913161,"A_26, gali no.2, bhagirathi vihar"
Goal Medicos,PH120989,Metro > ASE-GT-NCR-North > New Delhi > Delhi > North > New Delhi > NCR-HAR > India,Pharmacy,[object Object],28.62738743,77.05134209,"A 66, Block T, Om Vihar, Uttam"
Sunny Pharmacy,PH104154,Metro > ASE-GT-NCR-North > New Delhi > Delhi > North > New Delhi > NCR-HAR > India,Pharmacy,[object Object],28.7447913,77.1962492,Shop no 3 kh no 12/2 Village Kamal
NEETI STORE,TG023103,Metro > ASE-GT-NCR-North > New Delhi > Delhi > North > New Delhi > NCR-HAR > India,Traditional Grocery,[object Object],28.6485888,77.0872168,WZ-15 GURU NANAK NAGAR
Health Mart,TG023104,Metro > ASE-GT-NCR-North > New Delhi > Delhi > North > New Delhi > NCR-HAR > India,Traditional Grocery,[object Object],28.647005,77.0895008,WZ-958/959 GALI NO 11
POOJA CHEMIST,PH106782,Metro > ASE-GT-NCR-South > New Delhi > Delhi > North > New Delhi > NCR-HAR > India,Pharmacy,[object Object],28.4957296,77.1805136,Shuman chuk chattarpur
DELHI MEDICOS,PH131281,Metro > ASE-GT-NCR-North > New Delhi > Delhi > North > New Delhi > NCR-HAR > India,Pharmacy,[object Object],28.6491315,77.0872056,WZ-137A ground floor
Gupta medicos,PH109231,Metro > ASE-GT-NCR-North > New Delhi > Delhi > North > New Delhi > NCR-HAR > India,Pharmacy,[object Object],28.7397578,77.2063564,Gali no-60 Hanuman kunj sant
V.R. Pharmacy,PH042117,Metro > ASE-GT-NCR-South > New Delhi > Delhi > North > New Delhi > NCR-HAR > India,Pharmacy,[object Object],28.4985317,77.1884866,"A-280,Shop No.1, Maidan Garhi Road, Chattarpur Enclave Phase2, New Delhi-110074"
Shree shyam pharmacy,PH081577,Metro > ASE-GT-NCR-South > New Delhi > Delhi > North > New Delhi > NCR-HAR > India,Pharmacy,[object Object],28.4893305,77.1911431,Sh no 3 plot 11/12 kh no 119/122
Good will Medicos,PH114816,Metro > ASE-GT-NCR-North > New Delhi > Delhi > North > New Delhi > NCR-HAR > India,Pharmacy,[object Object],28.6422805,77.0919902,Shop no 76 81 tilak vihar
RAM JEE MEDICOS,PH111116,Metro > ASE-GT-NCR-North > New Delhi > Delhi > North > New Delhi > NCR-HAR > India,Pharmacy,[object Object],28.6526632,77.0955964,E-5 JJ COLONY
Varun Pet Shop(ROA)-Gold,PS007293,Metro > ASE-SPT-NCR-North-West 2 > New Delhi > Delhi > North > New Delhi > North Metro SPT > India,Petshop,[object Object],28.7477533,77.1984499,"KHASRA NO 856, NEAR NALANDA PUBLIC SCHOOL 100 FEET MAIN ROAD , VILLAGE BURARI"
SHYAM MEDICOS,PH115505,Metro > ASE-GT-NCR-North > New Delhi > Delhi > North > New Delhi > NCR-HAR > India,Pharmacy,[object Object],28.5910471,76.9971118,Shiv puri part 1 dinpur Najafgarh
Arihant medico,PH106518,Metro > ASE-GT-NCR-North > New Delhi > Delhi > North > New Delhi > NCR-HAR > India,Pharmacy,[object Object],28.6958377,77.0814278,"3450/0 narang colony, tri Nagar"
ANAND MEDICAL STORE,PH063239,Metro > ASE-GT-NCR-North > New Delhi > Delhi > North > New Delhi > NCR-HAR > India,Pharmacy,[object Object],28.6079467,76.9853061,"SHOP NO 3,5 SHANKAR MARKET PAPRAWAT MORE ROSHAN PURA"
Sethi medicos,PH106519,Metro > ASE-GT-NCR-North > New Delhi > Delhi > North > New Delhi > NCR-HAR > India,Pharmacy,[object Object],28.6499064,77.1365757,3/129 Ramesh Nagar
Kathuria Chemist,PH016300,Metro > ASE-GT-NCR-South > New Delhi > Delhi > North > New Delhi > NCR-HAR > India,Pharmacy,[object Object],28.5759005,77.2249714,744 Subhash Market Kotla mubarkpur
AATMA STORE,DS001256,Metro > ASE-GT-NCR-North > New Delhi > Delhi > North > New Delhi > NCR-HAR > India,MG Supermarket,[object Object],28.5897654,77.0045503,Najafgarh
Sai medicos,PH126267,Metro > ASE-GT-NCR-South > New Delhi > Delhi > North > New Delhi > NCR-HAR > India,Pharmacy,[object Object],28.4959957,77.1890486,"A-33, Main Road , Rajpur khurd"
Sea Water World(ROA)-Silver,PS000593,Metro > ASE-SPT-NCR-North-West 1 > New Delhi > Delhi > North > New Delhi > North Metro SPT > India,Petshop,[object Object],28.6247861,77.0655985,"Opp. Bus Terminal, Metro Pillar No. 645 East Metro Station, A-6, JJ Colony, Uttam Nagar, Delhi, 110059"
SHRI RAM STORE,TG007634,Metro > ASE-GT-NCR-South > New Delhi > Delhi > North > New Delhi > NCR-HAR > India,Traditional Grocery,[object Object],28.500255,77.2903602,A-13 SHARMA MKT Suraj kund Road Pul Prahladpur new delhi 110044
Swasthik medicos,PH085642,Metro > ASE-GT-NCR-North > New Delhi > Delhi > North > New Delhi > NCR-HAR > India,Pharmacy,[object Object],28.6415382,77.0921724,13/37B shop no -5 Mangal bazar road
Mittal Medicos,PH117208,Metro > ASE-GT-NCR-North > New Delhi > Delhi > North > New Delhi > NCR-HAR > India,Pharmacy,[object Object],28.7441154,77.2021596,B-201 25 Futta Road Sant Nagar
All india pharmacy,PH127860,Metro > ASE-GT-NCR-South > New Delhi > Delhi > North > New Delhi > NCR-HAR > India,Pharmacy,[object Object],28.4985546,77.1868099,Maindan garhi
SWASTIK,MGS01837,Metro > ASE-GT-NCR-North > New Delhi > Delhi > North > New Delhi > NCR-HAR > India,MG Supermarket,[object Object],28.6115633,77.0698236,"Shop No-4, Dewan Estate, Bhagvati Garden Dwarka More -59"
Amish medipoint ,PH131756,Metro > ASE-GT-NCR-South > New Delhi > Delhi > North > New Delhi > NCR-HAR,Pharmacy,[object Object],28.573115,77.2257983,"965/1, Gurudwara road, kotla Mubarakpur New Delhi "
Sahara Medicos,PH111092,Metro > ASE-GT-NCR-North > New Delhi > Delhi > North > New Delhi > NCR-HAR > India,Pharmacy,[object Object],28.7418005,77.1946049,Gali no 16 Chandan Vihar Sant Nagar
Dr Vikrant Jain(ROA)-Silver,CL000524,Metro > ASE-SPT-NCR-North-West 2 > New Delhi > Delhi > North > New Delhi > North Metro SPT > India,Clinic,[object Object],28.67097696,77.11039209,"SHOP NO.-8,A-4 DDA MARKET PACHIM VIHAR DELHI 63"
Talha Medicos,PH118746,Metro > ASE-GT-NCR-East > New Delhi > Delhi > North > New Delhi > NCR-HAR > India,Pharmacy,[object Object],28.6941752,77.2838094,"B-82, saini bazar road Kabir Nagar"
Go First healthcare,WP002573,Metro > ASE-GT-NCR-East > New Delhi > Delhi > North > New Delhi > NCR-HAR > India,Wholesale Pharmacy,[object Object],28.6942546,77.2913122,"Plot no 21, main road johari pur"
Mahavir medicos,PH111093,Metro > ASE-GT-NCR-North > New Delhi > Delhi > North > New Delhi > NCR-HAR > India,Pharmacy,[object Object],28.6383484,77.0863107,A-111 Ganesh Nagar
Mahindra Medicos(ROA),PH005080,Metro > ASE-GT-NCR-North > New Delhi > Delhi > North > New Delhi > NCR-HAR > India,Pharmacy,[object Object],28.6194681,77.055284,"Z-65A, DAYAL SAR ROAD,(CITY MARKET) UTTAM NAGAR, NEW DELHI-110059"
Aggarwal Medicos(ROA),PH004809,Metro > ASE-GT-NCR-North > New Delhi > Delhi > North > New Delhi > NCR-HAR > India,Pharmacy,[object Object],28.6773612,77.1653041,1877/90 Shop G-1 Talab Road- Tri Nagar-110035
PLUS MEDICOS,PH065373,Metro > ASE-GT-NCR-North > New Delhi > Delhi > North > New Delhi > NCR-HAR > India,Pharmacy,[object Object],28.6437692,77.2422808,"4902-88,GF,Shyam Lal Road, Ansari Road, Darya Ganj, New Delhi-110002"
New diamond medicos,PH102383,Metro > ASE-GT-NCR-East > New Delhi > Delhi > North > New Delhi > NCR-HAR > India,Pharmacy,[object Object],28.7049784,77.2645566,"A-12,20,futa road, Chand Bagh"
Sri Balaji Medicos,PH087562,Metro > ASE-GT-NCR-North > New Delhi > Delhi > North > New Delhi > NCR-HAR > India,Pharmacy,[object Object],28.7418084,77.1952958,Shop no 1 Gali no 5 Nehru Gali
KWIK GROCER,DS022637,Metro > ASE-GT-NCR-South > New Delhi > Delhi > North > New Delhi > NCR-HAR > India,Super Grocery,[object Object],28.46757,77.1867888,"Kh.No.183/3,Chandan Hulla New"
POLO PHARMACY,PH108452,Metro > ASE-GT-NCR-South > New Delhi > Delhi > North > New Delhi > NCR-HAR > India,Pharmacy,[object Object],28.4893464,77.1879582,Rajpur khurd chattarpur
SHRI RAM MEDICOS,PH056052,Metro > ASE-GT-NCR-North > New Delhi > Delhi > North > New Delhi > NCR-HAR > India,Pharmacy,[object Object],28.6488167,77.1160426,"8/163, SH NO-5 RAMESH NAGAR, ND-15"
Fish World(ROA)-Platinum,PS006068,Metro > ASE-SPT-NCR-North-West 1 > New Delhi > Delhi > North > New Delhi > North Metro SPT > India,Petshop,[object Object],28.6192517,77.0341298,42/43 Swak Park Metro Piller No.773 Dwarka Mor Uttam Nagar Delhi
Radhika medical store,PH054008,Metro > ASE-GT-NCR-South > New Delhi > Delhi > North > New Delhi > NCR-HAR > India,Pharmacy,[object Object],28.4989528,77.2922443,"H-228A, shop no-2, 60 fit road, prahladpur"
firands medicos,PH054217,Metro > ASE-GT-NCR-South > New Delhi > Delhi > North > New Delhi > NCR-HAR > India,Pharmacy,[object Object],28.5318714,77.3114013,Nafees road
ARUN MEDICOS <A0060>,DS014126,Metro > ASE-GT-NCR-North > New Delhi > Delhi > North > New Delhi > NCR-HAR > India,Pharmacy,[object Object],28.5826263,77.0887855,"B-4 DADA DEV MANDIR ROADPALAM VILLAGE NEW DELHI,25362126ORDER-25362126,9911994796"
Royal Chemist,PH106520,Metro > ASE-GT-NCR-North > New Delhi > Delhi > North > New Delhi > NCR-HAR > India,Pharmacy,[object Object],28.5827399,77.0885937,"Rz-239/D-208, Shop No -2,DDA,"
Jan Sewa Chemist,TG023109,Metro > ASE-GT-NCR-North > New Delhi > Delhi > North > New Delhi > NCR-HAR > India,Traditional Grocery,[object Object],28.6454621,77.0881954,"Shop no 1,k2 wz-24/2-c mukhram park "
sood sons Medicos,PH045666,Metro > ASE-GT-NCR-South > New Delhi > Delhi > North > New Delhi > NCR-HAR > India,Pharmacy,[object Object],28.5123837,77.2674197,"487, FF .JALAM MOHALLA.TUGHLAKABAD VILLAGE N.D.44"
CARE PLUS PHARMACY,PH110570,Metro > ASE-GT-NCR-North > New Delhi > Delhi > North > New Delhi > NCR-HAR > India,Pharmacy,[object Object],28.6427278,77.0984473,J-37 NEAR GANGA RAM MANDIR
Polo pharmacy,PH101847,Metro > ASE-GT-NCR-South > New Delhi > Delhi > North > New Delhi > NCR-HAR > India,Pharmacy,[object Object],28.4893514,77.1878623,"Rajpur Extension, hargovind enclave"
B.k pharmacy,PH108144,Metro > ASE-GT-NCR-North > New Delhi > Delhi > North > New Delhi > NCR-HAR > India,Pharmacy,[object Object],28.6378489,77.0887225,Tilak Nagar
Health Care Pharmacy,PH041796,Metro > ASE-GT-NCR-South > New Delhi > Delhi > North > New Delhi > NCR-HAR > India,Pharmacy,[object Object],28.4817068,77.1873061,"Main Road Satbari, Opp. Tempo Stand, New Delhi-110074"
A.P. Store,TG022959,Metro > ASE-GT-NCR-North > New Delhi > Delhi > North > New Delhi > NCR-HAR > India,Traditional Grocery,[object Object],28.7396151,77.1998249,Kh no 136/19 Shop no 1 A-1 Block Sant
Green Veterinary Clinic(ROA)-Silver,CL000828,Metro > ASE-SPT-NCR-East > New Delhi > Delhi > North > New Delhi > North Metro SPT > India,Clinic,[object Object],28.68210218,77.2989655,1Rps Dda Flats Mansorvar Park Shahdara  Delhi
Shree Sai Pharmacy,PH114817,Metro > ASE-GT-NCR-North > New Delhi > Delhi > North > New Delhi > NCR-HAR > India,Pharmacy,[object Object],28.5829063,77.0886329,"RZF-763/38,Shop No,1,Raj Nagar part"
Sachveer Medical corner,PH090618,Metro > ASE-GT-NCR-North > New Delhi > Delhi > North > New Delhi > NCR-HAR > India,Pharmacy,[object Object],28.638015,77.0866975,S-1/179 old mahaveer nagar
Anjani Medicos,PH117209,Metro > ASE-GT-NCR-North > New Delhi > Delhi > North > New Delhi > NCR-HAR > India,Pharmacy,[object Object],28.7441486,77.2021882,H.no 4089/2 Shop no 1 25 futa road
Chemist Shop,PH087008,Metro > ASE-GT-NCR-North > New Delhi > Delhi > North > New Delhi > NCR-HAR > India,Pharmacy,[object Object],28.7487558,77.1962757,"Shop no 4 , gali no 17 B-block tomar"
Arora Sales Corporation,DS017752,Metro > ASE-GT-NCR-North > New Delhi > Delhi > North > New Delhi > NCR-HAR > India,Super Grocery,[object Object],28.6115642,77.0698232,"K-189, Kakrola Village"
New nitin medicos,PH111132,Metro > ASE-GT-NCR-North > New Delhi > Delhi > North > New Delhi > NCR-HAR > India,Pharmacy,[object Object],28.61895333,77.05245635,u- 95 solanki road Uttam nagar
Skytech Medicos Pvt.Ltd(ROA),WP000033,Metro > ASE-GT-NCR-North > New Delhi > Delhi > North > New Delhi > NCR-HAR > India,Wholesale Pharmacy,[object Object],28.6583524,77.2343777,7 1721-1722 Mangal Building No-2 1St Floor Bhagirath Place
PAWDLES PET SHOP-Silver,PS015467,Metro > ASE-SPT-NCR-East > New Delhi > Delhi > North > New Delhi > North Metro SPT > India,Petshop,[object Object],28.68210218,77.2989655,Thane wali gali no 5 (near Hanuman mandir) east azad Nagar Delhi 110051
Shri shyam Medicos,PH102396,Metro > ASE-GT-NCR-North > New Delhi > Delhi > North > New Delhi > NCR-HAR > India,Pharmacy,[object Object],28.5828185,77.088642,Old Mehroli Road Palam colony
PharmEASY medical Store,PH120991,Metro > ASE-GT-NCR-North > New Delhi > Delhi > North > New Delhi > NCR-HAR > India,Pharmacy,[object Object],28.61472855,77.07663451,"C-1/29 & C-1/29/2 Gali No 6, near"
Tarun Sharma,PH108145,Metro > ASE-GT-NCR-North > New Delhi > Delhi > North > New Delhi > NCR-HAR > India,Pharmacy,[object Object],28.6959166,77.0813757,352/15 Tri nagar near chopra dhaba
AZMI MEDICOS,PH111117,Metro > ASE-GT-NCR-North > New Delhi > Delhi > North > New Delhi > NCR-HAR > India,Pharmacy,[object Object],28.6527594,77.0955677,"SHOP NO 4,6 GROUND FLOOR"
S.K SUPER MARCHE,DS022979,Metro > ASE-GT-NCR-North > New Delhi > Delhi > North > New Delhi > NCR-HAR > India,Super Grocery,[object Object],28.65023,77.113,D531 TAGORE GARDEN
New Geeta medical Store,PH111095,Metro > ASE-GT-NCR-North > New Delhi > Delhi > North > New Delhi > NCR-HAR > India,Pharmacy,[object Object],28.6385009,77.0860758,Shop no 3 old mahavir nagar
Krishna Gen Store(ROA),DS008826,Metro > ASE-GT-NCR-North > New Delhi > Delhi > North > New Delhi > NCR-HAR > India,MG Hypermarket,[object Object],28.6109907,77.0232576,"A-10, Tara Nagar, Pipal Chowl, Kukreja"
Shiksha MEDICOS,PH093491,Metro > ASE-GT-NCR-South > New Delhi > Delhi > North > New Delhi > NCR-HAR > India,Pharmacy,[object Object],28.4937933,77.1825625,No.a.4 khasra no 822 chattarpur
My medicos,PH122803,Metro > ASE-GT-NCR-North > New Delhi > Delhi > North > New Delhi > NCR-HAR > India,Pharmacy,[object Object],28.5827519,77.0885528,Palam colony Jaat chappal
R.S Medicos,PH102397,Metro > ASE-GT-NCR-North > New Delhi > Delhi > North > New Delhi > NCR-HAR > India,Pharmacy,[object Object],28.5827384,77.0888165,"Shop No,1,Gf,RZ-225,Old Mehroli"
Bhagwati Medicos,PH127865,Metro > ASE-GT-NCR-South > New Delhi > Delhi > North > New Delhi > NCR-HAR > India,Pharmacy,[object Object],28.502315,77.1871867,"Shop no -2,GF. Chhatarpur enclave"
Radhey Radhey Medicos,PH110571,Metro > ASE-GT-NCR-North > New Delhi > Delhi > North > New Delhi > NCR-HAR > India,Pharmacy,[object Object],28.6486968,77.1160361,Shop no 2 B block Ramesh Nagar
Neeraj Medicos(ROA),PH005076,Metro > ASE-GT-NCR-North > New Delhi > Delhi > North > New Delhi > NCR-HAR > India,Pharmacy,[object Object],28.6145874,77.0591521,"B1-SANJAY ENCLAVE,UTTAM NAGAR,NEW DELHI-59"
BHARAT MEDICAL STORE,PH051305,Metro > ASE-GT-NCR-North > New Delhi > Delhi > North > New Delhi > NCR-HAR > India,Pharmacy,[object Object],28.7467124,77.1968457,Main Road Burari Delhi 110084
OM TRADING COMPANY,TG014435,Metro > ASE-GT-NCR-North > New Delhi > Delhi > North > New Delhi > NCR-HAR > India,Traditional Grocery,[object Object],28.6513867,77.110675,"D-210, TAGORE GARDEN EXTN., ND-27"
Silver Lining Pharmacy,PH085047,Metro > ASE-GT-NCR-North > New Delhi > Delhi > North > New Delhi > NCR-HAR > India,Pharmacy,[object Object],28.7486052,77.1982375,Shop no 2 G.F Kh.no 850
Suraj medical,PH127951,Metro > ASE-GT-NCR-North > New Delhi > Delhi > North > New Delhi > NCR-HAR > India,Pharmacy,[object Object],28.6958482,77.0814296,Shop no 14 csc 13 block-d3 rohini 16
Aradya Medicos,PH101686,Metro > ASE-GT-NCR-North > New Delhi > Delhi > North > New Delhi > NCR-HAR > India,Pharmacy,[object Object],28.7385934,77.1938599,Shop no 3 Kh no 21/3 budh bazar
SHAKYA PHARMACY,PH064303,Metro > ASE-GT-NCR-North > New Delhi > Delhi > North > New Delhi > NCR-HAR > India,Pharmacy,[object Object],28.6495253,77.1350463,2B-79 SHOP NO 1 RAMESH NAGAR NEW  DELHI 110015
Ashirwad Medipoint,PH059503,Metro > ASE-GT-NCR-North > New Delhi > Delhi > North > New Delhi > NCR-HAR > India,Pharmacy,[object Object],28.7467619,77.1936608,"A, Block, Gali no. 10, kamal pur Sant Nagar Burari Delhi 110084"
BOBBY PHARMACY,PH052864,Metro > ASE-GT-NCR-North > New Delhi > Delhi > North > New Delhi > NCR-HAR > India,Pharmacy,[object Object],28.6469657,77.0884383,"WZ- 70, OLD SAHIBPURA MBS NAGAR NEW DELHI 110018"
MAHADEV MEDICOS,PH111570,Metro > ASE-GT-NCR-North > New Delhi > Delhi > North > New Delhi > NCR-HAR > India,Pharmacy,[object Object],28.6481108,77.087222,WZ-71/A  SANT GARH
Rathi pharmacy,PH120268,Metro > ASE-GT-NCR-South > New Delhi > Delhi > North > New Delhi > NCR-HAR > India,Pharmacy,[object Object],28.4931884,77.1902377,"H.no-38, G.f Rajpur khurd"
New Gorakhnath chemist,PH102586,Metro > ASE-GT-NCR-South > New Delhi > Delhi > North > New Delhi > NCR-HAR > India,Pharmacy,[object Object],28.4894453,77.1920753,"Shop No-1, house no-36, Rajpur"
Asia Pet Shop(ROA)-Gold,PS004322,Metro > ASE-SPT-NCR-North-West 1 > New Delhi > Delhi > North > New Delhi > North Metro SPT > India,Petshop,[object Object],28.6203647,77.0459474,"W2/79, Opposite Pillar Number 758, Gulab Bagh, Uttam Nagar"
Zubair medicos,PH103620,Metro > ASE-GT-NCR-East > New Delhi > Delhi > North > New Delhi > NCR-HAR > India,Pharmacy,[object Object],28.7086363,77.2672133,"25 futa road, Gali no.5, nehru vihar"
Tilak medical Store,PH102797,Metro > ASE-GT-NCR-North > New Delhi > Delhi > North > New Delhi > NCR-HAR > India,Pharmacy,[object Object],28.6383509,77.0967747,Tilak Nagar
Onesto Novelties,DS018920,Metro > ASE-GT-NCR-South > New Delhi > Delhi > North > New Delhi > NCR-HAR > India,Super Grocery,[object Object],28.5318321,77.3114156,"11A Near Galaxy Gym Batla House, Jamia Nagar New Delhi 110025"
Raju chemist,PH085643,Metro > ASE-GT-NCR-North > New Delhi > Delhi > North > New Delhi > NCR-HAR > India,Pharmacy,[object Object],28.6430053,77.0918748,WZ-90 HARIJAN COLONY
Full Basket Supermarket,MGH00128,Metro > ASE-GT-NCR-North > New Delhi > Delhi > North > New Delhi > NCR-HAR > India,MG Hypermarket,[object Object],28.6362843,77.0907229,"A - 110,GANESH NAGAR,  TILAK NAGAR,  NEW DELHI  110018"
CENTER PHARMACY,PH066713,Metro > ASE-GT-NCR-North > New Delhi > Delhi > North > New Delhi > NCR-HAR > India,Pharmacy,[object Object],28.6494923,77.1331899,"shop No 1-3 ground floor ,ramesh nagar"
Sana Medicos,PH127779,Metro > ASE-GT-NCR-East > New Delhi > Delhi > North > New Delhi > NCR-HAR > India,Pharmacy,[object Object],28.6942133,77.2838395,"B-252, Gali No. -5 Kabir Nagar Delhi"
Maayra chemist,PH104079,Metro > ASE-GT-NCR-South > New Delhi > Delhi > North > New Delhi > NCR-HAR > India,Pharmacy,[object Object],28.4981671,77.1819916,"Shop no-1,kh.no-55/2,"
WAHEGURU MEDICOS,PH059471,Metro > ASE-GT-NCR-North > New Delhi > Delhi > North > New Delhi > NCR-HAR > India,Pharmacy,[object Object],28.6498213,77.1323515,22 OLD MARKET RAMESH NAGAR
THE ANIMAL S FRIEND-Silver,CL002716,Metro > ASE-SPT-NCR-North-West 2 > New Delhi > Delhi > North > New Delhi > North Metro SPT > India,Clinic,[object Object],28.6974979,77.1955752,BHAMA SHAH ROAD DELHI-110009
Saini medicos,PH103359,Metro > ASE-GT-NCR-South > New Delhi > Delhi > North > New Delhi > NCR-HAR > India,Pharmacy,[object Object],28.4985869,77.1920827,"271,Maidan garhi road"
Pooja MEDICOS,PH108147,Metro > ASE-GT-NCR-North > New Delhi > Delhi > North > New Delhi > NCR-HAR > India,Pharmacy,[object Object],28.619488,77.0542706,Z-74 GROUND FLOOR DAYAL SAR
Urban Tails(ROA)-Silver,PS007239,Metro > ASE-SPT-NCR-North-West 2 > New Delhi > Delhi > North > New Delhi > North Metro SPT > India,Petshop,[object Object],28.6693973,77.10524164,"Gh2/44A, Ankur Apartment, Paschim Vihar, New Delhi"
Gaurav Medicos,PH059552,Metro > ASE-GT-NCR-North > New Delhi > Delhi > North > New Delhi > NCR-HAR > India,Pharmacy,[object Object],28.5827869,77.0886013,"Wz-744,Bata Chowk, Palam New Delhi"
KAMAL MEDICOS,PH053669,Metro > ASE-GT-NCR-North > New Delhi > Delhi > North > New Delhi > NCR-HAR > India,Pharmacy,[object Object],28.7457733,77.2018563,"B-64, PARVATIYA ANCHAL, GALI NO-3,SANT NAGAR, BURARI"
KRISHIKA PHARMACEUTICALS,WP000931,Metro > ASE-GT-NCR-North > New Delhi > Delhi > North > New Delhi > NCR-HAR > India,Wholesale Pharmacy,[object Object],28.6587205,77.2367432,"Shop No-113-1702-3,Bhagirath Palace, Chandni Chowk, Delhi-110006"
Kumaun pharmacy,PH095564,Metro > ASE-GT-NCR-North > New Delhi > Delhi > North > New Delhi > NCR-HAR > India,Pharmacy,[object Object],28.7469406,77.1911453,Shop no -1 Gali no 16 Kamal vihar
Siksha Medicose & Departmental Store,DS012055,Metro > ASE-GT-NCR-South > New Delhi > Delhi > North > New Delhi > NCR-HAR > India,MG Supermarket,[object Object],28.4937829,77.1825977,Chhatarpur Extention
AURA DEPARTMENTAL,MGS004974,Metro > ASE-GT-NCR-South > New Delhi > Delhi > North > New Delhi > NCR-HAR > India,MG Supermarket,[object Object],28.5002668,77.2901358,"A-4, PUL PRAHLADPUR"
GALAXY PHARMACY,PH103334,Metro > ASE-GT-NCR-South > New Delhi > Delhi > North > New Delhi > NCR-HAR > India,Pharmacy,[object Object],28.4985875,77.1895764,"Shop No-3,Kh No -254, Chattarpur"
Amit chemist+,PH106784,Metro > ASE-GT-NCR-South > New Delhi > Delhi > North > New Delhi > NCR-HAR > India,Pharmacy,[object Object],28.5758299,77.2252549,"365/2, Subhash market kotla"
Rishab store,TG022012,Metro > ASE-GT-NCR-North > New Delhi > Delhi > North > New Delhi > NCR-HAR > India,Traditional Grocery,[object Object],28.6389322,77.0889865,Tilak nagar
Mahadev pharmacy,PH117210,Metro > ASE-GT-NCR-North > New Delhi > Delhi > North > New Delhi > NCR-HAR > India,Pharmacy,[object Object],28.628493,77.05664575,Rz-66 shop no -3 extension 2
JOMS CARE CENTRE,PH115506,Metro > ASE-GT-NCR-North > New Delhi > Delhi > North > New Delhi > NCR-HAR > India,Pharmacy,[object Object],28.5927449,77.0030799,D 38 SHYAM VIHAR FHASE 1 25GEETA
Jeewan pharmacy,PH077814,Metro > ASE-GT-NCR-North > New Delhi > Delhi > North > New Delhi > NCR-HAR > India,Pharmacy,[object Object],28.6182152,77.0724398,"C-46, G.F., jeewan park, pankha road,"
MOHIT MEDICAL STORE,PH115507,Metro > ASE-GT-NCR-North > New Delhi > Delhi > North > New Delhi > NCR-HAR > India,Pharmacy,[object Object],28.596545,77.0033464,Shop No 1 plot No 652 E - 25 feet
Garg medical,PH109484,Metro > ASE-GT-NCR-North > New Delhi > Delhi > North > New Delhi > NCR-HAR > India,Pharmacy,[object Object],28.6958337,77.0814192,"2558, jain sathanak road , tri Nagar"
Fiona pet products-Silver,PS018055,Metro > ASE-SPT-NCR-North-West 1 > New Delhi > Delhi > North > South Delhi > North Metro SPT > India,Petshop,[object Object],28.6241824,77.0375098,I-29/A ugf. Mohan garden uttam
Mittal Store,MGS005874,Metro > ASE-GT-NCR-North > New Delhi > Delhi > North > New Delhi > NCR-HAR > India,MG Supermarket,[object Object],28.741157,77.2026201,"B-230 , 25 futta road Sant Nagar"
J.p medical,PH109485,Metro > ASE-GT-NCR-North > New Delhi > Delhi > North > New Delhi > NCR-HAR > India,Pharmacy,[object Object],28.6958629,77.0814115,Shop no 2590/241 tri Nagar delhi
Bajaj Medical Store,PH052575,Metro > ASE-GT-NCR-North > New Delhi > Delhi > North > New Delhi > NCR-HAR > India,Pharmacy,[object Object],28.6958455,77.0814413,"1847-90.Shanti Nagar, Talab Road, Tri Nagar Delhi-110035"
SACHDEVA MEDICOS,PH090623,Metro > ASE-GT-NCR-North > New Delhi > Delhi > North > New Delhi > NCR-HAR > India,Pharmacy,[object Object],28.6481288,77.0871992,WZ-134/1 SANTGARH TYAGI
Naaz medicos,PH101123,Metro > ASE-GT-NCR-East > New Delhi > Delhi > North > New Delhi > NCR-HAR > India,Pharmacy,[object Object],28.6942484,77.2913179,"A-225,33 futa road, Mustafa road"
YOURS SUPERMART,MGS01274,Metro > ASE-GT-NCR-North > New Delhi > Delhi > North > New Delhi > NCR-HAR > India,MG Supermarket,[object Object],28.6448801,77.135173,F-21 GROUND FLOOR MANSAROVAR GARDEN
New Crown Medicos,PH092218,Metro > ASE-GT-NCR-East > New Delhi > Delhi > North > New Delhi > NCR-HAR > India,Pharmacy,[object Object],28.6956419,77.2717657,New Crown Medicos
Shree Madhav Murari Medicos,PH084828,Metro > ASE-GT-NCR-North > New Delhi > Delhi > North > New Delhi > NCR-HAR > India,Pharmacy,[object Object],28.7418167,77.1936979,Nehru Gali no 13 0
Kumar Medico(ROA),PH005066,Metro > ASE-GT-NCR-North > New Delhi > Delhi > North > New Delhi > NCR-HAR > India,Pharmacy,[object Object],28.6223587,77.0676144,"SHOP NO-4 E,-6,RAMDATT ENCLAVEUTTAM NAGAR NEW DELHI-110059"
Goel Medicos(ROA),PH004811,Metro > ASE-GT-NCR-North > New Delhi > Delhi > North > New Delhi > NCR-HAR > India,Pharmacy,[object Object],28.6958505,77.0814389,"Local Shopping Complex, D-1 , Vivekanand Puri Sarai Rohilla North Delhi110007"
BIB PETS INDIA PVT LTD-Silver,PS018807,Metro > ASE-SPT-NCR-North-West 1 > New Delhi > Delhi > North > South Delhi > North Metro SPT > India,Petshop,[object Object],28.6145357,77.0566697,Rz-73 -T EXTN viswas park
AGGARWAL PHARMACY,PH103335,Metro > ASE-GT-NCR-South > New Delhi > Delhi > North > New Delhi > NCR-HAR > India,Pharmacy,[object Object],28.4824162,77.1882182,"Shop no-2,M.R., Aggarwal Complex,"
Crown medicos,WP002616,Metro > ASE-GT-NCR-East > New Delhi > Delhi > North > New Delhi > NCR-HAR > India,Wholesale Pharmacy,[object Object],28.6947321,77.2913355,"B-7,main road Gokul Puri"
HONEY MONEY TOP,DS005007,Metro > ASE-GT-NCR-South > New Delhi > Delhi > North > New Delhi > NCR-HAR > India,MG Supermarket,[object Object],28.4875472,77.1867673,"THE GALARRIE ON MG,METRO PILLOR NO-54,NEAR BARISTA,SULTANPUR"
Kunj Pharma Pvt .Ltd(ROA),WP000640,Metro > ASE-GT-NCR-North > New Delhi > Delhi > North > New Delhi > NCR-HAR > India,Wholesale Pharmacy,[object Object],28.6581307,77.2339913,1/1501 2Nd Floor Ram Gali Bhagirath Palace
Kapil Pharma(ROA),WP000031,Metro > ASE-GT-NCR-North > New Delhi > Delhi > North > New Delhi > NCR-HAR > India,Wholesale Pharmacy,[object Object],28.6577331,77.2343807,"1526,109, Shri Nath Ji Medicine Marketbhagirath Palace Chandani Chowk"
Shradha Medicos,PH111118,Metro > ASE-GT-NCR-North > New Delhi > Delhi > North > New Delhi > NCR-HAR > India,Pharmacy,[object Object],28.7411456,77.2027646,25 futa road Shiv Mandir chowk B
Vatika pharmacy,PH095256,Metro > ASE-GT-NCR-South > New Delhi > Delhi > North > New Delhi > NCR-HAR > India,Pharmacy,[object Object],28.4990106,77.2921084,Hr-62/f road pul pharladpur
Kaveri Medicos,PH130823,Metro > ASE-GT-NCR-North > New Delhi > Delhi > North > New Delhi > NCR-HAR > India,Pharmacy,[object Object],28.6485867,77.1161141,Shop No 17 DDA market
Health Care Medicos(ROA),PH004815,Metro > ASE-GT-NCR-North > New Delhi > Delhi > North > New Delhi > NCR-HAR > India,Pharmacy,[object Object],28.6958166,77.0814009,"Shop No 30,C-7, Central Market, Lawrence Roadkeshav Puram110035"
Vidhata medicos,PH122807,Metro > ASE-GT-NCR-North > New Delhi > Delhi > North > New Delhi > NCR-HAR > India,Pharmacy,[object Object],28.7306447,77.2107469,Shop no-1 sangam vihar jharoda police
Anugrah Medicos,PH104218,Metro > ASE-GT-NCR-North > New Delhi > Delhi > North > New Delhi > NCR-HAR > India,Pharmacy,[object Object],28.7516549,77.1971757,Shop no 1 h no 474 gali no 16 kh no
Janta Medical,PH059324,Metro > ASE-GT-NCR-North > New Delhi > Delhi > North > New Delhi > NCR-HAR > India,Pharmacy,[object Object],28.7417926,77.1923443,"Shop No. 3 , kh.no -14-21 Chanda Vihar West Sant Nagar Delhi-110084"
Madan Medicos,PH120462,Metro > ASE-GT-NCR-North > New Delhi > Delhi > North > New Delhi > NCR-HAR > India,Pharmacy,[object Object],28.648595,77.13387,"Shop No.15 DDA Market, Ramesh"
SHRADDHA MEDICOS,PH032167,Metro > ASE-GT-NCR-South > New Delhi > Delhi > North > New Delhi > NCR-HAR > India,Pharmacy,[object Object],28.4984887,77.1849194,"S.NO3.40/41,CHATTARPUR MAIN ROAD"
Baba Medicos,PH041305,Metro > ASE-GT-NCR-North > New Delhi > Delhi > North > New Delhi > NCR-HAR > India,Pharmacy,[object Object],28.695822,77.08142,"E-2-50, Shastri Nagar Near Metro Station, Delhi-110052"
Doodle Over Poodle(ROA)-Silver,PS007238,Metro > ASE-SPT-NCR-North-West 2 > New Delhi > Delhi > North > New Delhi > North Metro SPT > India,Petshop,[object Object],28.66694107,77.12020896,"43, Club Road, West Punjabi Bagh, New Delhi"
Shikha medical & cosmetic,PH127870,Metro > ASE-GT-NCR-South > New Delhi > Delhi > North > New Delhi > NCR-HAR > India,Pharmacy,[object Object],28.4937469,77.1828143,Shumon chuka
Chawla Medicos(ROA),WP000034,Metro > ASE-GT-NCR-North > New Delhi > Delhi > North > New Delhi > NCR-HAR > India,Wholesale Pharmacy,[object Object],28.6572379,77.2351023,2/8-2/9 Dewan Hall Bhagirath Palace Chandani Chowk
Prince Dairy(ROA),DS008075,Metro > ASE-GT-NCR-North > New Delhi > Delhi > North > New Delhi > NCR-HAR > India,Wholesale Pharmacy,[object Object],28.6150171,77.0249342,KAKROLANEW DELHI
Nitin Medi Point,PH058048,Metro > ASE-GT-NCR-South > New Delhi > Delhi > North > New Delhi > NCR-HAR > India,Pharmacy,[object Object],28.4928274,77.1804532,"ShopNo.6, C-5,JVTS Garden, Chattar pur Extn., New Delhi-110074"
Malik Medicos,PH106523,Metro > ASE-GT-NCR-North > New Delhi > Delhi > North > New Delhi > NCR-HAR > India,Pharmacy,[object Object],28.5827456,77.0886331,"Rzf-754/20,Raj Nagar Paat 2 palam"
Jatin pharmacy,PH095563,Metro > ASE-GT-NCR-North > New Delhi > Delhi > North > New Delhi > NCR-HAR > India,Pharmacy,[object Object],28.7417919,77.193819,Shop no 3 ground floor Harit vihar
VIKAS MEDICOS,PH126571,Metro > ASE-GT-NCR-North > New Delhi > Delhi > North > New Delhi > NCR-HAR > India,Pharmacy,[object Object],28.6420235,77.0993251,WZ-34 SHOP NO 1 MUKHERJEE PARK
Goyal medicos,PH099059,Metro > ASE-GT-NCR-North > New Delhi > Delhi > North > New Delhi > NCR-HAR > India,Pharmacy,[object Object],28.6115665,77.0698191,D-10 Patel garden dwarka more
Om medicos,PH100210,Metro > ASE-GT-NCR-North > New Delhi > Delhi > North > New Delhi > NCR-HAR > India,Pharmacy,[object Object],28.6115645,77.0698139,Plot no 89 Sunday market vipin
The Budget Mart (Raja puri),PM001398,Metro > ASE-GT-NCR-North > New Delhi > Delhi > North > New Delhi > NCR-HAR > India,Modern Pharmacy,[object Object],28.608411,77.0566896,"Ground floor ,p No.G-16A Som bazar"
Khalsa pharmacy,PH090624,Metro > ASE-GT-NCR-North > New Delhi > Delhi > North > New Delhi > NCR-HAR > India,Pharmacy,[object Object],28.6387192,77.0819709,K-147 Krishna park Vikaspuri TILAK
Patiala Medical Agencies(ROA),WP000032,Metro > ASE-GT-NCR-North > New Delhi > Delhi > North > New Delhi > NCR-HAR > India,Wholesale Pharmacy,[object Object],28.67743088,77.15617105,1702/3 Shop No. 104 Ist Floor
Dilly pharmacy,PH113138,Metro > ASE-GT-NCR-East > New Delhi > Delhi > North > New Delhi > NCR-HAR > India,Pharmacy,[object Object],28.704976,77.2645168,B-1chand Bagh main karawal road
Om Anjani Medicos,PH080618,Metro > ASE-GT-NCR-North > New Delhi > Delhi > North > New Delhi > NCR-HAR > India,Pharmacy,[object Object],28.5827936,77.08859,New Delhi
M.S. Medicos,PH109393,Metro > ASE-GT-NCR-North > New Delhi > Delhi > North > New Delhi > NCR-HAR > India,Pharmacy,[object Object],28.6486761,77.1160034,"A-41, Sudershan Park"
Aman medicos,PH116866,Metro > ASE-GT-NCR-East > New Delhi > Delhi > North > New Delhi > NCR-HAR > India,Pharmacy,[object Object],28.7134488,77.2739422,Aman chowk old mustafabad
Bhalla medical Store,PH109394,Metro > ASE-GT-NCR-North > New Delhi > Delhi > North > New Delhi > NCR-HAR > India,Pharmacy,[object Object],28.635323,77.084457,Tilak Nagar
Noori medical store,PH101124,Metro > ASE-GT-NCR-East > New Delhi > Delhi > North > New Delhi > NCR-HAR > India,Pharmacy,[object Object],28.7087951,77.2738086,"H no .375, gali no.20, bhagirathi vihar"
Kumar Medicos,PH111097,Metro > ASE-GT-NCR-North > New Delhi > Delhi > North > New Delhi > NCR-HAR > India,Pharmacy,[object Object],28.7406851,77.1960446,Main 41 futa road West Sant Nagar
Malik medicos,PH095214,Metro > ASE-GT-NCR-South > New Delhi > Delhi > North > New Delhi > NCR-HAR > India,Pharmacy,[object Object],28.4989883,77.1867599,"Shop no-2,A-346 chhattarpur"
Sai Pet Home-Silver,PS011752,Metro > ASE-SPT-NCR-North-West 2 > New Delhi > Delhi > North > New Delhi > North Metro SPT > India,Petshop,[object Object],28.74495446,77.19816297,"Plot No.13, Parvati Anchal Near Labour Chowk Burari Delhi 110084"
Pooja medicos,PH102400,Metro > ASE-GT-NCR-North > New Delhi > Delhi > North > New Delhi > NCR-HAR > India,Pharmacy,[object Object],28.61769619,77.05426215,RZ-C-60 VISHWAS PARK Uttam Nagar
Maayra medicos,PH109609,Metro > ASE-GT-NCR-South > New Delhi > Delhi > North > New Delhi > NCR-HAR > India,Pharmacy,[object Object],28.4981365,77.1820206,Shop no 3 no 567 mata  chowk
Super grocery,DS022324,Metro > ASE-GT-NCR-South > New Delhi > Delhi > North > New Delhi > NCR-HAR > India,Super Grocery,[object Object],28.4924042,77.1804689,150 shop no 1 g/f jvts garden
Brosis Pharma,PH064900,Metro > ASE-GT-NCR-North > New Delhi > Delhi > North > New Delhi > NCR-HAR > India,Pharmacy,[object Object],28.7467483,77.1919732,"Shop.No 1,2 Gali No Kamal Vihar Kamal pur Burari Delhi -110084"
Om medicos,PH105933,Metro > ASE-GT-NCR-North > New Delhi > Delhi > North > New Delhi > NCR-HAR > India,Pharmacy,[object Object],28.7419735,77.198206,Shop no-6 mainarket sant
DAILY NEED,DS005006,Metro > ASE-GT-NCR-South > New Delhi > Delhi > North > New Delhi > NCR-HAR > India,MG Supermarket,[object Object],28.4548223,77.1837661,"HNO2,ASOLA EXT. MAIN ROAD,FATEH PUR BERI"
Delhi medicos,PH120433,Metro > ASE-GT-NCR-East > New Delhi > Delhi > North > New Delhi > NCR-HAR > India,Pharmacy,[object Object],28.6942444,77.2913412,"H.no.3, Gali no.1, Kabir Nagar"
Aditya Medicos,PH105934,Metro > ASE-GT-NCR-North > New Delhi > Delhi > North > New Delhi > NCR-HAR > India,Pharmacy,[object Object],28.7481355,77.1998415,Shop no 1 Philips Road Sant Nagar
ARORA Medical Hall,PH085315,Metro > ASE-GT-NCR-North > New Delhi > Delhi > North > New Delhi > NCR-HAR > India,Pharmacy,[object Object],28.6378382,77.0813881,K-134 Krishna park Extn
HI-MED PHARMACY,PH103128,Metro > ASE-GT-NCR-South > New Delhi > Delhi > North > New Delhi > NCR-HAR > India,Pharmacy,[object Object],28.4929342,77.1804329,Khirki extan
JAN SEWA CHEMIST,PH109395,Metro > ASE-GT-NCR-North > New Delhi > Delhi > North > New Delhi > NCR-HAR > India,Pharmacy,[object Object],28.6469621,77.0890744,PLOT JO D-11
K R PHARMACY,PH021786,Metro > ASE-GT-NCR-South > New Delhi > Delhi > North > New Delhi > NCR-HAR > India,Pharmacy,[object Object],28.4985311,77.1882992,"A-280, SNO-6,CHATTARPUR ENCLAVE, MAIDAN GARHI ROAD"
The World Of Pets(ROA)-Platinum,PS004317,Metro > ASE-SPT-NCR-North-West 2 > New Delhi > Delhi > North > New Delhi > North Metro SPT > India,Petshop,[object Object],28.67433972,77.1036506,"A 5/13, Paschim Vihar, New Delhi"
KIRPAL MEDIWAYS,PH056041,Metro > ASE-GT-NCR-North > New Delhi > Delhi > North > New Delhi > NCR-HAR > India,Pharmacy,[object Object],28.6498437,77.1346982,"57A SHOP NO-2 GROUND FLOOR SINGLE STOREY RAMESH NAGAR, NEW DELHI-110015"
c.s medicos,PH054207,Metro > ASE-GT-NCR-South > New Delhi > Delhi > North > New Delhi > NCR-HAR > India,Pharmacy,[object Object],28.5318393,77.3114125,R.206 jogabai ext near altaqwa masjid
YASH MEDICOS .,PH128922,Metro > ASE-GT-NCR-North > New Delhi > Delhi > North > New Delhi > NCR-HAR > India,Pharmacy,[object Object],28.62672549,77.05131783,B-29 RAM NGR OM VIHAR NEAR
Animal Care Centre(ROA)-Silver,CL000424,Metro > ASE-SPT-NCR-East > New Delhi > Delhi > North > New Delhi > North Metro SPT > India,Clinic,[object Object],28.68210218,77.2989655,657-A 100 Feet Roadopp. Himgiri Hundai Car Chanderlok Delhi- 110093
Om medical store,PH092723,Metro > ASE-GT-NCR-South > New Delhi > Delhi > North > New Delhi > NCR-HAR > India,Pharmacy,[object Object],28.5006219,77.1834331,Chattarpur rajpur khurd
New Al madina medicos,PH110909,Metro > ASE-GT-NCR-South > New Delhi > Delhi > North > New Delhi > NCR-HAR > India,Pharmacy,[object Object],28.5319162,77.3114174,D13/2 Shaheen bagh
RING ROAD SERVICE  STATION,DS001306,Metro > ASE-GT-NCR-South > New Delhi > Delhi > North > New Delhi > NCR-HAR > India,MG Supermarket,[object Object],28.569072,77.2221015,RING ROAD SERVICE STATIONS A9-10 RING ROAD SOUTH EXTN.1 NEW DELHI 110049
Badal Pet Shop(ROA)-Silver,PS000591,Metro > ASE-SPT-NCR-North-West 2 > New Delhi > Delhi > North > New Delhi > North Metro SPT > India,Petshop,[object Object],28.67160733,77.14526612,"SHOP no.7, Sangram Market, New Moti Nagar, Delhi, 110015"
Sangam chemist,PH102585,Metro > ASE-GT-NCR-South > New Delhi > Delhi > North > New Delhi > NCR-HAR > India,Pharmacy,[object Object],28.5770217,77.22089,"1958,pilanji Kotla Mubarakpur"
Shree Ganga medicos,PH102386,Metro > ASE-GT-NCR-East > New Delhi > Delhi > North > New Delhi > NCR-HAR > India,Pharmacy,[object Object],28.6950904,77.2913355,"D-1,main road ganga vihar"
Ajay medicos,PH095249,Metro > ASE-GT-NCR-North > New Delhi > Delhi > North > New Delhi > NCR-HAR > India,Pharmacy,[object Object],28.6375395,77.0866193,"S42/176 shop no -3,  B block old"
Shree Ram Medicos,PH126570,Metro > ASE-GT-NCR-North > New Delhi > Delhi > North > New Delhi > NCR-HAR > India,Pharmacy,[object Object],28.6356197,77.0811593,Tilak Nagar
CHHOKAR  MEDICOS,PH052934,Metro > ASE-GT-NCR-North > New Delhi > Delhi > North > New Delhi > NCR-HAR > India,Pharmacy,[object Object],28.7414733,77.1626815,"H. NO-222 ,A-2BLOCK100 FOOTA ROAD WEST SANT NAGAR BURARI"
Mahavir Mega Mart,DS015046,Metro > ASE-GT-NCR-South > New Delhi > Delhi > North > New Delhi > NCR-HAR > India,MG Supermarket,[object Object],28.4994191,77.1867557,"A-363, Old No.A-11,Shop No.2, New Delhi-110074"
Anand medicos,PH099060,Metro > ASE-GT-NCR-North > New Delhi > Delhi > North > New Delhi > NCR-HAR > India,Pharmacy,[object Object],28.6115605,77.0698236,A-58 Tara nagar kakrola near pipal
Shree guru kripa medicos,PH111098,Metro > ASE-GT-NCR-North > New Delhi > Delhi > North > New Delhi > NCR-HAR > India,Pharmacy,[object Object],28.6091273,76.9849372,Paprawat road
Chauhan Medicos,PH104248,Metro > ASE-GT-NCR-North > New Delhi > Delhi > North > New Delhi > NCR-HAR > India,Pharmacy,[object Object],28.7395419,77.2042632,Shop no B11/98 25 ft road Jharoda
Mehra store,DS022811,Metro > ASE-GT-NCR-North > New Delhi > Delhi > North > New Delhi > NCR-HAR > India,Super Grocery,[object Object],28.7633326,77.1811701,B146/4 Sani bajar Road Amrit Vihar
2fresh supermarket,MGS08710,Metro > ASE-GT-NCR-North > New Delhi > Delhi > North > New Delhi > NCR-HAR > India,MG Supermarket,[object Object],28.6394804,77.0856201,Wz-2krishna park near 20 block
Aishani super market,MGS007180,Metro > ASE-GT-NCR-North > New Delhi > Delhi > North > New Delhi > NCR-HAR > India,MG Supermarket,[object Object],28.6115682,77.0698223,Plot no 91_92 Monday market
Gomti Medicos(ROA),PH031864,Metro > ASE-GT-NCR-North > New Delhi > Delhi > North > New Delhi > NCR-HAR > India,Pharmacy,[object Object],28.6958182,77.0814059,"Shop No -37, Gf, C-7, Dda Central Market,Keshav Puram Lawrence Road"
Anvi Medicos,PH051771,Metro > ASE-GT-NCR-South > New Delhi > Delhi > North > New Delhi > NCR-HAR > India,Pharmacy,[object Object],28.4976367,77.1823681,"Opp. Badi Masjid, Chattar pur, New Delhi-110074"
Modern Medihub,PH060911,Metro > ASE-GT-NCR-South > New Delhi > Delhi > North > New Delhi > NCR-HAR > India,Pharmacy,[object Object],28.4934344,77.1804668,"ShopNo.2, A-94, , Near Suman Chowk, Chattar pur Extn. New Delhi-110074"
Mukul Fish Aqurium(ROA)-Gold,PS000595,Metro > ASE-SPT-NCR-North-West 1 > New Delhi > Delhi > North > New Delhi > North Metro SPT > India,Petshop,[object Object],28.6192282,77.0337858,"?M-2, Peepal Chowk, Sanatan Dharam Mandir Rd, Mohan Garden, Uttam Nagar, Delhi, 110059"
Curesure.life,PH103993,Metro > ASE-GT-NCR-South > New Delhi > Delhi > North > New Delhi > NCR-HAR > India,Pharmacy,[object Object],28.49861,77.1927293,"Shop no-1, ground y,plot no-102,kh."
GANGA MEDICAL STORE,PH005439,Metro > ASE-GT-NCR-North > New Delhi > Delhi > North > New Delhi > NCR-HAR > India,Pharmacy,[object Object],28.6091208,76.984926,"1677/C-1,CHHAWLA STAND,THANA ROAD NAJAFGARHNEW DELHI 110043"
Pet Store-Gold,CL000526,Metro > ASE-SPT-NCR-North-West 2 > New Delhi > Delhi > North > New Delhi > North Metro SPT > India,Clinic,[object Object],28.66102455,77.08692036,"GH-6/70, Paschim Vihar, New Delhi-110087"
Medily,PH051053,Metro > ASE-GT-NCR-North > New Delhi > Delhi > North > New Delhi > NCR-HAR > India,Pharmacy,[object Object],28.6216744,77.0574786,Plot No. 114 G.F Ambika Enclave Kakrola
Shanti medicos,PH127948,Metro > ASE-GT-NCR-North > New Delhi > Delhi > North > New Delhi > NCR-HAR > India,Pharmacy,[object Object],28.7365573,77.2072841,Kh no-141/23 near gali no-20 25 futa
JANTA MEDICAL STORE,PH046810,Metro > ASE-GT-NCR-North > New Delhi > Delhi > North > New Delhi > NCR-HAR > India,Pharmacy,[object Object],28.7578689,77.1947044,"MAIN CHOWK BURARI, NATHUPURA ROAD, DEL-85"
Sharma store,TG022649,Metro > ASE-GT-NCR-North > New Delhi > Delhi > North > New Delhi > NCR-HAR > India,Traditional Grocery,[object Object],28.63456,77.0848154,Tilak Nagar
SUNNY PHARMACY,PH053955,Metro > ASE-GT-NCR-South > New Delhi > Delhi > North > New Delhi > NCR-HAR > India,Pharmacy,[object Object],28.4393631,77.1762065,"SH.No-1,KH No.-602,Dera Village,New Delhi-110074"
ALL INDIA MEDICOS,PH104333,Metro > ASE-GT-NCR-South > New Delhi > Delhi > North > New Delhi > NCR-HAR > India,Pharmacy,[object Object],28.4988718,77.1849328,"Main Road Chattarpur,Near Sai"
Bhawna medical store,PH109396,Metro > ASE-GT-NCR-North > New Delhi > Delhi > North > New Delhi > NCR-HAR > India,Pharmacy,[object Object],28.739605,77.2042617,B-block h no-2058 gali no-57
Shiv Sagar medicos,PH044662,Metro > ASE-GT-NCR-North > New Delhi > Delhi > North > New Delhi > NCR-HAR > India,Pharmacy,[object Object],28.6145684,77.0591719,kakrola complex kakrola mor
Care 4 Medicos,PH127864,Metro > ASE-GT-NCR-South > New Delhi > Delhi > North > New Delhi > NCR-HAR > India,Pharmacy,[object Object],28.5022956,77.1874233,"B-228, Chhatarpur enclave phase 2"
Bismillah Medicos,WG001046,Metro > ASE-GT-NCR-East > New Delhi > Delhi > North > New Delhi > NCR-HAR > India,Wholesale Grocery,[object Object],28.70496333,77.26453333,"B-15, Kabir Nagar Delhi"
Bansal Medical & General Store,PH021459,Metro > ASE-GT-NCR-South > New Delhi > Delhi > North > New Delhi > NCR-HAR > India,Pharmacy,[object Object],28.5003142,77.2902203,A-3 Surajkund road PRAHALADPUR NEW DELHI
Divya Medical Store(ROA),PH008194,Metro > ASE-GT-NCR-East > New Delhi > Delhi > North > New Delhi > NCR-HAR > India,Pharmacy,[object Object],28.7006102,77.2739398,C-9 Market Shop No.1  Yamuna Vihar Delhi 110053
Venus Pharmacy,PH041795,Metro > ASE-GT-NCR-South > New Delhi > Delhi > North > New Delhi > NCR-HAR > India,Pharmacy,[object Object],28.498548,77.1873303,"Shop No.1, Plot No.,A-331 ,G Floor,Gali No.-35, Phase-2, Chattarpur Enclave,New Delhi-110074"
Krishna medicos (PLP),PH094499,Metro > ASE-GT-NCR-South > New Delhi > Delhi > North > New Delhi > NCR-HAR > India,Pharmacy,[object Object],28.4999686,77.2857926,"Shop no.3, G.F D-2, vishwakarma"
Shri Krishna Medicos(ROA),WP000030,Metro > ASE-GT-NCR-North > New Delhi > Delhi > North > New Delhi > NCR-HAR > India,Wholesale Pharmacy,[object Object],28.67743088,77.15617105,1572/3-4 Central Bank Buildinga-C Market Bhagirath Palace110006
Care well Medical Store,WP002846,Metro > ASE-GT-NCR-East > New Delhi > Delhi > North > New Delhi > NCR-HAR > India,Wholesale Pharmacy,[object Object],28.6930778,77.2829475,"B-26,Main Road Kabir Nagar Delhi"
Ritik medicos,PH102577,Metro > ASE-GT-NCR-South > New Delhi > Delhi > North > New Delhi > NCR-HAR > India,Pharmacy,[object Object],28.5711403,77.2246129,Shop no 1821/5 gurdwara road
Janta Medicos,PH127944,Metro > ASE-GT-NCR-North > New Delhi > Delhi > North > New Delhi > NCR-HAR > India,Pharmacy,[object Object],28.6396739,77.0956012,Tilak Nagar
Pill Box  33,WP002969,Metro > ASE-GT-NCR-East > New Delhi > Delhi > North > New Delhi > NCR-HAR > India,Wholesale Pharmacy,[object Object],28.692146,77.2823175,B-101 33Foota Road Kabir Nagar
New Ankush store,TG022650,Metro > ASE-GT-NCR-North > New Delhi > Delhi > North > New Delhi > NCR-HAR > India,Traditional Grocery,[object Object],28.6355446,77.0895059,C-3 Ganesh Nagar
Well care pharmacy,PH115335,Metro > ASE-GT-NCR-South > New Delhi > Delhi > North > New Delhi > NCR-HAR > India,Pharmacy,[object Object],28.5703298,77.2240323,"D-8/1539, Gurudwara road,"
SUNNY MEDICAL STORE,PH089046,Metro > ASE-GT-NCR-North > New Delhi > Delhi > North > New Delhi > NCR-HAR > India,Pharmacy,[object Object],28.6384215,77.0889226,21/38A TILAK NAGAR
Public Health Pharmacy,PH104246,Metro > ASE-GT-NCR-North > New Delhi > Delhi > North > New Delhi > NCR-HAR > India,Pharmacy,[object Object],28.7388202,77.2049649,H no2410/A kh no 135/25 Sant Nagar
Shri Balaji medical store,PH004991,Metro > ASE-GT-NCR-North > New Delhi > Delhi > North > New Delhi > NCR-HAR > India,Pharmacy,[object Object],28.609094,77.0589151,"Gali No-6, Main Rajapuri Road,Near Pathak Medical Center,Uttam Nagar,New Delhi-110059"
Shri Balaji pharmacy,PH109922,Metro > ASE-GT-NCR-South > New Delhi > Delhi > North > New Delhi > NCR-HAR > India,Pharmacy,[object Object],28.4999322,77.1887962,Mata chowk ( SBI ATM wali Gali)
RADHA KRISHNA MEDICOS,DS008078,Metro > ASE-GT-NCR-North > New Delhi > Delhi > North > New Delhi > NCR-HAR > India,Pharmacy,[object Object],28.6147161,77.0538294,"RZ-66,SUBHASH PARK EXTN-2NEAR SOLANKI CHOWK BINDAPURMATIYALA ROAD,U.N."
Yash pharmacy,PH126566,Metro > ASE-GT-NCR-North > New Delhi > Delhi > North > New Delhi > NCR-HAR > India,Pharmacy,[object Object],28.7321166,77.2075103,Shop-no-1 gf property no-525 kh.
Radhe shyam Medicos,PH106524,Metro > ASE-GT-NCR-North > New Delhi > Delhi > North > New Delhi > NCR-HAR > India,Pharmacy,[object Object],28.5827323,77.0886274,"Rz-228-M,Raj Nagar Paat 2 palam"
RAM PET SHOP-Silver,PS014180,Metro > ASE-SPT-NCR-North-West 2 > New Delhi > Delhi > North > New Delhi > North Metro SPT > India,Petshop,[object Object],28.550672,77.23494125,"SHOP No -13, Guru Nanak Market, New Moti Nagar, New Delhi-110015"
Malhotra Bros(ROA),TG001435,Metro > ASE-GT-NCR-North > New Delhi > Delhi > North > New Delhi > NCR-HAR > India,MG Supermarket,[object Object],28.6958429,77.0814379,"Wz-136, Nimri Village , Shastri Nagar"
Shilpi Chemist(ROA),PH005232,Metro > ASE-GT-NCR-North > New Delhi > Delhi > North > New Delhi > NCR-HAR > India,Pharmacy,[object Object],28.6958354,77.0814338,"C-7/5, Central Market Keshav Puram"
Pal Medical Store(ROA),PH030918,Metro > ASE-GT-NCR-North > New Delhi > Delhi > North > New Delhi > NCR-HAR > India,Pharmacy,[object Object],28.6164841,77.0280944,"Plot No. 301, Shop No. A, Karkrola Housing Complex, Main Karkrola Road ,New Delhi -78"
Karan mediways,PH109397,Metro > ASE-GT-NCR-North > New Delhi > Delhi > North > New Delhi > NCR-HAR > India,Pharmacy,[object Object],28.7397547,77.2063559,Kh no-140/14/1.ground floor street
SHARDA MEDICAL,PH059323,Metro > ASE-GT-NCR-North > New Delhi > Delhi > North > New Delhi > NCR-HAR > India,Pharmacy,[object Object],28.741812,77.1948536,"Shop No. 174, CHANDAN VIHAR, WEST SANT NAGAR, BURARI, DELHI, 110084"
Popli Medicos,PH087901,Metro > ASE-GT-NCR-North > New Delhi > Delhi > North > New Delhi > NCR-HAR > India,Pharmacy,[object Object],28.6488457,77.1160441,Shop No.14 main market
HARI OM MEDICOS,PH115102,Metro > ASE-GT-NCR-North > New Delhi > Delhi > North > New Delhi > NCR-HAR > India,Pharmacy,[object Object],28.6419772,77.0995223,SHOP NO -1 WZ-47
Kapoor Cosmetics,PH111571,Metro > ASE-GT-NCR-North > New Delhi > Delhi > North > New Delhi > NCR-HAR > India,Pharmacy,[object Object],28.6455363,77.0880264,F-32 MANGAL BAZAR ROAD
Rozana BAZAAR,DS022351,Metro > ASE-GT-NCR-South > New Delhi > Delhi > North > New Delhi > NCR-HAR > India,Super Grocery,[object Object],28.4985527,77.192018,292 maindan garhi  near
Radhika medicos,PH102629,Metro > ASE-GT-NCR-South > New Delhi > Delhi > North > New Delhi > NCR-HAR > India,Pharmacy,[object Object],28.489128,77.1911496,"Plot no-2 , khasra no-122/11 Ram"
MASTER Medicos,PH126565,Metro > ASE-GT-NCR-North > New Delhi > Delhi > North > New Delhi > NCR-HAR > India,Pharmacy,[object Object],28.6216117,77.05792844,"Shop Number-14, Gurudawra Road,"
Rudraksh pharmacy,PH090627,Metro > ASE-GT-NCR-North > New Delhi > Delhi > North > New Delhi > NCR-HAR > India,Pharmacy,[object Object],28.6643692,77.0470044,1/35 shop facing mall road Tilak
Vatsalya Medicos,PH108149,Metro > ASE-GT-NCR-North > New Delhi > Delhi > North > New Delhi > NCR-HAR > India,Pharmacy,[object Object],28.6486761,77.1160034,Wz-485/1
Dr. Dheeraj Pet Shop(ROA)-Silver,CL001674,Metro > ASE-SPT-NCR-North-West 2 > New Delhi > Delhi > North > New Delhi > North Metro SPT > India,Clinic,[object Object],28.63821696,77.08138909,"235, Meera Bagh, Paschim Vihar, Delhi"
Inaya medicos,WP002923,Metro > ASE-GT-NCR-East > New Delhi > Delhi > North > New Delhi > NCR-HAR > India,Wholesale Pharmacy,[object Object],28.7140245,77.2701592,33 futa road dayal Pur mustafabad
NEW DEEP MEDICAL,PH111572,Metro > ASE-GT-NCR-North > New Delhi > Delhi > North > New Delhi > NCR-HAR > India,Pharmacy,[object Object],28.6468061,77.0871861,WZ- 42 OLD SAHIBPURA
Manoj medicos,PH042660,Metro > ASE-GT-NCR-North > New Delhi > Delhi > North > New Delhi > NCR-HAR > India,Pharmacy,[object Object],28.6109899,77.023275,plot no 9-tara Nagar main kakrola road
SAINIK MEDICOS,PH108535,Metro > ASE-GT-NCR-South > New Delhi > Delhi > North > New Delhi > NCR-HAR > India,Pharmacy,[object Object],28.4985801,77.1920176,Main market maindan garhi
SHIVAAY MEDICOS,PH062310,Metro > ASE-GT-NCR-North > New Delhi > Delhi > North > New Delhi > NCR-HAR > India,Pharmacy,[object Object],28.6479024,77.095031,SHOP NO.B-9 G FLOOR DDA COLONY CHAUKHANDI
Shree shyam pharmacy,PH081579,Metro > ASE-GT-NCR-South > New Delhi > Delhi > North > New Delhi > NCR-HAR > India,Pharmacy,[object Object],28.4892135,77.1911269,Shop no 3 plot no 11old 12kh.n.119
PALAM MEDICOS <P0006>,PH041179,Metro > ASE-GT-NCR-North > New Delhi > Delhi > North > New Delhi > NCR-HAR > India,Pharmacy,[object Object],28.5832052,77.0877651,"WZ-2,RAJ NAGAR,PALAM-MEHRAULI-ROAD,NEW DELHI-110045"
Sana Medicos,PH127778,Metro > ASE-GT-NCR-East > New Delhi > Delhi > North > New Delhi > NCR-HAR > India,Pharmacy,[object Object],28.6942295,77.2838572,"B-252, Gali No. -5 Kabir Nagar Delhi"
Milap Medicos,PH126569,Metro > ASE-GT-NCR-North > New Delhi > Delhi > North > New Delhi > NCR-HAR > India,Pharmacy,[object Object],28.664322,77.0470184,Tilak Nagar
Tyagi medical store,PH082452,Metro > ASE-GT-NCR-South > New Delhi > Delhi > North > New Delhi > NCR-HAR > India,Pharmacy,[object Object],28.4929016,77.1804475,C-20 shop no-4 jvts garden
sampooran pharmacy,PH041782,Metro > ASE-GT-NCR-North > New Delhi > Delhi > North > New Delhi > NCR-HAR > India,Pharmacy,[object Object],28.5827904,77.0886319,rz-f-49sukher bazaar road Raj Nagar part 2 palm colony new Delhi 10077
Pharmacy Hut,PH100214,Metro > ASE-GT-NCR-North > New Delhi > Delhi > North > New Delhi > NCR-HAR > India,Pharmacy,[object Object],28.6115626,77.0697934,Shop no 2 plot no -160_161 vipan
Roshan medicos,PH116869,Metro > ASE-GT-NCR-East > New Delhi > Delhi > North > New Delhi > NCR-HAR > India,Pharmacy,[object Object],28.7135222,77.2705062,Old police station 33 futa nehru vihar
PETS WORLD & FISH AQUARIUM-Silver,PS012309,Metro > ASE-SPT-NCR-North-West 2 > New Delhi > Delhi > North > New Delhi > North Metro SPT > India,Petshop,[object Object],28.6643933,77.13996,"shop no 13 , 14, 15 sangam market moti nagar new delhi 15"
Ansh medicos,PH109399,Metro > ASE-GT-NCR-North > New Delhi > Delhi > North > New Delhi > NCR-HAR > India,Pharmacy,[object Object],28.741874,77.1923164,Shop no-1 g.f kh no-14/10 A-2 Block
BIG MART RETAIL SOLUTIONS PVT. LTD.(BAGDOLA),DS009051,Metro > ASE-GT-NCR-North > New Delhi > Delhi > North > New Delhi > NCR-HAR > India,MG Hypermarket,[object Object],28.5828757,77.0887035,"RZP-151,MAIN BAGDOLA-PALAM ROAD RAJ NAGARPART-2 N.D-110077"
Sunidhi medicos,PH106525,Metro > ASE-GT-NCR-North > New Delhi > Delhi > North > New Delhi > NCR-HAR > India,Pharmacy,[object Object],28.6115675,77.0698119,Shop no 2 plot no4 khasra no 27/1
Bhawana Medicos,WP002576,Metro > ASE-GT-NCR-East > New Delhi > Delhi > North > New Delhi > NCR-HAR > India,Wholesale Pharmacy,[object Object],28.6962208,77.2712758,"208,Main Gamari Road, Nr. GONDHA"
Inaya pharmacy,PH102387,Metro > ASE-GT-NCR-East > New Delhi > Delhi > North > New Delhi > NCR-HAR > India,Pharmacy,[object Object],28.7140564,77.2701893,"E-591,,main 33 futa road nehru vihar"
NEW JAGDAMBA MEDICOS,PH088702,Metro > ASE-GT-NCR-North > New Delhi > Delhi > North > New Delhi > NCR-HAR > India,Pharmacy,[object Object],28.7450236,77.2020326,Gali no 110 25ft road Sant Nagar
HARIOM MEDICAL STORE,PH086144,Metro > ASE-GT-NCR-North > New Delhi > Delhi > North > New Delhi > NCR-HAR > India,Pharmacy,[object Object],28.6011761,76.9884084,Maine Gurugram-Road Opp . BDO
Tomar pharmacy,PH126266,Metro > ASE-GT-NCR-South > New Delhi > Delhi > North > New Delhi > NCR-HAR > India,Pharmacy,[object Object],28.4957664,77.1914693,"D-59, Gali no 1, Rajpur khurd,"
J P Supermart,DS018415,Metro > ASE-GT-NCR-South > New Delhi > Delhi > North > New Delhi > NCR-HAR > India,Super Grocery,[object Object],28.5123837,77.2674197,"shop no-02, jalam mohalla, tuglakabad vill, near shiv mandir pin-110044"
ALOK D MART,PH089162,Metro > ASE-GT-NCR-South > New Delhi > Delhi > North > New Delhi > NCR-HAR > India,Pharmacy,[object Object],28.4875809,77.1866628,"Shop No.2.CH No.-714-715/1,Plot No-"
Shri Vishnu Chemist,PH115103,Metro > ASE-GT-NCR-North > New Delhi > Delhi > North > New Delhi > NCR-HAR > India,Pharmacy,[object Object],28.5828089,77.0885839,"RZ-148A,Plot No,B-9,Shop No 3,Raj"
Hum sabka dawa bajar,PH111102,Metro > ASE-GT-NCR-North > New Delhi > Delhi > North > New Delhi > NCR-HAR > India,Pharmacy,[object Object],28.6091005,76.9848734,Roshan pura road
R.K Medicos,PH089739,Metro > ASE-GT-NCR-North > New Delhi > Delhi > North > New Delhi > NCR-HAR > India,Pharmacy,[object Object],28.6486569,77.116027,Shop No.1 DDA market
Mishra Chemist,PH104247,Metro > ASE-GT-NCR-North > New Delhi > Delhi > North > New Delhi > NCR-HAR > India,Pharmacy,[object Object],28.7290925,77.2089497,29/20 colony part-2 Surendra colony
New Suhail Medicos,PH127780,Metro > ASE-GT-NCR-East > New Delhi > Delhi > North > New Delhi > NCR-HAR > India,Pharmacy,[object Object],28.6922968,77.2830525,"H. No.-178, Gali No-5 Kardam puri"
S.R. Trading,MGS08922,Metro > ASE-GT-NCR-North > New Delhi > Delhi > North > New Delhi > NCR-HAR > India,MG Supermarket,[object Object],28.5826657,77.0887821,"Rzg-1,Dev Kunj,Raj Nagar part 2"
Mannu Shop(ROA)-Platinum,PS002345,Metro > ASE-SPT-NCR-East > New Delhi > Delhi > North > New Delhi > North Metro SPT > India,Petshop,[object Object],28.68210218,77.2989655,"SHOP NO 3 B 3/199, YAMUNA VIHAR, DELHI"
K.P Pharmacy,PH104219,Metro > ASE-GT-NCR-North > New Delhi > Delhi > North > New Delhi > NCR-HAR > India,Pharmacy,[object Object],28.7307389,77.2134655,Shop no 2 kh no 28/2/1 gali no 10
New India Medicos(ROA),WP000036,Metro > ASE-GT-NCR-North > New Delhi > Delhi > North > New Delhi > NCR-HAR > India,Wholesale Pharmacy,[object Object],28.657504,77.2349124,Bhagirath110006
Parashar medical store,PH108150,Metro > ASE-GT-NCR-North > New Delhi > Delhi > North > New Delhi > NCR-HAR > India,Pharmacy,[object Object],28.7410947,77.2020891,228/2 kh no.24/19 surender colony
Verma medical store,PH106194,Metro > ASE-GT-NCR-North > New Delhi > Delhi > North > New Delhi > NCR-HAR > India,Pharmacy,[object Object],28.5910438,76.994572,Shop no 1 ground floor H no 3 village
Katyani Medical Store,PH020259,Metro > ASE-GT-NCR-South > New Delhi > Delhi > North > New Delhi > NCR-HAR > India,Pharmacy,[object Object],28.4953633,77.1840365,Block C 512 Shop No 1 Chatrapur
Dr Anil Sood(ROA)-Silver,CL000535,Metro > ASE-SPT-NCR-North-West 1 > New Delhi > Delhi > North > New Delhi > North Metro SPT > India,Clinic,[object Object],28.5814536,77.2405391,N-29 B Jagpura New Delhi
Ashoka medicos,PH114819,Metro > ASE-GT-NCR-North > New Delhi > Delhi > North > New Delhi > NCR-HAR > India,Pharmacy,[object Object],28.7309188,77.2087914,Shop no-9 219 ground floor kh no-
JAN SEWA MEDICOS,PH117211,Metro > ASE-GT-NCR-North > New Delhi > Delhi > North > New Delhi > NCR-HAR > India,Pharmacy,[object Object],28.6448196,77.2411016,"57,DAYANAND ROAD DARYA GANJ"
ASHOKA BROS,DS019267,Metro > ASE-GT-NCR-North > New Delhi > Delhi > North > New Delhi > NCR-HAR > India,Super Grocery,[object Object],28.6405473,77.094948,11-47 TILAK NAGAR NEW DELHI 110018
Naaz medicos,PH101125,Metro > ASE-GT-NCR-East > New Delhi > Delhi > North > New Delhi > NCR-HAR > India,Pharmacy,[object Object],28.6942447,77.291325,"A-225,33 futa road, Mustafa road"
VERMA MEDICOS,PH095970,Metro > ASE-GT-NCR-North > New Delhi > Delhi > North > New Delhi > NCR-HAR > India,Pharmacy,[object Object],28.6435157,77.0969103,SHOP NO 3 GROUND FLOOR K-
Shimla Medicos,PH111103,Metro > ASE-GT-NCR-North > New Delhi > Delhi > North > New Delhi > NCR-HAR > India,Pharmacy,[object Object],28.7481246,77.1997514,Shop no 4 Philips Road Sant Nagar
SR Trading,MGS00964,Metro > ASE-GT-NCR-North > New Delhi > Delhi > North > New Delhi > NCR-HAR > India,MG Supermarket,[object Object],28.5826223,77.0887872,"RZG-1, Lower Ground Floor,Dev Kunj,Sec-7 Dwarka"
Y.S PET SHOP-Silver,PS000596,Metro > ASE-SPT-NCR-North-West 1 > New Delhi > Delhi > North > New Delhi > North Metro SPT > India,Petshop,[object Object],28.6192661,77.0593132,"J-1,ARYA SAMAJ ROAD UTTAm Nagar  New Delhi"
Noor Store,WG001056,Metro > ASE-GT-NCR-East > New Delhi > Delhi > North > New Delhi > NCR-HAR > India,Wholesale Grocery,[object Object],28.6941258,77.2837443,"Gali No. -5 Flate wala Road, Kabir"
A Pet Point Speed Kennel-Silver,BR000292,Metro > ASE-SPT-NCR-North-West 1 > New Delhi > Delhi > North > New Delhi > North Metro SPT > India,Petshop,[object Object],28.6202975,77.0368357,A1/6 Rama Park Metro Pillar No.764 Near Dwarka Mor Metro Station Uttam Nagar Delhi
SINGH MEDICOS,PH059470,Metro > ASE-GT-NCR-North > New Delhi > Delhi > North > New Delhi > NCR-HAR > India,Pharmacy,[object Object],28.6507517,77.12681,"B-33 SHOP NO.2 DOUBLE STORY, RAMESH NAGAR"
Life care medicos,PH124161,Metro > ASE-GT-NCR-East > New Delhi > Delhi > North > New Delhi > NCR-HAR > India,Pharmacy,[object Object],28.705729,77.2831256,D-1 main road ganga vihar
SAI MEDICOS,PH049676,Metro > ASE-GT-NCR-South > New Delhi > Delhi > North > New Delhi > NCR-HAR > India,Pharmacy,[object Object],28.4549394,77.1838033,"A-280A, Shop No. -1, Chattarpur Enclave, New Delhi"
Satyog medicos,PH109400,Metro > ASE-GT-NCR-North > New Delhi > Delhi > North > New Delhi > NCR-HAR > India,Pharmacy,[object Object],28.6356045,77.0842283,Tilak Nagar
RADHIKA MEDICOS,PH106582,Metro > ASE-GT-NCR-South > New Delhi > Delhi > North > New Delhi > NCR-HAR > India,Pharmacy,[object Object],28.4999492,77.1887693,122) 11ramcharn market
HEALTH GREEN MEDICOS,PH103336,Metro > ASE-GT-NCR-South > New Delhi > Delhi > North > New Delhi > NCR-HAR > India,Pharmacy,[object Object],28.4938065,77.1841575,Main road chattarpur pur
Shri Khatu Shyam Pharmacy and,PH120463,Metro > ASE-GT-NCR-North > New Delhi > Delhi > North > New Delhi > NCR-HAR > India,Pharmacy,[object Object],28.7482526,77.2012105,Shop no 1 kh no 104 B-Block 25
Priyansh pharmacy,PH111573,Metro > ASE-GT-NCR-North > New Delhi > Delhi > North > New Delhi > NCR-HAR > India,Pharmacy,[object Object],28.7411643,77.2016848,Gali no-1 D Block harit vihar
Ishant Medicos,PH110732,Metro > ASE-GT-NCR-North > New Delhi > Delhi > North > New Delhi > NCR-HAR > India,Pharmacy,[object Object],28.7395868,77.1998056,Kh no 136/19 Shop no 3 A-1 Block Sant
P.M.Jan Aushdhi kender,PH101126,Metro > ASE-GT-NCR-East > New Delhi > Delhi > North > New Delhi > NCR-HAR > India,Pharmacy,[object Object],28.6942722,77.2912864,"B-2/70, Brij Puri"
Sangeeta medicos,PH120459,Metro > ASE-GT-NCR-North > New Delhi > Delhi > North > New Delhi > NCR-HAR > India,Pharmacy,[object Object],28.7291697,77.2036976,Shop no-2 D-1 gali no-2 hardev nagar
Rahul medicos,PH127947,Metro > ASE-GT-NCR-North > New Delhi > Delhi > North > New Delhi > NCR-HAR > India,Pharmacy,[object Object],28.7356688,77.207548,Shop no-2 kh no-16/23/1 block -b
Vanshik Medicos,WP002577,Metro > ASE-GT-NCR-East > New Delhi > Delhi > North > New Delhi > NCR-HAR > India,Wholesale Pharmacy,[object Object],28.6966534,77.2714199,"K-2, Shop-2 Block-2, Gangotri Vihar"
Shiv shankar medicos,PH114820,Metro > ASE-GT-NCR-North > New Delhi > Delhi > North > New Delhi > NCR-HAR > India,Pharmacy,[object Object],28.733251,77.1908957,Shop no-02 chowk jharoda burari
SAI RAJ CHEMIST,PH109401,Metro > ASE-GT-NCR-North > New Delhi > Delhi > North > New Delhi > NCR-HAR > India,Pharmacy,[object Object],28.6058601,77.0568419,L-49 som Bazar Raja puri
Pal Medicos,PH114242,Metro > ASE-GT-NCR-North > New Delhi > Delhi > North > New Delhi > NCR-HAR > India,Pharmacy,[object Object],28.5828998,77.0886207,B-11Gali No 10 Raj Nagar palam
Shree Medicos,PH114822,Metro > ASE-GT-NCR-North > New Delhi > Delhi > North > New Delhi > NCR-HAR > India,Pharmacy,[object Object],28.582876,77.0885932,"RZP-128,Raj Nagar part 2, palam"
Shree shyam medicos,PH129467,Metro > ASE-GT-NCR-North > New Delhi > Delhi > North > New Delhi > NCR-HAR > India,Pharmacy,[object Object],28.7289957,77.2063584,Shop no 2 kh no-40 village jharoda
Nirmal Medical Store,PH111018,Metro > ASE-GT-NCR-North > New Delhi > Delhi > North > New Delhi > NCR-HAR > India,Pharmacy,[object Object],28.7485241,77.1911016,Gali No 15 near Khan Store Kamal
Bismillah Crown Medicos,WP002887,Metro > ASE-GT-NCR-East > New Delhi > Delhi > North > New Delhi > NCR-HAR > India,Wholesale Pharmacy,[object Object],28.6935765,77.2833584,"B-45,Gali no.-1 Kabir Nagar Delhi"
R. S. S MEDICOS,PH097797,Metro > ASE-GT-NCR-South > New Delhi > Delhi > North > New Delhi > NCR-HAR > India,Pharmacy,[object Object],28.4946732,77.1804956,Shop no 1 suman colony
Arihant Medicos,PH114823,Metro > ASE-GT-NCR-North > New Delhi > Delhi > North > New Delhi > NCR-HAR > India,Pharmacy,[object Object],28.5828884,77.0886158,"RZF-756/57B,Raj Nagar part 2 palam"
Delhi Medicos,PH104235,Metro > ASE-GT-NCR-North > New Delhi > Delhi > North > New Delhi > NCR-HAR > India,Pharmacy,[object Object],28.7307216,77.2098359,H.No 230 Surender Colony Jharoda
Shah Dept store,DS018250,Metro > ASE-GT-NCR-South > New Delhi > Delhi > North > New Delhi > NCR-HAR > India,MG Supermarket,[object Object],28.500915,77.2839487,"D-69, vishwakarma colony, prahladpur"
New Crown Medicos,WP002967,Metro > ASE-GT-NCR-East > New Delhi > Delhi > North > New Delhi > NCR-HAR > India,Wholesale Pharmacy,[object Object],28.6957401,77.2718723,Yamuna Vihar Road Mohan puri delhi
Pet point India Private Limited-Platinum,PS018513,Metro > ASE-SPT-NCR-North-West 2 > New Delhi > Delhi > North > New Delhi > North Metro SPT > India,Petshop,[object Object],28.666781,77.1234282,"Flat No.1242, GH-5 & 7, Paschim Vihar,"
Global Pharmacy,PH110733,Metro > ASE-GT-NCR-North > New Delhi > Delhi > North > New Delhi > NCR-HAR > India,Pharmacy,[object Object],28.7356343,77.1974496,Main Road Sant Nagar Near by
Wisdom Pet Mart(ROA)-Silver,PS004318,Metro > ASE-SPT-NCR-North-West 1 > New Delhi > Delhi > North > New Delhi > North Metro SPT > India,Petshop,[object Object],28.6193247,77.0597126,"C 62, Arya Samaj Road, Uttam Nagar"
Utsav medicos,PH106526,Metro > ASE-GT-NCR-North > New Delhi > Delhi > North > New Delhi > NCR-HAR > India,Pharmacy,[object Object],28.6501233,77.13423,6-B/3 Ramesh Nagar
B-well Medicos,PH090631,Metro > ASE-GT-NCR-North > New Delhi > Delhi > North > New Delhi > NCR-HAR > India,Pharmacy,[object Object],28.6353939,77.0887501,C-10 shop no 10 mangla hospital
Mamta Medicos,PH104153,Metro > ASE-GT-NCR-North > New Delhi > Delhi > North > New Delhi > NCR-HAR > India,Pharmacy,[object Object],28.6439554,77.0266534,Kh no 800 Kamal pur Burari
Krishana Medical Store,WP002578,Metro > ASE-GT-NCR-East > New Delhi > Delhi > North > New Delhi > NCR-HAR > India,Wholesale Pharmacy,[object Object],28.6962291,77.2712709,"C-5/B,Main Gamari Road,Delhi"
Raja Departmental Store,DS012976,Metro > ASE-GT-NCR-South > New Delhi > Delhi > North > New Delhi > NCR-HAR > India,MG Supermarket,[object Object],28.4380743,77.1993538,"Kh-no. 865, &866, Ground Floor, Village Bhati, New Delhi"
manha medicos,PH054214,Metro > ASE-GT-NCR-South > New Delhi > Delhi > North > New Delhi > NCR-HAR > India,Pharmacy,[object Object],28.4992106,77.2508944,c-198 part of shop no.1tayyab masjid thokar no 8 Shaheen bagh
APNA BAZAR (Roshan Pura),DS001253,Metro > ASE-GT-NCR-North > New Delhi > Delhi > North > New Delhi > NCR-HAR > India,MG Supermarket,[object Object],28.6722068,77.0676326,"S-5, new roshan pura near video Office, Gurgaon Road, Najafgarh, New Delhi-43"
Shree Shyam Ayurvedic Store,PH104152,Metro > ASE-GT-NCR-North > New Delhi > Delhi > North > New Delhi > NCR-HAR > India,Pharmacy,[object Object],28.6439519,77.0266348,41 futa road Kamal pur Burari
Shivam medical,PH106527,Metro > ASE-GT-NCR-North > New Delhi > Delhi > North > New Delhi > NCR-HAR > India,Pharmacy,[object Object],28.6959144,77.0813872,Shop no 16/129 padam singh
Yadav Supermarket,DS008987,Metro > ASE-GT-NCR-North > New Delhi > Delhi > North > New Delhi > NCR-HAR > India,MG Supermarket,[object Object],28.6051969,76.9884331,"K-29, New Roushanpura, Najafgadh"
RAJ MANDIR HYPER MERKET (Mohan Garden),MGH00083,Metro > ASE-GT-NCR-North > New Delhi > Delhi > North > New Delhi > NCR-HAR > India,MG Hypermarket,[object Object],28.6115649,77.069795,"A-1,Block,Plot No-6 Mohan garden ,near pillar No-753 ,Uttam nagar"
Krishna medicos,PH101845,Metro > ASE-GT-NCR-South > New Delhi > Delhi > North > New Delhi > NCR-HAR > India,Pharmacy,[object Object],28.4893387,77.18839,N-43/A-1 Rajpur khurd
Meri dawai,PH101844,Metro > ASE-GT-NCR-South > New Delhi > Delhi > North > New Delhi > NCR-HAR > India,Pharmacy,[object Object],28.4938047,77.1807068,Shop no 2 suman chowk
MITTAL MEDICOS,PH053674,Metro > ASE-GT-NCR-North > New Delhi > Delhi > North > New Delhi > NCR-HAR > India,Pharmacy,[object Object],28.741185,77.2026288,"K. H. N. -123,25Foota Road, Sant nagar burari"
OM MEDICARE,PH111126,Metro > ASE-GT-NCR-North > New Delhi > Delhi > North > New Delhi > NCR-HAR > India,Pharmacy,[object Object],28.6418635,77.0995248,WZ-47 PLOT NO 10 MUKHERJEE PARK
GURU NANAK MEDICAL,PH109978,Metro > ASE-GT-NCR-North > New Delhi > Delhi > North > New Delhi > NCR-HAR > India,Pharmacy,[object Object],28.6481173,77.087197,"Wz 48 ,Gali no 6 guru nanak nagar"
Bali Medicos,PH048278,Metro > ASE-GT-NCR-South > New Delhi > Delhi > North > New Delhi > NCR-HAR > India,Pharmacy,[object Object],28.4936338,77.1894052,"Shop No. -5, Rajput Khude, Chattarpur New Delhi-110074"
PET VET CLINIC-Silver,CL002836,Metro > ASE-SPT-NCR-North-West 2 > New Delhi > Delhi > North > New Delhi > North Metro SPT > India,Clinic,[object Object],28.6624336,77.1415752,B1 | 219 ground floor new moti nagar
Dheeraj medical & general Store,PH094509,Metro > ASE-GT-NCR-South > New Delhi > Delhi > North > New Delhi > NCR-HAR > India,Pharmacy,[object Object],28.4991268,77.2511472,"E-60, shop no.2, vishwakarma"
M-Mart Grocery Store,DS012060,Metro > ASE-GT-NCR-South > New Delhi > Delhi > North > New Delhi > NCR-HAR > India,MG Supermarket,[object Object],28.4577425,77.1842704,"Ground Floor, Khasra N0-165 , Village Asola , Fatehpur, New Delhi"
Jai Mata medical store (Raja puri,PH105939,Metro > ASE-GT-NCR-North > New Delhi > Delhi > North > New Delhi > NCR-HAR > India,Pharmacy,[object Object],28.6117523,77.0568838,"Shop No 3 Block C som Bazar Road ,"
Life care pharmacy,PH114824,Metro > ASE-GT-NCR-North > New Delhi > Delhi > North > New Delhi > NCR-HAR > India,Pharmacy,[object Object],28.7330093,77.2076728,Property no-591 kh no-23/3/2 Surender
A to Z Sasta Bazar,DS018201,Metro > ASE-GT-NCR-North > New Delhi > Delhi > North > New Delhi > NCR-HAR > India,Super Grocery,[object Object],28.7413667,77.202615,"25 Foota Road, Sant Nagar Burari"
RAHIM AND SONS INDIA PVT LTD,MGS005248,Metro > ASE-GT-NCR-South > New Delhi > Delhi > North > New Delhi > NCR-HAR > India,MG Supermarket,[object Object],28.4674723,77.1867914,"KH.No-194/1/214,Vill.Chandan Holl"
Med Roz Pharmacy,PH044250,Metro > ASE-GT-NCR-South > New Delhi > Delhi > North > New Delhi > NCR-HAR > India,Pharmacy,[object Object],28.4983551,77.1815707,"ShopNo.1, HouseNo.308, Durga Ashram Road, Near Badi Masjid, Chattarpur, New Delhi-110074"
Divyam Medicos,TG021385,Metro > ASE-GT-NCR-North > New Delhi > Delhi > North > New Delhi > NCR-HAR > India,Traditional Grocery,[object Object],28.6469549,77.0916301,B-20 CHOUKHANDI
Kishan Mandi Mega Mart,MGS00456,Metro > ASE-GT-NCR-North > New Delhi > Delhi > North > New Delhi > NCR-HAR > India,MG Supermarket,[object Object],28.5908455,77.0021716,"Main Goyla Dairy Road, Shyam Vihar, Phase-2, New Delhi-110043"
UMANG STORE,TG023023,Metro > ASE-GT-NCR-North > New Delhi > Delhi > North > New Delhi > NCR-HAR > India,Traditional Grocery,[object Object],28.6886907,77.1737289,WP 15 WAZIRPUR
JK Store,DS022504,Metro > ASE-GT-NCR-North > New Delhi > Delhi > North > New Delhi > NCR-HAR > India,Super Grocery,[object Object],28.6439473,77.0266631,Shop no 1 41 futa road A-2 block
KHANDELWAL MEDICAL STORE,PH111119,Metro > ASE-GT-NCR-North > New Delhi > Delhi > North > New Delhi > NCR-HAR > India,Pharmacy,[object Object],28.6537732,77.0955898,C-482 DDA COLONY
AJIT MEDICOS,PH081685,Metro > ASE-GT-NCR-South > New Delhi > Delhi > North > New Delhi > NCR-HAR > India,Pharmacy,[object Object],28.4902188,77.1891855,"Shop No. -1, Plot No. -50, Kh. no. 71"
Sarah Medical Store,PH129443,Metro > ASE-GT-NCR-East > New Delhi > Delhi > North > New Delhi > NCR-HAR > India,Pharmacy,[object Object],28.692146,77.2823175,"B-1094,Kabir Nagar Delhi"
Ravi Medicos,PH111106,Metro > ASE-GT-NCR-North > New Delhi > Delhi > North > New Delhi > NCR-HAR > India,Pharmacy,[object Object],28.64869,77.1160263,"2a, 1, Ramesh Nagar"
Damini medicos,PH127942,Metro > ASE-GT-NCR-North > New Delhi > Delhi > North > New Delhi > NCR-HAR > India,Pharmacy,[object Object],28.6115721,77.0698074,Plot no 1 kakrola housing complex
SHIV MEDICOS,PH110574,Metro > ASE-GT-NCR-North > New Delhi > Delhi > North > New Delhi > NCR-HAR > India,Pharmacy,[object Object],28.6469517,77.0885901,WZ-98/A OLD SAHIBPURA
Shri shyam Store,TG021294,Metro > ASE-GT-NCR-South > New Delhi > Delhi > North > New Delhi > NCR-HAR > India,Traditional Grocery,[object Object],28.5700013,77.226218,"1509/4, wazjir nagar,loar graund"
CENTRAL DRUG HOUSE,PH005034,Metro > ASE-GT-NCR-North > New Delhi > Delhi > North > New Delhi > NCR-HAR > India,Pharmacy,[object Object],28.6468341,77.0880366,"WZ-64A/1, OLD SAHIB PURA, TILAK NAGAR"
Satyam medicos,PH120458,Metro > ASE-GT-NCR-North > New Delhi > Delhi > North > New Delhi > NCR-HAR > India,Pharmacy,[object Object],28.7292032,77.2030643,Shop no-1 D-2 hardev nagar main
Ganga Medicos,WP002566,Metro > ASE-GT-NCR-East > New Delhi > Delhi > North > New Delhi > NCR-HAR > India,Wholesale Pharmacy,[object Object],28.6948017,77.2716456,"C-83, Gali No.-7, Mohan Puri, Delhi"
Goyal medi point,PH105951,Metro > ASE-GT-NCR-North > New Delhi > Delhi > North > New Delhi > NCR-HAR > India,Pharmacy,[object Object],28.61943264,77.05644719,Shop No -1 WZ-31 CITY MARKET ROAD
SONU GENERAL STORE,TG023105,Metro > ASE-GT-NCR-North > New Delhi > Delhi > North > New Delhi > NCR-HAR > India,Traditional Grocery,[object Object],28.6465701,77.1009338,WZ-47 PLOT NO 85
Peoples choice pharmacy,PH087017,Metro > ASE-GT-NCR-North > New Delhi > Delhi > North > New Delhi > NCR-HAR > India,Pharmacy,[object Object],28.6643096,77.0470744,WZ -73 A Mukharjee park
Ritesh pharmacy,PH094510,Metro > ASE-GT-NCR-South > New Delhi > Delhi > North > New Delhi > NCR-HAR > India,Pharmacy,[object Object],28.4991268,77.2511472,"Shop no.- D28/6, near lal kaun,"
Bhullar Pet Shop(ROA)-Silver,PS000539,Metro > ASE-SPT-NCR-East > New Delhi > Delhi > North > New Delhi > North Metro SPT > India,Petshop,[object Object],28.68210218,77.2989655,"B-14/A, STREET NO-5, BHAJANPURA,DELHI"
maryam store,DS018235,Metro > ASE-GT-NCR-South > New Delhi > Delhi > North > New Delhi > NCR-HAR > India,Super Grocery,[object Object],28.4991895,77.2509885,Zakir Nagar
Shubham Traders (C Block Prem Nagar),DS005002,Metro > ASE-GT-NCR-North > New Delhi > Delhi > North > New Delhi > NCR-HAR > India,MG Hypermarket,[object Object],28.6044257,76.9836594,"PLOT NO.1,C BLOCK PREM NAGAR PAPRAWAT ROADNAJAFGARH NEW DELHI-110043"
Arihant Medico(ROA),PH005079,Metro > ASE-GT-NCR-North > New Delhi > Delhi > North > New Delhi > NCR-HAR > India,Pharmacy,[object Object],28.6195618,77.0552958,"WZ-8,DAYAL SIR ROAD,UTTAM NGRNEW DELHI-59"
Customer Pharmacy,PH109962,Metro > ASE-GT-NCR-North > New Delhi > Delhi > North > New Delhi > NCR-HAR > India,Pharmacy,[object Object],28.6486551,77.1160012,"9A, New Moti Nagar"
Zehra medicos,PH053907,Metro > ASE-GT-NCR-South > New Delhi > Delhi > North > New Delhi > NCR-HAR > India,Pharmacy,[object Object],28.4991565,77.2509041,H.N.331 gali no 20 Zakir Nagar
Shree Medicos,PH111107,Metro > ASE-GT-NCR-North > New Delhi > Delhi > North > New Delhi > NCR-HAR > India,Pharmacy,[object Object],28.7466974,77.1947518,Gali no 04 Kamal Pur
HANDA MEDICAL STORE,PH056042,Metro > ASE-GT-NCR-North > New Delhi > Delhi > North > New Delhi > NCR-HAR > India,Pharmacy,[object Object],28.648757,77.13528,"3/21, SINGLE STOREY RAMESH NAGAR ND15"
Golden medicos,PH109402,Metro > ASE-GT-NCR-North > New Delhi > Delhi > North > New Delhi > NCR-HAR > India,Pharmacy,[object Object],28.6355879,77.0850109,Tilak Nagar
V.K General Store,TG022681,Metro > ASE-GT-NCR-North > New Delhi > Delhi > North > New Delhi > NCR-HAR > India,Traditional Grocery,[object Object],28.6486448,77.1160587,B-614
BVL Dawa Bazaar,PH111108,Metro > ASE-GT-NCR-North > New Delhi > Delhi > North > New Delhi > NCR-HAR > India,Pharmacy,[object Object],28.6486821,77.1160236,"Shop n 1,2 ramesh nagar"
Punit medical,PH109488,Metro > ASE-GT-NCR-North > New Delhi > Delhi > North > New Delhi > NCR-HAR > India,Pharmacy,[object Object],28.6958448,77.0814159,Shop no 5255/345 tri Nagar delhi 35
AAPKA DAWA BAZAR,PH046809,Metro > ASE-GT-NCR-North > New Delhi > Delhi > North > New Delhi > NCR-HAR > India,Pharmacy,[object Object],28.7436749,77.1979429,"SHOP NO. 122-7-2,BHAGAT COLONY SANT NGR. BURARI"
Jain medical,PH109487,Metro > ASE-GT-NCR-North > New Delhi > Delhi > North > New Delhi > NCR-HAR > India,Pharmacy,[object Object],28.6958629,77.0814115,5523 Jain sathanak road tri nagar delhi
OM MEDICAL STORE,PH064453,Metro > ASE-GT-NCR-South > New Delhi > Delhi > North > New Delhi > NCR-HAR > India,Pharmacy,[object Object],28.4946996,77.1894852,"Shop No -5A.H.No.-292,Rajpur Khurd New Delhi,-110068"
Lucky pet shop-Silver,PS022825,Metro > ASE-SPT-NCR-North-West 1 > New Delhi > Delhi > North > New Delhi > North Metro SPT > India,Petshop,[object Object],28.56847,77.23522,55 bhogal
All India pharmacy,PH101851,Metro > ASE-GT-NCR-South > New Delhi > Delhi > North > New Delhi > NCR-HAR > India,Pharmacy,[object Object],28.498551,77.1867055,"Svhop at ground floor, plot no-29"
Friends medicos,PH111141,Metro > ASE-GT-NCR-North > New Delhi > Delhi > North > New Delhi > NCR-HAR > India,Pharmacy,[object Object],28.6107908,77.1089226,F -28 ARYA SAMAJ ROAD UTTAM
city medicos,PH063118,Metro > ASE-GT-NCR-South > New Delhi > Delhi > North > New Delhi > NCR-HAR > India,Pharmacy,[object Object],28.5733809,77.2258652,941-1 kotal mubarakpur
Bismillah Medicos,PH061295,Metro > ASE-GT-NCR-East > New Delhi > Delhi > North > New Delhi > NCR-HAR > India,Pharmacy,[object Object],28.70496333,77.26453333,"B-15 Gali No,1Kabir Nagar Delhi"
Pet Grooming Centre-Silver,PS014959,Metro > ASE-SPT-NCR-North-West 2 > New Delhi > Delhi > North > New Delhi > North Metro SPT > India,Petshop,[object Object],28.67019977,77.14503988,"1\1, Moti Nagar, Near Metro station No -1, New Delhi -110015"
Devsans medical store,PH085644,Metro > ASE-GT-NCR-North > New Delhi > Delhi > North > New Delhi > NCR-HAR > India,Pharmacy,[object Object],28.6415382,77.0921724,13/38A Tilak Nagar
PRINCE MEDICOS,PH127946,Metro > ASE-GT-NCR-North > New Delhi > Delhi > North > New Delhi > NCR-HAR > India,Pharmacy,[object Object],28.6480674,77.0897271,SHOP NO 1 GROUND FLOOR
Hanvika medicos,PH127867,Metro > ASE-GT-NCR-South > New Delhi > Delhi > North > New Delhi > NCR-HAR > India,Pharmacy,[object Object],28.5023446,77.1870653,"Shop no 1, Chhatarpur enclave"
Akshara medicos,PH100815,Metro > ASE-GT-NCR-North > New Delhi > Delhi > North > New Delhi > NCR-HAR > India,Pharmacy,[object Object],28.6958284,77.0814256,"118/1, East moti bagh, delhi-07"
Dawai Ghar Medical,PH058836,Metro > ASE-GT-NCR-North > New Delhi > Delhi > North > New Delhi > NCR-HAR > India,Pharmacy,[object Object],28.7396572,77.1993175,"Shop.No.2 Gali No. 5A, Chandan Vihar, West Sant nagar Burari Delhi-110084"
Ripla pharmacy,PH127868,Metro > ASE-GT-NCR-South > New Delhi > Delhi > North > New Delhi > NCR-HAR > India,Pharmacy,[object Object],28.5023181,77.1868861,"Shop no 1,c-134, plot no.43/41,"
Goyal Medical Store(ROA),PH021454,Metro > ASE-GT-NCR-South > New Delhi > Delhi > North > New Delhi > NCR-HAR > India,Pharmacy,[object Object],28.5005308,77.1839205,Shop No 3 Chattarpur
KRISHNA MEDICOS,PH058480,Metro > ASE-GT-NCR-North > New Delhi > Delhi > North > New Delhi > NCR-HAR > India,Pharmacy,[object Object],28.611612,77.0697245,"Plot No-34,Bhagwati Garden Ext.Jain Road Uttam nagar"
SRI TRADING C0,TG020458,Metro > ASE-GT-NCR-North > New Delhi > Delhi > North > New Delhi > NCR-HAR > India,Traditional Grocery,[object Object],28.5908932,77.0020736,"Plot No. 1,MAIN goyala Dairy Road"
Healing Hub pharmacy,PH114825,Metro > ASE-GT-NCR-North > New Delhi > Delhi > North > New Delhi > NCR-HAR > India,Pharmacy,[object Object],28.611564,77.0698187,Plot no 50 old palam road kakrola
Chinu Pet Shop(ROA)-Platinum,PS006024,Metro > ASE-SPT-NCR-East > New Delhi > Delhi > North > New Delhi > North Metro SPT > India,Petshop,[object Object],28.68210218,77.2989655,612/B Chanderlok Main Mandoli Road Street No-5 Shahadra
Sangam medicos,PH109404,Metro > ASE-GT-NCR-North > New Delhi > Delhi > North > New Delhi > NCR-HAR > India,Pharmacy,[object Object],28.7411733,77.2026233,Ground floor kh- no-135/6 b block
Singhal medical,PH109486,Metro > ASE-GT-NCR-North > New Delhi > Delhi > North > New Delhi > NCR-HAR > India,Pharmacy,[object Object],28.6958245,77.0814265,Shop no 2766/246 Hansa puri tri
MAXKART FOOD RETAILS PVT LTD (Ganesh Nagar),DS011232,Metro > ASE-GT-NCR-North > New Delhi > Delhi > North > New Delhi > NCR-HAR > India,MG Hypermarket,[object Object],28.635859,77.0912012,"GF, A-103, OLD WZ-2, GANESH NAGAR, NR. SHIV BHOLA MANDIR, TILAK NAGAGR"
Shree Laxmi Medicos,PH111109,Metro > ASE-GT-NCR-North > New Delhi > Delhi > North > New Delhi > NCR-HAR > India,Pharmacy,[object Object],28.7410445,77.1960636,Shop no 1 A2 Block Gali no 22 Nehru
Sunshine Super Mart (Raghuvir Nagar),MGS003938,Metro > ASE-GT-NCR-North > New Delhi > Delhi > North > New Delhi > NCR-HAR > India,MG Supermarket,[object Object],28.6579028,77.113963,"C-474, Raghuvir Nagar, Rajouri"
RAMAN MEDICOS,PH088206,Metro > ASE-GT-NCR-North > New Delhi > Delhi > North > New Delhi > NCR-HAR > India,Pharmacy,[object Object],28.6394059,77.0874505,Shop no -112 MCD MKT 20 Block Tilak
Neelkanth medicos,PH109923,Metro > ASE-GT-NCR-South > New Delhi > Delhi > North > New Delhi > NCR-HAR > India,Pharmacy,[object Object],28.4954546,77.1914273,"D-57A,kg.no 25, gali no. 3, Rajpur"
BIG MART RETAIL SOLUTIONS PVT. LTD.(RAJNAGAR ll),DS011031,Metro > ASE-GT-NCR-North > New Delhi > Delhi > North > New Delhi > NCR-HAR > India,MG Supermarket,[object Object],28.5827484,77.088636,"20 A-1, Old Mehrauli Road , Raj Nagar-Ii, Palam Colony,New Delhi-77"
KUKREJA medicos,PH085645,Metro > ASE-GT-NCR-North > New Delhi > Delhi > North > New Delhi > NCR-HAR > India,Pharmacy,[object Object],28.6393822,77.0821699,G-7.8 vardhman plaza Vikas Puri
WHOLESALE BAZAAR,DS023017,Metro > ASE-GT-NCR-North > New Delhi > Delhi > North > New Delhi > NCR-HAR > India,Super Grocery,[object Object],28.6418599,77.0995184,33/1-A MUKHERJEE PARK EXTENSION
Ripla Pharmacy,PH052939,Metro > ASE-GT-NCR-South > New Delhi > Delhi > North > New Delhi > NCR-HAR > India,Pharmacy,[object Object],28.4927573,77.1803922,"134, khasra No.-278,Plot No.4341, Chattarpur Extn.,New Delhi-110074"
Yadav Pharmacy,PH057790,Metro > ASE-GT-NCR-South > New Delhi > Delhi > North > New Delhi > NCR-HAR > India,Pharmacy,[object Object],28.5028636,77.1838263,"ShopNo.1, GF,D-294-1, 60foot Road, Chattar pur, New Delhi-110074"
Hare krishna medicos,PH108796,Metro > ASE-GT-NCR-South > New Delhi > Delhi > North > New Delhi > NCR-HAR > India,Pharmacy,[object Object],28.5640444,77.2194457,455 lelaram market masjid moad
Satish Medical Store,PH109405,Metro > ASE-GT-NCR-North > New Delhi > Delhi > North > New Delhi > NCR-HAR > India,Pharmacy,[object Object],28.6487128,77.1160122,WZ-190 Basai Dara Pur
Janta medical store,PH088090,Metro > ASE-GT-NCR-North > New Delhi > Delhi > North > New Delhi > NCR-HAR > India,Pharmacy,[object Object],28.6115665,77.0698191,Plot no 1 Chandra park old palam
Om pharmacy,PH122804,Metro > ASE-GT-NCR-North > New Delhi > Delhi > North > New Delhi > NCR-HAR > India,Pharmacy,[object Object],28.5828468,77.088621,"Sector 8, palam colony Raj Nagar"
Balaji Mediocs,PH106533,Metro > ASE-GT-NCR-North > New Delhi > Delhi > North > New Delhi > NCR-HAR > India,Pharmacy,[object Object],28.6487147,77.1160107,F-40 kirti nagar
Bushra Medicose,PH094453,Metro > ASE-GT-NCR-East > New Delhi > Delhi > North > New Delhi > NCR-HAR > India,Pharmacy,[object Object],28.6922786,77.2830445,"1401-A, Near Rahishu Halwai,"
SATYAM MEDICOS,PH056034,Metro > ASE-GT-NCR-North > New Delhi > Delhi > North > New Delhi > NCR-HAR > India,Pharmacy,[object Object],28.6488042,77.1160465,"SHOP NO-4/10,RAMESH NAGAR NEW DELHI-15"
Pharmacy hut,PH102403,Metro > ASE-GT-NCR-North > New Delhi > Delhi > North > New Delhi > NCR-HAR > India,Pharmacy,[object Object],28.620846,77.0271445,One shop on G/F property no
Goyal Health Care Chemist,PH041487,Metro > ASE-GT-NCR-South > New Delhi > Delhi > North > New Delhi > NCR-HAR > India,Pharmacy,[object Object],28.4937971,77.1805137,"B-142,JVTS Garden,Chattpur Extension, New Delhi-110074"
Bharat medical,PH115104,Metro > ASE-GT-NCR-North > New Delhi > Delhi > North > New Delhi > NCR-HAR > India,Pharmacy,[object Object],28.6958548,77.0814113,Tri Nagar colony 12/17 new delhi
KIRAN MEDIWAYS,PH053359,Metro > ASE-GT-NCR-North > New Delhi > Delhi > North > New Delhi > NCR-HAR > India,Pharmacy,[object Object],28.6498437,77.1346982,57_A SHOPE NO 2 GROUND FLOOR SINGLE STORY RAMESH NAGAR NEW DELHI 110015
Bhatia Medical Agencies,PH109406,Metro > ASE-GT-NCR-North > New Delhi > Delhi > North > New Delhi > NCR-HAR > India,Pharmacy,[object Object],28.6486599,77.1159815,C-680A Sudershan Park
Bhoopati family store,TG021423,Metro > ASE-GT-NCR-South > New Delhi > Delhi > North > New Delhi > NCR-HAR > India,Traditional Grocery,[object Object],28.575006,77.2513555,S 70/ 24jal vihar near mother dairy
CROSS ROADS,MGS005320,Metro > ASE-GT-NCR-North > New Delhi > Delhi > North > New Delhi > NCR-HAR > India,MG Supermarket,[object Object],28.6902436,77.1580429,C7/169 G.F KESHAV PURAM
Divya medical store,PH100215,Metro > ASE-GT-NCR-North > New Delhi > Delhi > North > New Delhi > NCR-HAR > India,Pharmacy,[object Object],28.6115664,77.0698151,C_67 nawada housing complex
Shiv shakti medicos,PH122806,Metro > ASE-GT-NCR-North > New Delhi > Delhi > North > New Delhi > NCR-HAR > India,Pharmacy,[object Object],28.7291204,77.2051788,Shop no-2 plot no-19 gali no-4 hardev
Raju Dasr-Silver,PS018410,Metro > ASE-SPT-NCR-North-West 2 > New Delhi > Delhi > North > New Delhi > North Metro SPT > India,Petshop,[object Object],28.71306993,77.17933696,"B-26,A- Block kewal Park Shanti Marg,"
Ashirwad Enterprises(ROA),WG000302,Metro > ASE-GT-NCR-North > New Delhi > Delhi > North > New Delhi > NCR-HAR > India,Wholesale Grocery,[object Object],28.7395486,77.2008991,"Ground Floor , House No- 697, Gali No- 24, Sant Nagar , Burari"
Rachit Variety Store,DS014296,Metro > ASE-GT-NCR-South > New Delhi > Delhi > North > New Delhi > NCR-HAR > India,MG Supermarket,[object Object],28.4998782,77.1888272,"Chattarpur Enclave, Phase 2, A-273, Sangam Apartment, New Delhi-110074"
Vikas Medicos,PH111574,Metro > ASE-GT-NCR-North > New Delhi > Delhi > North > New Delhi > NCR-HAR > India,Pharmacy,[object Object],28.6419968,77.0993404,WZ 17 MUKHRAM PARK
Premi Medicos,PH126568,Metro > ASE-GT-NCR-North > New Delhi > Delhi > North > New Delhi > NCR-HAR > India,Pharmacy,[object Object],28.6387661,77.0866143,Tilak Nagar
Arhant medicos,PH089148,Metro > ASE-GT-NCR-South > New Delhi > Delhi > North > New Delhi > NCR-HAR > India,Pharmacy,[object Object],28.4878074,77.1914418,"114/1G Rajpur khurd Extn,"
HINDUSTAN MEDICOS,PH103376,Metro > ASE-GT-NCR-North > New Delhi > Delhi > North > New Delhi > NCR-HAR > India,Pharmacy,[object Object],28.6043397,76.983696,"Shop No-1, Ganpati Enclave, Paprawat"
Sagar Medical,PH059325,Metro > ASE-GT-NCR-North > New Delhi > Delhi > North > New Delhi > NCR-HAR > India,Pharmacy,[object Object],28.7418371,77.1938419,"Shop. No. 3 H. No. 365-13, Chanda Vihar kh. No 8-3, Sant Nagar Burari Delhi-110084"
Jai Durga medical,PH102405,Metro > ASE-GT-NCR-North > New Delhi > Delhi > North > New Delhi > NCR-HAR > India,Pharmacy,[object Object],28.6959076,77.0813752,"D 5 LSC Market, Vivekanand Puri,"
Kapoor Medicos,PH111111,Metro > ASE-GT-NCR-North > New Delhi > Delhi > North > New Delhi > NCR-HAR > India,Pharmacy,[object Object],28.6363599,77.0893866,A-184 Ganesh Nagar
GUPTA MEDICOS,PH052587,Metro > ASE-GT-NCR-South > New Delhi > Delhi > North > New Delhi > NCR-HAR > India,Pharmacy,[object Object],28.4958127,77.1873608,"Shop No.-3,Plot No.-22,Rajpur Road Opp Gurvil Farm,Near Tivoli Gardern Chattarpur,New Delhi-74"
SAI MEDICOS,PH079701,Metro > ASE-GT-NCR-South > New Delhi > Delhi > North > New Delhi > NCR-HAR > India,Pharmacy,[object Object],28.4940811,77.1805035,"A-80, Khasra No.825, Chattarpur"
Mahavir Medicos & Cosmetics,PH089278,Metro > ASE-GT-NCR-North > New Delhi > Delhi > North > New Delhi > NCR-HAR > India,Pharmacy,[object Object],28.7413168,77.1931201,Kh.no 146 Main road mukund pur
MEDI POINT MEDICINES & MORE,PH054918,Metro > ASE-GT-NCR-North > New Delhi > Delhi > North > New Delhi > NCR-HAR > India,Pharmacy,[object Object],28.6454227,77.0880203,WZ- 35B PRITHVI PARK M.B.S TILAK NAGAR
DAILY HUB SUPER MART,MGS01841,Metro > ASE-GT-NCR-North > New Delhi > Delhi > North > New Delhi > NCR-HAR > India,MG Supermarket,[object Object],28.6115602,77.0698222,"A-118,Atul Chowk, Bhagvati Garden Ext Dwarka more"
PREMIUM PET CARE & FOOD CENTRE-Silver,PS009871,Metro > ASE-SPT-NCR-East > New Delhi > Delhi > North > New Delhi > North Metro SPT > India,Petshop,[object Object],28.68210218,77.2989655,"A-116 ,ASHOK NAGAR ,SAHADARA ,DELHI-07"
BRIJ SUPER STORE,TG004822,Metro > ASE-GT-NCR-South > New Delhi > Delhi > North > New Delhi > NCR-HAR > India,MG Supermarket,[object Object],28.5366102,77.2012966,"SHOP NO.18 AND 19, QUARTER NO.61 PLOT NO.3, BENGALI MARKET, Central Delhi-01"
Mb Medicos(ROA),PH030769,Metro > ASE-GT-NCR-North > New Delhi > Delhi > North > New Delhi > NCR-HAR > India,Pharmacy,[object Object],28.6672533,77.1906467,Shop No.203 Main Road  Padam Ngr.Kishan Ganj
Kant Medicos,PH111112,Metro > ASE-GT-NCR-North > New Delhi > Delhi > North > New Delhi > NCR-HAR > India,Pharmacy,[object Object],28.6483242,77.1291437,Shop no 44 ramesh nagar
WE CHEMIST,PH057909,Metro > ASE-GT-NCR-South > New Delhi > Delhi > North > New Delhi > NCR-HAR > India,Pharmacy,[object Object],28.5021477,77.1857839,"Shop No.-2,KH.No.-164,Vill. Asola Fatehpur Beri,Near Pipal Chowk,New Delhi-74"
NIRMAL HEALTHCARE PHARMACY,PH022164,Metro > ASE-GT-NCR-North > New Delhi > Delhi > North > New Delhi > NCR-HAR > India,Pharmacy,[object Object],28.6185344,77.029852,"PLOT NO.335,KAKROLA HOUSHING COMPLEXUTTAM NAGAR,NEW DELHI-59"
Mannat pharmacy,WP002574,Metro > ASE-GT-NCR-East > New Delhi > Delhi > North > New Delhi > NCR-HAR > India,Wholesale Pharmacy,[object Object],28.6942476,77.2913145,"S.no.189/3, near Sanjay chowk,main"
GOOD LIFE PHARMACY,PH085958,Metro > ASE-GT-NCR-North > New Delhi > Delhi > North > New Delhi > NCR-HAR > India,Pharmacy,[object Object],28.5908804,77.002071,"Plot no , - B2/1-C, shyam vihar,"
SAI CHEMIST,PH062277,Metro > ASE-GT-NCR-North > New Delhi > Delhi > North > New Delhi > NCR-HAR > India,Pharmacy,[object Object],28.6488078,77.1160474,"FA-292 , MANSAROVAR GARDEN DELHI 15"
Meri Dawai Bala,PH093787,Metro > ASE-GT-NCR-South > New Delhi > Delhi > North > New Delhi > NCR-HAR > India,Pharmacy,[object Object],28.4937964,77.180731,"Shop no-2,A-88,kh.no-826,Suman"
MAHALAXMI STORE,DS018836,Metro > ASE-GT-NCR-North > New Delhi > Delhi > North > New Delhi > NCR-HAR > India,Super Grocery,[object Object],28.5952153,77.003349,A-138 25- FOOTA ROAD SHYAM VIHAR
DEVSONS MEDICOS,PH120464,Metro > ASE-GT-NCR-North > New Delhi > Delhi > North > New Delhi > NCR-HAR > India,Pharmacy,[object Object],28.6469621,77.0874046,WZ 7/A 137 OLD SAHIBPURA PURA
Shubham medical,PH106537,Metro > ASE-GT-NCR-North > New Delhi > Delhi > North > New Delhi > NCR-HAR > India,Pharmacy,[object Object],28.6959144,77.0813872,"296/2 padam nagar Sarai Rohilla, new"
S.G.medicos,PH093404,Metro > ASE-GT-NCR-South > New Delhi > Delhi > North > New Delhi > NCR-HAR > India,Pharmacy,[object Object],28.4893744,77.1875602,"S no 1, kh.no81,Hargobind Enclave"
RN MEDICOS Rajpuri,PH129466,Metro > ASE-GT-NCR-North > New Delhi > Delhi > North > New Delhi > NCR-HAR > India,Pharmacy,[object Object],28.6177589,77.0542366,F-28 SHOP NO -04 GALI NO 14 MAIN
Ibrahim medicos,WP002922,Metro > ASE-GT-NCR-East > New Delhi > Delhi > North > New Delhi > NCR-HAR > India,Wholesale Pharmacy,[object Object],28.6912544,77.2833444,"B-Block, Gali No.-1  Kabir Nagar Delhi"
JAGDMBA MEDICOS,PH108791,Metro > ASE-GT-NCR-South > New Delhi > Delhi > North > New Delhi > NCR-HAR > India,Pharmacy,[object Object],28.4986823,77.1928337,Main market maindan garhi
Max medicos,PH101144,Metro > ASE-GT-NCR-East > New Delhi > Delhi > North > New Delhi > NCR-HAR > India,Pharmacy,[object Object],28.6942289,77.291361,"S no.1030,gali no.12, main 25 futa"
Nitin medikos,PH103992,Metro > ASE-GT-NCR-North > New Delhi > Delhi > North > New Delhi > NCR-HAR > India,Pharmacy,[object Object],28.640701,77.0879681,Tilak Nagar new Delhi
A.K Medicos,PH098570,Metro > ASE-GT-NCR-North > New Delhi > Delhi > North > New Delhi > NCR-HAR > India,Pharmacy,[object Object],28.7406262,77.1909468,A-169 Harit vihar Gali no -02 Sant
Grocery mart,MGS006441,Metro > ASE-GT-NCR-South > New Delhi > Delhi > North > New Delhi > NCR-HAR > India,MG Supermarket,[object Object],28.5318305,77.3114149,Plot no1 ground floor 60ft road
Arsh medicos,PH126567,Metro > ASE-GT-NCR-North > New Delhi > Delhi > North > New Delhi > NCR-HAR > India,Pharmacy,[object Object],28.7360809,77.2076205,Shop no-1 kh no-16/2 Shani bazar
All India Medical Store,PH115745,Metro > ASE-GT-NCR-East > New Delhi > Delhi > North > New Delhi > NCR-HAR > India,Pharmacy,[object Object],28.6928741,77.2828385,"H. No. -3 Sani Bazar, Kabir Nagar,"
Deepak Medicos,PH105942,Metro > ASE-GT-NCR-North > New Delhi > Delhi > North > New Delhi > NCR-HAR > India,Pharmacy,[object Object],28.6037339,77.0567736,K -16A som Bazar road Raja puri
FAMILY BAZAAR,DS001162,Metro > ASE-GT-NCR-South > New Delhi > Delhi > North > New Delhi > NCR-HAR > India,MG Supermarket,[object Object],28.4924025,77.1803698,"E-53/1,CHATTARPUR EXT. SUMAN CHOWK"
Ganpati Pharmacy,PH114826,Metro > ASE-GT-NCR-North > New Delhi > Delhi > North > New Delhi > NCR-HAR > India,Pharmacy,[object Object],28.5828813,77.0886263,"Shop No,3,kh, No,44/1/4,Raj Nagar"
Petpai Technology Private Limited-Silver,PS019537,Metro > ASE-SPT-NCR-South-West > Ncr > Delhi > North > New Delhi > North Metro SPT > India,Clinic,[object Object],28.6667059,77.0990908,"Ground Floor, Plot  No.24, Commercial"
Homeopathic Pharmacy,PH110746,Metro > ASE-GT-NCR-North > New Delhi > Delhi > North > New Delhi > NCR-HAR > India,Pharmacy,[object Object],28.7397891,77.1976847,Rani public school wali gali Sant
GIRIRAJ NAMKEEN BHANDAR,TG023106,Metro > ASE-GT-NCR-North > New Delhi > Delhi > North > New Delhi > NCR-HAR > India,Traditional Grocery,[object Object],28.6485186,77.0872035,GALI NO 9 GURU NANAK NAGAR
Life care pharma,PH106781,Metro > ASE-GT-NCR-South > New Delhi > Delhi > North > New Delhi > NCR-HAR > India,Pharmacy,[object Object],28.5732108,77.2259465,"Shop no.941, Arjun Nagar, nehru road,"
Midha+Care,PH109964,Metro > ASE-GT-NCR-North > New Delhi > Delhi > North > New Delhi > NCR-HAR > India,Pharmacy,[object Object],28.6486527,77.1160235,F-64 Shop No1 Moti Nagar
Rajendra medicos,PH042738,Metro > ASE-GT-NCR-North > New Delhi > Delhi > North > New Delhi > NCR-HAR > India,Pharmacy,[object Object],28.5828096,77.0885855,"WZ-45,OLD MEHRAULY ROAD,RAJ NAGAR 11,PALAM COLONY"
GEM,IN000517,Metro > ASE-SPT-NCR-North-West 1 > New Delhi > Delhi > North > New Delhi > North Metro SPT > India,Institution,[object Object],28.5835485,77.2267276,68\20 chhitwapur pazawa
HANS SUPER MART,MGS01583,Metro > ASE-GT-NCR-North > New Delhi > Delhi > North > New Delhi > NCR-HAR > India,MG Supermarket,[object Object],28.6115661,77.0698138,plot no -13 Mohit nagar kakrola mor dwarka
Varma Medicos,PH102407,Metro > ASE-GT-NCR-North > New Delhi > Delhi > North > New Delhi > NCR-HAR > India,Pharmacy,[object Object],28.5827998,77.0886001,"RZ-H-A-57,Chhotu Ram Marg,"
National Medicos,PH089280,Metro > ASE-GT-NCR-North > New Delhi > Delhi > North > New Delhi > NCR-HAR > India,Pharmacy,[object Object],28.7418428,77.1902938,Near shiv mandir Mukund pur
Friends Medicos,PH108391,Metro > ASE-GT-NCR-East > New Delhi > Delhi > North > New Delhi > NCR-HAR > India,Pharmacy,[object Object],28.692286,77.2830151,"K-133/325, Maujpur, 100 foota"
Taj Medicos,WP002567,Metro > ASE-GT-NCR-East > New Delhi > Delhi > North > New Delhi > NCR-HAR > India,Wholesale Pharmacy,[object Object],28.6962904,77.271304,"C-227/7,2-3, Yamuna Vihar"
Goyal medi point,PH105952,Metro > ASE-GT-NCR-North > New Delhi > Delhi > North > New Delhi > NCR-HAR > India,Pharmacy,[object Object],28.6194283,77.0564416,Shop No -1 WZ-31 CITY MARKET ROAD
BAJRANG COMPANY,PH005078,Metro > ASE-GT-NCR-North > New Delhi > Delhi > North > New Delhi > NCR-HAR > India,Pharmacy,[object Object],28.6173808,77.0539543,T-4 SUKKAR BAJAR UTTAM NAGAR
The Grocery Corner,DS017212,Metro > ASE-GT-NCR-North > New Delhi > Delhi > North > New Delhi > NCR-HAR > India,MG Supermarket,[object Object],28.6201637,77.0311696,"Plot No-5,A-33&34,Jain Road, Bhagwati Garden, Near Dwarka Mor, Uttam Nagar-110059"
Your Health Plus Pharmacy,PH041804,Metro > ASE-GT-NCR-South > New Delhi > Delhi > North > New Delhi > NCR-HAR > India,Pharmacy,[object Object],28.4985716,77.185699,"SNO-2,CRS BUILDING, KH NO2/1,CDR CHOWK, CHATTARPUR"
R s Gupta general Store,TG020466,Metro > ASE-GT-NCR-South > New Delhi > Delhi > North > New Delhi > NCR-HAR > India,Traditional Grocery,[object Object],28.4990978,77.2509047,Hno 39 jalam mohalla
M.H.Medicos,WP002568,Metro > ASE-GT-NCR-East > New Delhi > Delhi > North > New Delhi > NCR-HAR > India,Wholesale Pharmacy,[object Object],28.6962048,77.2713165,"Shop no.-1,Gali no.-17, north Gondha"
Bharat Medicos,PH089281,Metro > ASE-GT-NCR-North > New Delhi > Delhi > North > New Delhi > NCR-HAR > India,Pharmacy,[object Object],28.7410867,77.2052083,Gali no 3 som bazar road mukund pur
Shri Gupta store,TG023021,Metro > ASE-GT-NCR-North > New Delhi > Delhi > North > New Delhi > NCR-HAR > India,Traditional Grocery,[object Object],28.6381855,77.0866012,A-150 Ganesh Nagar
Saifi Pharmacy,PH129444,Metro > ASE-GT-NCR-East > New Delhi > Delhi > North > New Delhi > NCR-HAR > India,Pharmacy,[object Object],28.69215,77.28245,"D-1047, Gali no-4 , Kabir Nagar Delhi"
Life care medicos,PH101145,Metro > ASE-GT-NCR-East > New Delhi > Delhi > North > New Delhi > NCR-HAR > India,Pharmacy,[object Object],28.6942099,77.2913425,"Plot no.237,gali no.4,moong Nagar"
Bala ji store,DS019217,Metro > ASE-GT-NCR-North > New Delhi > Delhi > North > New Delhi > NCR-HAR > India,Super Grocery,[object Object],28.6117341,77.0569064,"Rz B,-Raja Puri, Uttam Nagar"
HARIOM MEDICAL STORE 2,PH090637,Metro > ASE-GT-NCR-North > New Delhi > Delhi > North > New Delhi > NCR-HAR > India,Pharmacy,[object Object],28.5963545,77.0033977,"Shyam vihar, 25 feeta Road"
AGGARWAL MEDICAL STORE,WP002659,Metro > ASE-GT-NCR-South > New Delhi > Delhi > North > New Delhi > NCR-HAR > India,Wholesale Pharmacy,[object Object],28.5016005,77.1827639,"KH No-311/2,Main Road, Chattarpur"
ARJUN MEDICOS,PH104092,Metro > ASE-GT-NCR-South > New Delhi > Delhi > North > New Delhi > NCR-HAR > India,Pharmacy,[object Object],28.4687888,77.1870305,"Shop No-1 ,Chandan Hulla"
Om Pharmacy,PH111120,Metro > ASE-GT-NCR-North > New Delhi > Delhi > North > New Delhi > NCR-HAR > India,Pharmacy,[object Object],28.7411842,77.2026923,Chauhan Chowk Sant Nagar
SOLUTION WORLD,TS001348,Metro > ASE-GT-NCR-North > New Delhi > Delhi > North > New Delhi > NCR-HAR > India,Traditional Grocery,[object Object],28.6469028,77.0914724,H-55 SANT NAGAR Extension
JAGDAMBA STORE,TG023107,Metro > ASE-GT-NCR-North > New Delhi > Delhi > North > New Delhi > NCR-HAR > India,Traditional Grocery,[object Object],28.6484889,77.0872106,WZ-35/A  GURU NANAK NAGAR
Medicyl Pharma,PH059414,Metro > ASE-GT-NCR-East > New Delhi > Delhi > North > New Delhi > NCR-HAR > India,Pharmacy,[object Object],28.7006353,77.2739507,"B-5, 352 Yamuna Vihar Delhi 110053"
Dog Walk-Gold,PS009280,Metro > ASE-SPT-NCR-North-West 1 > New Delhi > Delhi > North > New Delhi > North Metro SPT > India,Petshop,[object Object],28.5808093,77.2386535,Shop no 258 Defense colony flyover market Delhi 110024
SUPER BAZAAR,DS022376,Metro > ASE-GT-NCR-South > New Delhi > Delhi > North > New Delhi > NCR-HAR > India,Super Grocery,[object Object],28.4920587,77.180456,Jtv garden chattarpur
TEJAS MEDICOS,PH090638,Metro > ASE-GT-NCR-North > New Delhi > Delhi > North > New Delhi > NCR-HAR > India,Pharmacy,[object Object],28.6519495,77.1147567,B-111 GF
CHAMAN MEDICAL STORE,PH054932,Metro > ASE-GT-NCR-North > New Delhi > Delhi > North > New Delhi > NCR-HAR > India,Pharmacy,[object Object],28.6469658,77.088435,SHOP NO 82 GALI NO 8 SAHIB PURA TILAK NAGAR
GET WELL SOON CHEMIST,PH033300,Metro > ASE-GT-NCR-North > New Delhi > Delhi > North > New Delhi > NCR-HAR > India,Pharmacy,[object Object],28.6063322,76.9864011,RZ49 KHASRA NO.503 OPP.STATE BANKGURGAON ROAD NAZAFGARH
Rakesh medical,PH101850,Metro > ASE-GT-NCR-South > New Delhi > Delhi > North > New Delhi > NCR-HAR > India,Pharmacy,[object Object],28.495428,77.1804612,E146 chattarpur exn
Goel Medicos(ROA),PH004803,Metro > ASE-GT-NCR-North > New Delhi > Delhi > North > New Delhi > NCR-HAR > India,Pharmacy,[object Object],28.6806615,77.1638969,"3754, Main Road , Kanhiya Nagar , Tri Nagar110035"
OMI Medicos,PH087019,Metro > ASE-GT-NCR-North > New Delhi > Delhi > North > New Delhi > NCR-HAR > India,Pharmacy,[object Object],28.7474826,77.1963081,Shop no 2 Lal Dora Swastik Apptment
NEELKANTH DRUG HOUSE,PH090639,Metro > ASE-GT-NCR-North > New Delhi > Delhi > North > New Delhi > NCR-HAR > India,Pharmacy,[object Object],28.6377855,77.0933945,Shop no -2A 23/20 B Tilak Nagar
Pal Medicos(ROA),PH030920,Metro > ASE-GT-NCR-North > New Delhi > Delhi > North > New Delhi > NCR-HAR > India,Pharmacy,[object Object],28.6091165,77.0246606,"B-272, Bharat Vihar, Kakrola, Near Shiv Mandir, New Delhi-78"
National Medicos,WP002925,Metro > ASE-GT-NCR-East > New Delhi > Delhi > North > New Delhi > NCR-HAR > India,Wholesale Pharmacy,[object Object],28.6949374,77.2846714,"F-46, Shani Bazar Chowk Kabir Nagar"
Shubham medicos,PH103340,Metro > ASE-GT-NCR-South > New Delhi > Delhi > North > New Delhi > NCR-HAR > India,Pharmacy,[object Object],28.4985255,77.1891414,Chattarpur enclave
Ridhima Medicos,PH063267,Metro > ASE-GT-NCR-South > New Delhi > Delhi > North > New Delhi > NCR-HAR > India,Pharmacy,[object Object],28.4998797,77.1888077,"A-272, Chattar pur enclave, Phase-2 Near Rachit Variety Store, New Delhi-110068"
Dava Bazar ( Raja puri,PH105943,Metro > ASE-GT-NCR-North > New Delhi > Delhi > North > New Delhi > NCR-HAR > India,Pharmacy,[object Object],28.6149769,77.0593309,Shop no-1 Raja puri road Near Shanti
AAPKA BUDGET BAZAR,MGS02717,Metro > ASE-GT-NCR-North > New Delhi > Delhi > North > New Delhi > NCR-HAR > India,MG Supermarket,[object Object],28.7359132,77.1977933,"kh.no. 19-4,A.1 Block,Sant Nagar Extn , Burari Delhi -110084"
AYUSH MEDICOS,PH129489,Metro > ASE-GT-NCR-North > New Delhi > Delhi > North > New Delhi > NCR-HAR > India,Pharmacy,[object Object],28.5909683,76.9931153,Main Shyam Vihar Chowk Dinpur Road
VISHAL MEDICAL HALL,PH111121,Metro > ASE-GT-NCR-North > New Delhi > Delhi > North > New Delhi > NCR-HAR > India,Pharmacy,[object Object],28.6527528,77.0956003,WZ-5A/88 VISHNU GARDEN
Aggarwal Medical,PH059502,Metro > ASE-GT-NCR-North > New Delhi > Delhi > North > New Delhi > NCR-HAR > India,Pharmacy,[object Object],28.7467489,77.1939533,"Shop no. G. F H. No. A-79, Kh. No 11-7-2, gali No. 8 Block A, Kamal pur, Burari Delhi-110084"
PURWANCHAL DAWA BAZAR,PH057182,Metro > ASE-GT-NCR-North > New Delhi > Delhi > North > New Delhi > NCR-HAR > India,Pharmacy,[object Object],28.7376742,77.1955905,"B-Block, Himgiri Enclave, Near by Pepsi Road, Burari"
Hifi Chemist(ROA),PH033066,Metro > ASE-GT-NCR-South > New Delhi > Delhi > North > New Delhi > NCR-HAR > India,Pharmacy,[object Object],28.4937971,77.1805137,Chhatarpur Extention
Mahendra Medico(ROA),PH005426,Metro > ASE-GT-NCR-North > New Delhi > Delhi > North > New Delhi > NCR-HAR > India,Pharmacy,[object Object],28.6191843,77.0303196,"Shop No. 3,4, kh. No. 173, 174 , Molhadi wali piao, Uttam nagar, New Delhi -110059(Metro Pillar no. 788)"
Life Care Chemist,PH111113,Metro > ASE-GT-NCR-North > New Delhi > Delhi > North > New Delhi > NCR-HAR > India,Pharmacy,[object Object],28.7418703,77.1929289,Shop no 3 kh no 18/2 Main Road
FAMILY MART,MGS07993,Metro > ASE-GT-NCR-North > New Delhi > Delhi > North > New Delhi > NCR-HAR > India,MG Supermarket,[object Object],28.5910151,76.9980472,Plot No A 1 Graund Floor Khasra No
R.D. DEPARTMENTAL STORE,MGS01760,Metro > ASE-GT-NCR-North > New Delhi > Delhi > North > New Delhi > NCR-HAR > India,MG Supermarket,[object Object],28.5921649,77.0033519,"H.NO. 19, BLOCK -C KH. NO 190-2, SHYAM VIHAR"
Ashutosh Medicos,PH111039,Metro > ASE-GT-NCR-North > New Delhi > Delhi > North > New Delhi > NCR-HAR > India,Pharmacy,[object Object],28.7483461,77.1938537,25futa road Kamal Pur
M D PHARMACY,PH117214,Metro > ASE-GT-NCR-North > New Delhi > Delhi > North > New Delhi > NCR-HAR > India,Pharmacy,[object Object],28.6448357,77.0877575,WZ -7A/2 PLOT NO 13
Shree  Laxmi Narayan chemist,PH120263,Metro > ASE-GT-NCR-South > New Delhi > Delhi > North > New Delhi > NCR-HAR > India,Pharmacy,[object Object],28.4875687,77.190002,"S.no-1,plot no-79,kg,no-103-104,"
kansal Enterprises-Gold,PS014875,Metro > ASE-SPT-NCR-North-West 1 > New Delhi > Delhi > North > New Delhi > North Metro SPT > India,Petshop,[object Object],28.5085346,77.2372667,265-17 Karnal Farm Tigri New Delhi-110062
Better U pharmacy,PH088826,Metro > ASE-GT-NCR-South > New Delhi > Delhi > North > New Delhi > NCR-HAR > India,Pharmacy,[object Object],28.498175,77.1820272,"Shop no 1 GF H. No 139,140 vill"
SUPER STORE,MGS02558,Metro > ASE-GT-NCR-North > New Delhi > Delhi > North > New Delhi > NCR-HAR > India,MG Supermarket,[object Object],28.6486307,77.1161191,"E-77 KIRTI NAGAR ,NEW DELHI 110015"
Rawat medicos,PH097764,Metro > ASE-GT-NCR-South > New Delhi > Delhi > North > New Delhi > NCR-HAR > India,Pharmacy,[object Object],28.5008252,77.2839562,Nearby Shah departmental store
Pragati mega mart,MGS07991,Metro > ASE-GT-NCR-North > New Delhi > Delhi > North > New Delhi > NCR-HAR > India,MG Supermarket,[object Object],28.6755553,77.1823514,"C-6/4, keshav Puram delhi-35"
Aggarwal Medical Store Pvt.Ltd.,PH005170,Metro > ASE-GT-NCR-South > New Delhi > Delhi > North > New Delhi > NCR-HAR > India,Pharmacy,[object Object],28.5015421,77.1827834,"SNO-5,HNO.311/12,MAIN ROAD,CHATTARPUR"
MUKESH FISH AQUARIUM & PET SHOP-Silver,PS010827,Metro > ASE-SPT-NCR-North-West 2 > New Delhi > Delhi > North > New Delhi > North Metro SPT > India,Petshop,[object Object],28.550672,77.23494125,"shop , 15 guru nanak market moti nagar new delhi -110085"
GURUKRIPA MEDICOS,PH124210,Metro > ASE-GT-NCR-North > New Delhi > Delhi > North > New Delhi > NCR-HAR > India,Pharmacy,[object Object],28.6148542,77.0530671,"SHOP NO ,2 RZ-T-213A SHUKKAR"
Manju shree pharmacy,PH127943,Metro > ASE-GT-NCR-North > New Delhi > Delhi > North > New Delhi > NCR-HAR > India,Pharmacy,[object Object],28.6115707,77.0698142,Shop no 2 plot no 18 kakrola housing
Maan chemist cosmetic,PH124174,Metro > ASE-GT-NCR-South > New Delhi > Delhi > North > New Delhi > NCR-HAR > India,Pharmacy,[object Object],28.4952744,77.1893435,"H.no-164, shop no -4, men market"
k.G.N medicos,PH054658,Metro > ASE-GT-NCR-South > New Delhi > Delhi > North > New Delhi > NCR-HAR > India,Pharmacy,[object Object],28.499205,77.2509154,Jasola
Malik chemist,PH127854,Metro > ASE-GT-NCR-South > New Delhi > Delhi > North > New Delhi > NCR-HAR > India,Pharmacy,[object Object],28.4990236,77.1867402,Chhatarpur enclave phase 2
Laxmi Narayan medicos,PH102613,Metro > ASE-GT-NCR-South > New Delhi > Delhi > North > New Delhi > NCR-HAR > India,Pharmacy,[object Object],28.5772828,77.2212472,"242,Ali Ganj, Kotla Mubarakpur"
WE CHEMIST MART,PH064454,Metro > ASE-GT-NCR-South > New Delhi > Delhi > North > New Delhi > NCR-HAR > India,Pharmacy,[object Object],28.4575216,77.1841534,"B-310 ,Main 100 Ft Raod Chattarpur,Near Kanwar Shing Tanwar Office New Delhi-74"
Krishna medical,PH115105,Metro > ASE-GT-NCR-North > New Delhi > Delhi > North > New Delhi > NCR-HAR > India,Pharmacy,[object Object],28.695848,77.081409,Main market 15/22 kanhaiya nagar
Santi medicos,PH102533,Metro > ASE-GT-NCR-South > New Delhi > Delhi > North > New Delhi > NCR-HAR > India,Pharmacy,[object Object],28.4893225,77.1882388,"N-43/10, shop No-3, Hargovind"
SHREE BALAJI STORE,DS012058,Metro > ASE-GT-NCR-South > New Delhi > Delhi > North > New Delhi > NCR-HAR > India,Super Grocery,[object Object],28.4920812,77.1804545,"B175,BIRLA FARM CHATTRPUR EXT. OPP JBTS GARDEN"
Shiv pharmacy,PH124211,Metro > ASE-GT-NCR-North > New Delhi > Delhi > North > New Delhi > NCR-HAR > India,Pharmacy,[object Object],28.6958501,77.0814346,3255/12 Kanhaiya Nagar main market
Sharma Medicos(ROA),PH004814,Metro > ASE-GT-NCR-North > New Delhi > Delhi > North > New Delhi > NCR-HAR > India,Pharmacy,[object Object],28.6958299,77.0814269,3761/1  Kanhaiya Nagar   Tri Nagar110035
V.K Store,PH104151,Metro > ASE-GT-NCR-North > New Delhi > Delhi > North > New Delhi > NCR-HAR > India,Pharmacy,[object Object],28.643932,77.026674,Gali no 11 Chandan vihar Nehru Vihar
Shri shyam medicos,PH109920,Metro > ASE-GT-NCR-South > New Delhi > Delhi > North > New Delhi > NCR-HAR > India,Pharmacy,[object Object],28.4950764,77.1914028,"Shop no 1, ground floor,kh no.40,"
JAGDAMBA DAIRY,TG023108,Metro > ASE-GT-NCR-North > New Delhi > Delhi > North > New Delhi > NCR-HAR > India,Traditional Grocery,[object Object],28.6492874,77.0872341,Wz-159 SHAHPURA
KATYAL PHARMA,PH059548,Metro > ASE-GT-NCR-North > New Delhi > Delhi > North > New Delhi > NCR-HAR > India,Pharmacy,[object Object],28.6366875,77.0903337,"53A, SHOP NO. 3-4 ,TILAK NAGAR"
D. L. Retail,DS021601,Metro > ASE-GT-NCR-South > New Delhi > Delhi > North > New Delhi > NCR-HAR > India,Super Grocery,[object Object],28.4985965,77.1920363,B. 292 Chatterpur madangiri
Aadayae-Silver,PS018451,Metro > ASE-SPT-NCR-North-West 1 > New Delhi > Delhi > North > New Delhi > North Metro SPT > India,Petshop,[object Object],28.50172453,77.24524772,"F-2/51A,SANGAM VIHAR,NEW DELHI-"
Nature Food Store,DS014991,Metro > ASE-GT-NCR-South > New Delhi > Delhi > North > New Delhi > NCR-HAR > India,MG Supermarket,[object Object],28.4568075,77.1837405,"H.No.126,Village Asola,Fathepur Beri,New Delhi-110074"
PRAKARTI MEDICOS,PH102545,Metro > ASE-GT-NCR-South > New Delhi > Delhi > North > New Delhi > NCR-HAR > India,Pharmacy,[object Object],28.499545,77.1827553,Tyagi mohalla chattarpur
Khushhali medical store,PH116872,Metro > ASE-GT-NCR-East > New Delhi > Delhi > North > New Delhi > NCR-HAR > India,Pharmacy,[object Object],28.712363,77.2709899,"Nehru vihar gali no 18,"
ANIL MEDICOS <A0063>,PH041125,Metro > ASE-GT-NCR-North > New Delhi > Delhi > North > New Delhi > NCR-HAR > India,Pharmacy,[object Object],28.5827877,77.0886126,"WZ-743,A-DADA DEV MANDIR ROADPALAM NEW DELHI-1100455362494,"
Apna Chemist,PH005065,Metro > ASE-GT-NCR-North > New Delhi > Delhi > North > New Delhi > NCR-HAR > India,Pharmacy,[object Object],28.5826984,77.0887501,"RZF 907/30,Raj Nagar-ll,Friday Market,Palam Colony,Dwarka,Sec-8,Delhi-110077"
Balaji medicos,PH102410,Metro > ASE-GT-NCR-North > New Delhi > Delhi > North > New Delhi > NCR-HAR > India,Pharmacy,[object Object],28.6115619,77.069808,Tara nagar kakrola more near by
ANANDA CHEMIST,PH086306,Metro > ASE-GT-NCR-South > New Delhi > Delhi > North > New Delhi > NCR-HAR > India,Pharmacy,[object Object],28.4936376,77.1844131,"819, Chattarpur Main Road,New  0"
Amit medicose,PH114827,Metro > ASE-GT-NCR-North > New Delhi > Delhi > North > New Delhi > NCR-HAR > India,Pharmacy,[object Object],28.73084,77.20747,40 zaroda mazra birari
RAAJDHANI MEDICOS,PH102584,Metro > ASE-GT-NCR-South > New Delhi > Delhi > North > New Delhi > NCR-HAR > India,Pharmacy,[object Object],28.5014952,77.1827475,Chattarpur main road
APNA BAZAR (Dinpur),DS001254,Metro > ASE-GT-NCR-North > New Delhi > Delhi > North > New Delhi > NCR-HAR > India,MG Supermarket,[object Object],28.5912317,76.99543,MAIN DIN PUR NEAR PUNJAB & SIND BANK
APNA BAZAR (Shyam Vihar),DS001255,Metro > ASE-GT-NCR-North > New Delhi > Delhi > North > New Delhi > NCR-HAR > India,MG Supermarket,[object Object],28.5908386,77.002223,SHYAM VIHAR-PHASE-2 KH.204
BLD Medicos,WP000903,Metro > ASE-GT-NCR-North > New Delhi > Delhi > North > New Delhi > NCR-HAR > India,Wholesale Pharmacy,[object Object],28.6571164,77.2349179,"1st Floor,  1594-1-2, Mj Building, Bhagirath Palace, Del-110006"
Vikas Fish Aqu.(ROA)-Silver,PS000633,Metro > ASE-SPT-NCR-North-West 2 > New Delhi > Delhi > North > New Delhi > North Metro SPT > India,Petshop,[object Object],28.67019977,77.14503988,A 37 NEW MOTI NAGAR
KAPOOR MEDICOS,PH056054,Metro > ASE-GT-NCR-North > New Delhi > Delhi > North > New Delhi > NCR-HAR > India,Pharmacy,[object Object],28.648535,77.1162733,"F-299, NR. HARI OM MEDICOS RAMESH NAGAR"
Shama Medicos,PH105944,Metro > ASE-GT-NCR-North > New Delhi > Delhi > North > New Delhi > NCR-HAR > India,Pharmacy,[object Object],28.6127506,77.0587711,C-45 Shop No -1 Sanjay enclave
Giriraj Medicos,PH106542,Metro > ASE-GT-NCR-North > New Delhi > Delhi > North > New Delhi > NCR-HAR > India,Pharmacy,[object Object],28.5827754,77.0886484,"Rzf-217, Raj Nagar Paat 2 palam"
GUPTA PHARMACY,PH126572,Metro > ASE-GT-NCR-North > New Delhi > Delhi > North > New Delhi > NCR-HAR > India,Pharmacy,[object Object],28.61952949,77.05742091,L-18 SHOP NO -2 BAL UDHYAN MARG
Siddiqui medicos,PH127781,Metro > ASE-GT-NCR-East > New Delhi > Delhi > North > New Delhi > NCR-HAR > India,Pharmacy,[object Object],28.6942665,77.2913147,Moonga nagar karawal nagar
Pooja medicos,PH108153,Metro > ASE-GT-NCR-North > New Delhi > Delhi > North > New Delhi > NCR-HAR > India,Pharmacy,[object Object],28.7290905,77.2059449,H no-47 shop no-2 bhagwan park
Maa Vaishnav Medicos,PH054893,Metro > ASE-GT-NCR-South > New Delhi > Delhi > North > New Delhi > NCR-HAR > India,Pharmacy,[object Object],28.4985125,77.1877843,"ShopNo.4, KhasraNo.257,Phase-2, MaidanGarhi Road, Chattarpur, New Delhi-110074"
Jyoti medicos,PH109408,Metro > ASE-GT-NCR-North > New Delhi > Delhi > North > New Delhi > NCR-HAR > India,Pharmacy,[object Object],28.735486,77.2076399,25 foota road sant bazar road sant
DEVENDRA MEDICAL STORE,PH091023,Metro > ASE-GT-NCR-North > New Delhi > Delhi > North > New Delhi > NCR-HAR > India,Pharmacy,[object Object],28.6090908,76.98484,Main Najafgarh Road Near by Delhi
CARTMEDICS HELTHCARE PVT,PH104096,Metro > ASE-GT-NCR-South > New Delhi > Delhi > North > New Delhi > NCR-HAR > India,Pharmacy,[object Object],28.4924587,77.1848471,"Shop No.-1,GF,Mini Farm,Prop.no-1,Kh"
Jagdamba Medicos,PH042116,Metro > ASE-GT-NCR-South > New Delhi > Delhi > North > New Delhi > NCR-HAR > India,Pharmacy,[object Object],28.4985844,77.1928182,"Shop No.1-G,Kh.No.77, Maidan Garhi Road Chattarpur, New Delhi- 110068"
Sandys. Friends  the pet shop-Silver,PS021120,Metro > ASE-SPT-NCR-East > New Delhi > Delhi > North > New Delhi > North Metro SPT > India,Petshop,[object Object],28.68210218,77.2989655,"C-84, LIG FLATS EAST OF LONI"
Gold Star(ROA)-Silver,PS000587,Metro > ASE-SPT-NCR-North-West 2 > New Delhi > Delhi > North > New Delhi > North Metro SPT > India,Petshop,[object Object],28.6562817,77.1500969,"I-287, SHOP NO -4, MAIN ROAD KARAMPURA , MOTI NAGAR"
AMAN MEDICOS,PH091024,Metro > ASE-GT-NCR-North > New Delhi > Delhi > North > New Delhi > NCR-HAR > India,Pharmacy,[object Object],28.6090669,76.9848561,"Shyam vihar, Phase 1,Goyla Najafgarh"
Noor Store 2,PH118766,Metro > ASE-GT-NCR-East > New Delhi > Delhi > North > New Delhi > NCR-HAR > India,Pharmacy,[object Object],28.6937483,77.2834667,Main saini bazar road Kabir Nagar
Sawariya Pharmacy,PH089748,Metro > ASE-GT-NCR-North > New Delhi > Delhi > North > New Delhi > NCR-HAR > India,Pharmacy,[object Object],28.7387791,77.1960677,Gali no 13 A2 block west Sant Nagar
Satguru Medicos,PH111114,Metro > ASE-GT-NCR-North > New Delhi > Delhi > North > New Delhi > NCR-HAR > India,Pharmacy,[object Object],28.6387136,77.0866204,Ganesh Nagar
Malik Medical Store(ROA),PH005489,Metro > ASE-GT-NCR-North > New Delhi > Delhi > North > New Delhi > NCR-HAR > India,Pharmacy,[object Object],28.6497431,77.131419,"Shop No -1, Old Market Ramesh Nagar110015"
Rehmat medicos,PH054208,Metro > ASE-GT-NCR-South > New Delhi > Delhi > North > New Delhi > NCR-HAR > India,Pharmacy,[object Object],28.4992381,77.250926,joga bai extn
Safaniya medicos,PH102391,Metro > ASE-GT-NCR-East > New Delhi > Delhi > North > New Delhi > NCR-HAR > India,Pharmacy,[object Object],28.6942395,77.2913294,"G-853,old mustafabad"
Pet Winner-Silver,PS000584,Metro > ASE-SPT-NCR-North-West 2 > New Delhi > Delhi > North > New Delhi > North Metro SPT > India,Petshop,[object Object],28.67160733,77.14526612,SHOP NO.8 SANGAM MARKET MOTI NAGAR DELHI 15
Shree Pharmacy,PH089749,Metro > ASE-GT-NCR-North > New Delhi > Delhi > North > New Delhi > NCR-HAR > India,Pharmacy,[object Object],28.7467847,77.1906383,B block Kamal pur Near Shanti kunj
SIX 12 Daily BASKET,PM000935,Metro > ASE-GT-NCR-North > New Delhi > Delhi > North > New Delhi > NCR-HAR > India,Modern Pharmacy,[object Object],28.7410978,77.2030894,"Som Bazar road ,B.Block main Market"
Life Line Medicos,PH004817,Metro > ASE-GT-NCR-North > New Delhi > Delhi > North > New Delhi > NCR-HAR > India,Pharmacy,[object Object],28.6958237,77.0814233,1968/152 Canera Bank Tota Ram Bazar Ganesh Pura Tri Nagar
Sarvagya medical,PH104265,Metro > ASE-GT-NCR-North > New Delhi > Delhi > North > New Delhi > NCR-HAR > India,Pharmacy,[object Object],28.6959216,77.0814033,Keshav puram 584 delhi
Wellness pharmacy,PH127945,Metro > ASE-GT-NCR-North > New Delhi > Delhi > North > New Delhi > NCR-HAR > India,Pharmacy,[object Object],28.6383605,77.0967871,Tilak Nagar
METRO PHARMACY,PH005069,Metro > ASE-GT-NCR-North > New Delhi > Delhi > North > New Delhi > NCR-HAR > India,Pharmacy,[object Object],28.6192886,77.0672297,RZ-B11/12 INDRA PARKEAST UTTAM NAGARND
Nath chemist &cosmetics,PH102576,Metro > ASE-GT-NCR-South > New Delhi > Delhi > North > New Delhi > NCR-HAR > India,Pharmacy,[object Object],28.5711403,77.2246129,Shop no 4 1427-B gurdwara road
Om shiv Gorakhnath,PH124175,Metro > ASE-GT-NCR-South > New Delhi > Delhi > North > New Delhi > NCR-HAR > India,Pharmacy,[object Object],28.4958257,77.1892077,"Shop no -3,H.no-51, main market Rajpur"
Raman Medicos,PH092726,Metro > ASE-GT-NCR-South > New Delhi > Delhi > North > New Delhi > NCR-HAR > India,Pharmacy,[object Object],28.4591828,77.1848059,"201-A Shop No.-3,Kh No.191,Asola"
Akash Pharmacy,PH111052,Metro > ASE-GT-NCR-North > New Delhi > Delhi > North > New Delhi > NCR-HAR > India,Pharmacy,[object Object],28.7483201,77.1940457,Gali no 04 25futa road Kamal Pur
LAMBA CHEMIST AND DRUGGIST,PH109409,Metro > ASE-GT-NCR-North > New Delhi > Delhi > North > New Delhi > NCR-HAR > India,Pharmacy,[object Object],28.6435385,77.095934,SHOP NO 9 GURUDWARA
City medicos,PH102547,Metro > ASE-GT-NCR-South > New Delhi > Delhi > North > New Delhi > NCR-HAR > India,Pharmacy,[object Object],28.5756208,77.2257521,941/1 gurdwara road kotla
Jeevshakti-Silver,PS019450,Metro > ASE-SPT-NCR-North-West 2 > New Delhi > Delhi > North > New Delhi > North Metro SPT > India,Petshop,[object Object],28.6649469,77.1157961,"Flat No. 311, Pocket 3, Paschim"
SAGAR MEDICOS,PH115514,Metro > ASE-GT-NCR-North > New Delhi > Delhi > North > New Delhi > NCR-HAR > India,Pharmacy,[object Object],28.593797,77.0033331,Banbari lal sharma shopping complex
