outlet_name,outletcode,location_hierarchy,sub_channel,coordinate,latitude,longitude,address,loginId
LUXMI MEDICOS,PH099057,Metro > ASE-GT-NCR-North > New Delhi > Delhi > North > New Delhi > NCR-HAR > India,Pharmacy,[object Object],28.621967,77.0853987,SHOP NO .7 A5B/ A5C MKT,DSR-NCR-031
Narang Marche,DS007915,Metro > ASE-GT-NCR-South > New Delhi > Delhi > North > New Delhi > NCR-HAR > India,MG Supermarket,[object Object],28.5518539,77.2072082,E-44A HAUZ KHAS MAIN MARKET NEW DELHI-110016,DSR-GT-NCR-508
Lord Medicos,PH127159,Metro > ASE-GT-NCR-North > New Delhi > Delhi > North > New Delhi > NCR-HAR > India,Pharmacy,[object Object],28.6180491,77.0929054,C4 janakpuri,DSR-GT-NCR-629
M.D medicose,PH046215,Metro > ASE-GT-NCR-East > New Delhi > Delhi > North > New Delhi > NCR-HAR > India,Pharmacy,[object Object],28.670637,77.2837321,gali no-4 bihari colony,DSR-GT-NCR-504
Shankar medical,PH051488,Metro > ASE-GT-NCR-South > New Delhi > Delhi > North > New Delhi > NCR-HAR > India,Pharmacy,[object Object],28.4958038,77.3129236,gali no 26 molarband,DSR-GT-NCR-772
Miglani Medicos(ROA),PH032813,Metro > ASE-GT-NCR-North > New Delhi > Delhi > North > New Delhi > NCR-HAR > India,Pharmacy,[object Object],28.6115686,77.0698091,SHOP NO.2.OPP.METRO PILL.723NAWADA NEW DELHI,DSR-GT-NCR-424
OM SAI MEDICOS,PH129485,Metro > ASE-GT-NCR-North > New Delhi > Delhi > North > New Delhi > NCR-HAR > India,Pharmacy,[object Object],28.6665819,77.0657964,Kunwar Singh Nagar,DSR-GT-NCR-652
Laxmi medical store,PH110100,Metro > ASE-GT-NCR-North > New Delhi > Delhi > North > New Delhi > NCR-HAR > India,Pharmacy,[object Object],28.6666197,77.065834,Laxmi park 50 futa road nihal vihar,DSR-GT-NCR-652
Mittal Medical Store,PH032186,Metro > ASE-GT-NCR-North > New Delhi > Delhi > North > New Delhi > NCR-HAR > India,Pharmacy,[object Object],28.6065549,77.1084131,"Rz-62/7, Mohan Nagar,Janak Puri D -Block, New Dlehi",DSR-GT-NCR-760
Gautam medical store,PH053602,Metro > ASE-GT-NCR-South > New Delhi > Delhi > North > New Delhi > NCR-HAR > India,Pharmacy,[object Object],28.4973027,77.2313781,shop no 3 nala road,DSR-GT-NCR-572
Nagpal pharmacy,PH108215,Metro > ASE-GT-NCR-South > New Delhi > Delhi > North > New Delhi > NCR-HAR > India,Pharmacy,[object Object],28.5806352,77.2209082,Shop no 118 khana market,DSR-NCR-041
Water Queen Aquarium-Silver,PS018535,Metro > ASE-SPT-NCR-North-West 2 > New Delhi > Delhi > North > New Delhi > North Metro SPT > India,Petshop,[object Object],28.51934049,77.22164306,P-1/292 Sultanpuri Delhi,FSA-SPT-NCR-019
Anil Medicose,PH027504,Metro > ASE-GT-NCR-South > New Delhi > Delhi > North > New Delhi > NCR-HAR > India,Pharmacy,[object Object],28.5512939,77.1998797,shop no 6 USHA NIKETAN dda MARKET SDA NEW DELHI-110016,DSR-NCR-041
RAMADHA PHARMACY,PH060613,Metro > ASE-GT-NCR-South > New Delhi > Delhi > North > New Delhi > NCR-HAR > India,Pharmacy,[object Object],28.5387191,77.1397217,"Vardhman Market,C-8,Vasant Kunj New Delhi-110070",DSR-GT-NCR-503
TRINITY MART,MGS004966,Metro > ASE-GT-NCR-South > New Delhi > Delhi > North > South Delhi > NCR-HAR > India,MG Supermarket,[object Object],28.5601517,77.2035,Shop no. 5 49B,DSR-GT-NCR-508
Vaishno medical,PH051485,Metro > ASE-GT-NCR-South > New Delhi > Delhi > North > New Delhi > NCR-HAR > India,Pharmacy,[object Object],28.4892111,77.3111031,2520 60futa 2,DSR-GT-NCR-572
Saket Pet Clinic(ROA)-Silver,CL000558,Metro > ASE-SPT-NCR-North-West 1 > New Delhi > Delhi > North > New Delhi > North Metro SPT > India,Clinic,[object Object],28.5273379,77.205988,"A-1,Golf View Apartments,Anupam Pvr Road,",DSR-SPT-NCR-402
Prince medicos,PH118794,Metro > ASE-GT-NCR-North > New Delhi > Delhi > North > New Delhi > NCR-HAR > India,Pharmacy,[object Object],28.6115627,77.0698141,A3/46 shop no 6 dal mil road uttam,DSR-GT-NCR-424
BUDGET BAZZAR ( Janakpuri ),DS001248,Metro > ASE-GT-NCR-North > New Delhi > Delhi > North > New Delhi > NCR-HAR > India,MG Hypermarket,[object Object],28.6239802,77.0798537,"A3/233, JANAK PURI, OPP. ST, FRANCIS DE SALES SCHOOL ,NEW DELHI-110058",DSR-NCR-031
Manish Agencies Retails Pvt Ltd (Janakpuri B Block),DS017996,Metro > ASE-GT-NCR-North > New Delhi > Delhi > North > New Delhi > NCR-HAR > India,MG Supermarket,[object Object],28.6258967,77.0919742,"B3-186,Dharam Marg Block B3,Janakpuri, Delhi-110058",DSR-NCR-031
Shiv Ganga Chemist(ROA),PH030767,Metro > ASE-GT-NCR-North > New Delhi > Delhi > North > New Delhi > NCR-HAR > India,Pharmacy,[object Object],28.7025802,77.1001524,"Csc-1, Shop No .5 , Sec 1 , Avantika , Rohini",DSR-NCR-160
Tara medicos,PH042484,Metro > ASE-GT-NCR-North > New Delhi > Delhi > North > New Delhi > NCR-HAR > India,Pharmacy,[object Object],28.6076275,77.0935501,rz 150A-I block gali number 8 West Sagar Pur New Delhi 110045,DSR-GT-NCR-760
G PLUS PHARMACY,PH121951,Metro > ASE-GT-NCR-North > New Delhi > Delhi > North > New Delhi > NCR-HAR > India,Pharmacy,[object Object],28.7058017,77.10698,"173 pocket ,G 30 rohini sec 3",DSR-NCR-160
Bahul pharmacy,PH127040,Metro > ASE-GT-NCR-East > New Delhi > Delhi > North > New Delhi > NCR-HAR > India,Pharmacy,[object Object],28.6805231,77.3168621,Dilshad garden mantri arcade,DSR-GT-NCR-504
Radhey pharmacy,PH128939,Metro > ASE-GT-NCR-South > New Delhi > Delhi > North > New Delhi > NCR-HAR > India,Pharmacy,[object Object],28.5056211,77.324445,"Shop no.6 , main Jaitpur road",DSR-GT-NCR-572
Naman medical store,PH121923,Metro > ASE-GT-NCR-South > New Delhi > Delhi > North > New Delhi > NCR-HAR > India,Pharmacy,[object Object],28.5016758,77.2823661,Rz 2514 gali no 27 tughlakabad extn,DSR-GT-NCR-772
Deepak Medicos,WP002837,Metro > ASE-GT-NCR-East > New Delhi > Delhi > North > New Delhi > NCR-HAR > India,Wholesale Pharmacy,[object Object],28.6803733,77.2982315,"1/2174, Ram Nagar, Shahdara",DSR-NCR-154
Poonam medicos,PH116325,Metro > ASE-GT-NCR-East > New Delhi > Delhi > North > New Delhi > NCR-HAR > India,Pharmacy,[object Object],28.6672822,77.2949746,586/2 Nakul Gali Pandav road,DSR-GT-NCR-504
Metro Medicos,PH097802,Metro > ASE-GT-NCR-North > New Delhi > Delhi > North > New Delhi > NCR-HAR > India,Pharmacy,[object Object],28.7272337,77.2250871,421/A Gali no -09 near Amina masjid,DSR-GT-NCR-857
Life care pharmacy,PH109230,Metro > ASE-GT-NCR-North > New Delhi > Delhi > North > New Delhi > NCR-HAR > India,Pharmacy,[object Object],28.6115681,77.0698255,B-6 gulabh bagh opp pillar no 724,DSR-GT-NCR-424
Tara medical store,PH042485,Metro > ASE-GT-NCR-North > New Delhi > Delhi > North > New Delhi > NCR-HAR > India,Pharmacy,[object Object],28.6036967,77.0870157,Rz-A3-53 gali number 1 Durga park,DSR-GT-NCR-760
Ip Pharma,PH119639,Metro > ASE-GT-NCR-South > New Delhi > Delhi > North > New Delhi > NCR-HAR > India,Pharmacy,[object Object],28.4991787,77.25082,Vishkarma colony Tughlakabad extn,DSR-GT-NCR-772
Krishna Medicos (Badli),PH097250,Metro > ASE-GT-NCR-North > New Delhi > Delhi > North > New Delhi > NCR-HAR > India,Pharmacy,[object Object],28.7310177,77.1460569,Badli Village opp masjid,DSR-GT-NCR-457
ALL INDIA PHARMACY,PH122009,Metro > ASE-GT-NCR-North > New Delhi > Delhi > North > New Delhi > NCR-HAR > India,Pharmacy,[object Object],28.6666808,77.0655583,"SH.NO.1.GF,Part Of Prop.no.E-1/164A",DSR-GT-NCR-652
Asus Store,DS017144,Metro > ASE-GT-NCR-South > New Delhi > Delhi > North > New Delhi > NCR-HAR > India,MG Supermarket,[object Object],28.4927652,77.3103977,9818385862,DSR-GT-NCR-572
Tiger Pet Shop(ROA)-Silver,PS001685,Metro > ASE-SPT-NCR-North-West 2 > New Delhi > Delhi > North > New Delhi > North Metro SPT > India,Petshop,[object Object],28.71967641,77.20127511,"Tiger Pet Shop,Narayan Dharm Kanta Complex,Najafgarh Road Nangloi",FSA-SPT-NCR-019
Shri  bala ji Medicos,PH109894,Metro > ASE-GT-NCR-North > New Delhi > Delhi > North > New Delhi > NCR-HAR > India,Pharmacy,[object Object],28.6664935,77.0657416,Chandar vihar market,DSR-GT-NCR-652
M_S DURGA STORE,DS018853,Metro > ASE-GT-NCR-North > New Delhi > Delhi > North > New Delhi > NCR-HAR > India,Super Grocery,[object Object],28.6461989,77.0621663,"A-65-66 , NEAR PRADHAN MARKET CHANDER VIHAR",DSR-GT-NCR-652
SETHI MEDICAL& GENERAL STORE <S0167>,PH041191,Metro > ASE-GT-NCR-North > New Delhi > Delhi > North > New Delhi > NCR-HAR > India,Pharmacy,[object Object],28.59346,77.1215683,"11-40/11,SADAR BAZAR,DELHICANTNEW DELHI-110010PH.5691214",DSR-NCR-032
Akaksh medicos,PH106112,Metro > ASE-GT-NCR-South > New Delhi > Delhi > North > New Delhi > NCR-HAR > India,Pharmacy,[object Object],28.4991034,77.2508281,C11 madanpur Khadar,DSR-GT-NCR-772
29 fresh mart,DS017169,Metro > ASE-GT-NCR-South > New Delhi > Delhi > North > New Delhi > NCR-HAR > India,MG Supermarket,[object Object],28.5609953,77.1936503,110-ch Jagat Singh buildiing lower gf near ncc gate humayupur,DSR-NCR-041
kamal CHEMIST & COSMETICS,PH044203,Metro > ASE-GT-NCR-South > New Delhi > Delhi > North > New Delhi > NCR-HAR > India,Pharmacy,[object Object],28.4989845,77.2869062,F84 vishwakarma colony  N.D 44,DSR-GT-NCR-572
Tej singh medical store,PH118876,Metro > ASE-GT-NCR-South > New Delhi > Delhi > North > New Delhi > NCR-HAR > India,Pharmacy,[object Object],28.496861,77.2966488,"E- 402/12,mittal colony",DSR-GT-NCR-572
MUKESH STORE,TG004826,Metro > ASE-GT-NCR-South > New Delhi > Delhi > North > New Delhi > NCR-HAR > India,Traditional Grocery,[object Object],28.5182913,77.1582433,"S NO-8,SEC-D,POCKET 4,VASANT KUNJ",DSR-GT-DEL-782
shri kalka pharmacy,PH051478,Metro > ASE-GT-NCR-South > New Delhi > Delhi > North > New Delhi > NCR-HAR > India,Pharmacy,[object Object],28.5017382,77.3222631,A-1gali no 17 meethapur,DSR-GT-NCR-610
Surya Medicis,PH082073,Metro > ASE-GT-NCR-East > New Delhi > Delhi > North > New Delhi > NCR-HAR > India,Pharmacy,[object Object],28.6802281,77.2943108,1/2498 Moti Ram Road,DSR-NCR-154
Arun medi point,PH053604,Metro > ASE-GT-NCR-South > New Delhi > Delhi > North > New Delhi > NCR-HAR > India,Pharmacy,[object Object],28.5100279,77.3169861,nala road jatpuar,DSR-GT-NCR-772
Deepak medical Store,PH121671,Metro > ASE-GT-NCR-South > New Delhi > Delhi > North > New Delhi > NCR-HAR > India,Pharmacy,[object Object],28.4991387,77.2509043,Molar bandh,DSR-GT-NCR-610
SNOWBELL MEGA MART 2,DS019402,Metro > ASE-GT-NCR-South > New Delhi > Delhi > North > New Delhi > NCR-HAR > India,Super Grocery,[object Object],28.5206539,77.1722645,"1151-3, Gaushala Road, Kishan Garh, New Delhi-110030",DSR-NCR-036
holi goli pharmacy,PH051098,Metro > ASE-GT-NCR-South > New Delhi > Delhi > North > New Delhi > NCR-HAR > India,Pharmacy,[object Object],28.4900827,77.3071204,40 phuta road,DSR-GT-NCR-610
MANSI MEDICOS,PH110989,Metro > ASE-GT-NCR-North > New Delhi > Delhi > North > New Delhi > NCR-HAR > India,Pharmacy,[object Object],28.6666158,77.065743,Sunday Bazar Road Chandar Vihar,DSR-GT-NCR-652
S m medcos,PH112110,Metro > ASE-GT-NCR-South > New Delhi > Delhi > North > New Delhi > NCR-HAR > India,Pharmacy,[object Object],28.5608433,77.2073833,17/9. Maine market Yusuf Sarai,DSR-GT-NCR-508
Aastha Medicos,PH114032,Metro > ASE-GT-NCR-East > New Delhi > Delhi > North > New Delhi > NCR-HAR > India,Pharmacy,[object Object],28.6794732,77.2982989,J- 1/1411 Mansarover park,DSR-NCR-154
Vashisth Medicos &Cosmatices,PH080350,Metro > ASE-GT-NCR-East > New Delhi > Delhi > North > New Delhi > NCR-HAR > India,Pharmacy,[object Object],28.7036529,77.313596,"B,178 plot no 35 village Mandoli",DSR-NCR-154
Shri Ram medicos,WP002890,Metro > ASE-GT-NCR-East > New Delhi > Delhi > North > New Delhi > NCR-HAR > India,Wholesale Pharmacy,[object Object],28.694215,77.2913346,Main road Ashok Nagar,DSR-GT-NCR-504
Vishal Medicos,PH051761,Metro > ASE-GT-NCR-North > New Delhi > Delhi > North > New Delhi > NCR-HAR > India,Pharmacy,[object Object],28.6059572,77.0827758,"A-56,Dasrathpuri, Palam Road, New Delhi",DSR-GT-NCR-760
M S medicos,PH129738,Metro > ASE-GT-NCR-North > New Delhi > Delhi > North > New Delhi > NCR-HAR > India,Pharmacy,[object Object],28.6116253,77.0697124,D1 Kiran graden uttam nagar,DSR-GT-NCR-424
Suneja Medical Hall,PH108832,Metro > ASE-GT-NCR-East > New Delhi > Delhi > North > New Delhi > NCR-HAR > India,Pharmacy,[object Object],28.6655989,77.2914815,"27/1,Vishwas Nagar,Delhi",DSR-NCR-154
Bhanu medicos,PH128782,Metro > ASE-GT-NCR-East > New Delhi > Delhi > North > New Delhi > NCR-HAR > India,Pharmacy,[object Object],28.6880578,77.3247295,B-112,DSR-GT-NCR-504
Neetu medical store,PH107467,Metro > ASE-GT-NCR-North > New Delhi > Delhi > North > New Delhi > NCR-HAR > India,Pharmacy,[object Object],28.6666026,77.0657631,Shiv raam park 50 futa road,DSR-GT-NCR-652
Standard Pet Shop(ROA)-Silver,PS000623,Metro > ASE-SPT-NCR-North-West 2 > New Delhi > Delhi > North > New Delhi > North Metro SPT > India,Petshop,[object Object],28.61567589,77.08959331,"SHOP NO.4,C-4-E MARKETJANAK PURI N.DELHI 58",FSA-SPT-NCR-016
Suvidha Super,MGS01062,Metro > ASE-GT-NCR-East > New Delhi > Delhi > North > New Delhi > NCR-HAR > India,MG Supermarket,[object Object],28.7029373,77.3122133,"119, Street No. 2 Bank Colony Mandoli Delhi 110094",DSR-NCR-154
Keshav medical,PH124209,Metro > ASE-GT-NCR-North > New Delhi > Delhi > North > New Delhi > NCR-HAR > India,Pharmacy,[object Object],28.6958582,77.0814299,54/18 Rohini sec 16 near by Jain public,DSR-NCR-037
Vimla medicos,PH121752,Metro > ASE-GT-NCR-South > New Delhi > Delhi > North > New Delhi > NCR-HAR > India,Pharmacy,[object Object],28.4990617,77.2508038,Shop no1 shindu farm raod,DSR-GT-NCR-772
MANAV SEWA CHEMIST &,PH084015,Metro > ASE-GT-NCR-South > New Delhi > Delhi > North > New Delhi > NCR-HAR > India,Pharmacy,[object Object],28.4990653,77.2508113,"G-249 MAIN ROAD, MOHAN BABA",DSR-GT-NCR-772
Shree balaji medicos,PH110103,Metro > ASE-GT-NCR-North > New Delhi > Delhi > North > New Delhi > NCR-HAR > India,Pharmacy,[object Object],28.6666535,77.0657276,Shop no 31kh-72/16 ambica,DSR-GT-NCR-652
vashishth medical,PH051483,Metro > ASE-GT-NCR-South > New Delhi > Delhi > North > New Delhi > NCR-HAR > India,Pharmacy,[object Object],28.5003234,77.3129108,molarband market,DSR-GT-NCR-572
Nikhil MEDICOS,PH094491,Metro > ASE-GT-NCR-South > New Delhi > Delhi > North > New Delhi > NCR-HAR > India,Pharmacy,[object Object],28.5199282,77.1644461,Shop no 138/4 kishangarh,DSR-NCR-036
Shreya medicos,PH114909,Metro > ASE-GT-NCR-South > New Delhi > Delhi > North > New Delhi > NCR-HAR > India,Pharmacy,[object Object],28.4995454,77.2870533,F20/A ground floor vishwakarma,DSR-GT-NCR-772
the unique medicos,PH056596,Metro > ASE-GT-NCR-South > New Delhi > Delhi > North > New Delhi > NCR-HAR > India,Pharmacy,[object Object],28.5615013,77.1974904,shop no 129 arjun nagar,DSR-GT-NCR-508
Kaveri medicos,PH108834,Metro > ASE-GT-NCR-North > New Delhi > Delhi > North > New Delhi > NCR-HAR > India,Pharmacy,[object Object],28.6158917,77.094375,Shop no 13 Jankapuri,DSR-GT-NCR-629
Care  Medicos(ROA),PH005029,Metro > ASE-GT-NCR-North > New Delhi > Delhi > North > New Delhi > NCR-HAR > India,Pharmacy,[object Object],28.6181745,77.0936391,"Shop No -2, C 4D Janakpuri New Delhi110058",DSR-GT-NCR-629
Deepanshi medicos,PH114910,Metro > ASE-GT-NCR-South > New Delhi > Delhi > North > New Delhi > NCR-HAR > India,Pharmacy,[object Object],28.4995562,77.2870521,F-76 b vishwakarma,DSR-GT-NCR-772
Naresh pharmacy,PH086142,Metro > ASE-GT-NCR-North > New Delhi > Delhi > North > New Delhi > NCR-HAR > India,Pharmacy,[object Object],28.6182321,77.0784241,WZ-49 F Shop no -3budhela Vikas Puri,DSR-GT-NCR-629
Supreme medicos,PH121952,Metro > ASE-GT-NCR-North > New Delhi > Delhi > North > New Delhi > NCR-HAR > India,Pharmacy,[object Object],28.7244939,77.2239921,Shop no-4 plot-A-28 gali no-9 village,DSR-GT-NCR-857
Gulabchand & Sons,WG000950,Metro > ASE-GT-NCR-South > New Delhi > Delhi > North > New Delhi > NCR-HAR > India,Wholesale Grocery,[object Object],28.505413,77.3231306,"Nala road, near lavkush square,",DSR-GT-NCR-610
APOLO VETS HEALTH CARE-Silver,CL000480,Metro > ASE-SPT-NCR-North-West 1 > New Delhi > Delhi > North > New Delhi > North Metro SPT > India,Clinic,[object Object],28.5620824,77.0629129,447 DDA Flats Pocket 1 Sec-22 Dwarka New Delhi-110075,FSA-SPT-HAR-014
Sharma medical store,PH121301,Metro > ASE-GT-NCR-South > New Delhi > Delhi > North > New Delhi > NCR-HAR > India,Pharmacy,[object Object],28.5055792,77.324233,A5 sabji mandi men Market near Shiv,DSR-GT-NCR-610
K9 FAMILY PET STORE-Silver,PS015164,Metro > ASE-SPT-NCR-North-West 1 > New Delhi > Delhi > North > New Delhi > North Metro SPT > India,Petshop,[object Object],28.577452,77.0482272,Hn -13.village ambrahi Dwarka sec -19 New Delhi,FSA-SPT-HAR-014
CARE PHARMACY,PH122017,Metro > ASE-GT-NCR-North > New Delhi > Delhi > North > New Delhi > NCR-HAR > India,Pharmacy,[object Object],28.6666576,77.0657662,"RZE-49, NIHAL VIHAR,  NANGLOI",DSR-GT-NCR-652
Shiv shakti medicos,PH082399,Metro > ASE-GT-NCR-North > New Delhi > Delhi > North > New Delhi > NCR-HAR > India,Pharmacy,[object Object],28.6082136,77.0971238,Gandhi market sagarpur,DSR-GT-NCR-760
Pankaj pharmacy,PH095149,Metro > ASE-GT-NCR-South > New Delhi > Delhi > North > New Delhi > NCR-HAR > India,Pharmacy,[object Object],28.5059982,77.3273136,Hno 2 shop no 5 jaitpur village,DSR-GT-NCR-610
Delhi pharmacy,PH095150,Metro > ASE-GT-NCR-South > New Delhi > Delhi > North > New Delhi > NCR-HAR > India,Pharmacy,[object Object],28.4912098,77.3065646,Shop no 1 tajpur road,DSR-GT-NCR-610
OPTIMUS LIFE CARE SOLUTIONS,PH056033,Metro > ASE-GT-NCR-North > New Delhi > Delhi > North > New Delhi > NCR-HAR > India,Pharmacy,[object Object],28.6307625,77.1179048,"MEDITRUST SHOP NO. 4, A-1 DDA MARKET HARI ENCLAVE, HARI NAGAR, NEW DELHI-110064",DSR-GT-DEL-783
Vijay medical,PH107775,Metro > ASE-GT-NCR-North > New Delhi > Delhi > North > New Delhi > NCR-HAR > India,Pharmacy,[object Object],28.6959198,77.0813733,"G-382, G Block, opposite Mother",DSR-NCR-037
SHRI BALAJI MEDICOS,PH129486,Metro > ASE-GT-NCR-North > New Delhi > Delhi > North > New Delhi > NCR-HAR > India,Pharmacy,[object Object],28.6666435,77.0657401,Bhudh Bazar Road Kunwar Singh,DSR-GT-NCR-652
Kashish ayurvedic,PH118863,Metro > ASE-GT-NCR-South > New Delhi > Delhi > North > New Delhi > NCR-HAR > India,Pharmacy,[object Object],28.5120845,77.265851,Shop no 2-3 nearby Ramesh bidhuri,DSR-GT-NCR-772
shivam medicos,PH055201,Metro > ASE-GT-NCR-South > New Delhi > Delhi > North > New Delhi > NCR-HAR > India,Pharmacy,[object Object],28.4863348,77.3128287,gali no.81.60futa road,DSR-GT-NCR-572
A.s mart,MGS006440,Metro > ASE-GT-NCR-South > New Delhi > Delhi > North > New Delhi > NCR-HAR > India,MG Supermarket,[object Object],28.4998875,77.311946,"B-8,molarband extn badarpur new Delhi",DSR-GT-NCR-772
Unique pharmacy & ayurvedic store,PH120919,Metro > ASE-GT-NCR-South > New Delhi > Delhi > North > New Delhi > NCR-HAR > India,Pharmacy,[object Object],28.4991352,77.2508856,A-215 gautam Puri badarpur,DSR-GT-NCR-772
GANDHI MEDICOS,PH056023,Metro > ASE-GT-NCR-North > New Delhi > Delhi > North > New Delhi > NCR-HAR > India,Pharmacy,[object Object],28.6488618,77.1161022,OPP DEN DAYAN UPADHAYAY HARI NAGAR CLOCK TOWER,DSR-GT-DEL-783
Prakash Pharmacy,PH127152,Metro > ASE-GT-NCR-North > New Delhi > Delhi > North > New Delhi > NCR-HAR > India,Pharmacy,[object Object],28.6438771,77.0266363,Kh no 36/21 B-Block Main Road,DSR-GT-NCR-457
Indra pharmacy,PH120071,Metro > ASE-GT-NCR-South > New Delhi > Delhi > North > New Delhi > NCR-HAR > India,Pharmacy,[object Object],28.4991289,77.250889,D-2 budh vihar dharmveer market,DSR-GT-NCR-772
Dinesh medicos,PH114222,Metro > ASE-GT-NCR-North > New Delhi > Delhi > North > New Delhi > NCR-HAR > India,Pharmacy,[object Object],28.7275646,77.2180699,Shop no-3 kh no-5/1 gali no-5,DSR-GT-NCR-857
Sai Medicos,PH127930,Metro > ASE-GT-NCR-North > New Delhi > Delhi > North > New Delhi > NCR-HAR > India,Pharmacy,[object Object],28.7597194,77.1573224,Shop no 1 batta road Swaroop,DSR-GT-NCR-457
Ramakrishna medical,PH108935,Metro > ASE-GT-NCR-North > New Delhi > Delhi > North > New Delhi > NCR-HAR > India,Pharmacy,[object Object],28.6958385,77.0814073,"A-2/125, shop no.2 sector 16 rohini",DSR-NCR-037
NEHA MEDICOS,PH061877,Metro > ASE-GT-NCR-North > New Delhi > Delhi > North > New Delhi > NCR-HAR > India,Pharmacy,[object Object],28.6958399,77.0814329,"G-2, 69-70,SEC-11,GANESH CHOWK, ROHINI, DELHI 110085, GSTIN : 07AZYPD1687M1ZJDL NO. 20-ROH147942",DSR-NCR-037
Max help pharmacy,PH116981,Metro > ASE-GT-NCR-South > New Delhi > Delhi > North > New Delhi > NCR-HAR > India,Pharmacy,[object Object],28.5003297,77.2902949,8A-ll main Suraj kund road Pul,DSR-GT-NCR-772
Mhalsa pharmacy,PH127158,Metro > ASE-GT-NCR-North > New Delhi > Delhi > North > New Delhi > NCR-HAR > India,Pharmacy,[object Object],28.7226325,77.2256346,Shop no-1 kh no-286/228/173 gali,DSR-GT-NCR-857
Amar Medicos,PH042906,Metro > ASE-GT-NCR-South > New Delhi > Delhi > North > New Delhi > NCR-HAR > India,Pharmacy,[object Object],28.5197283,77.170546,"7-9,Kishan Garh , Vasant Kunj Near Gaushala Mandir New Delhi-110070",DSR-NCR-036
Lovely medicos,PH115744,Metro > ASE-GT-NCR-East > New Delhi > Delhi > North > New Delhi > NCR-HAR > India,Pharmacy,[object Object],28.6945183,77.2915439,"B-3, West jyoti nagar",DSR-GT-NCR-504
BANI MEDICOS,PH110995,Metro > ASE-GT-NCR-North > New Delhi > Delhi > North > New Delhi > NCR-HAR > India,Pharmacy,[object Object],28.6665838,77.0657929,"B-19,SUNDAY BAZAR CHANDAR",DSR-GT-NCR-652
Apka Apna Bazar,DS013573,Metro > ASE-GT-NCR-North > New Delhi > Delhi > North > New Delhi > NCR-HAR > India,Super Grocery,[object Object],28.7030431,77.1109382,b 9-404 sec -3 Delhi 85,DSR-NCR-160
B.R.Medicare,PH005396,Metro > ASE-GT-NCR-North > New Delhi > Delhi > North > New Delhi > NCR-HAR > India,Pharmacy,[object Object],28.596882,77.1336335,"III/3/5,Gopi Nath Bazar,Delhi Cantt,Delhi-110010",DSR-NCR-032
Loveble Paws(ROA)-Silver,PS000598,Metro > ASE-SPT-NCR-North-West 2 > New Delhi > Delhi > North > New Delhi > North Metro SPT > India,Petshop,[object Object],28.7070441,77.1916517,"F-7/1,Shop No-1,Model Town-2,Delhi-09",DSR-SPT-NCR-400
RAJ MANDIR HYPER MERKET (TILAK NAGAR),MGH00105,Metro > ASE-GT-NCR-North > New Delhi > Delhi > North > New Delhi > NCR-HAR > India,MG Hypermarket,[object Object],28.6487201,77.1160262,"GROUND FLOOR , PLOT NO 3 AND  ,BINDRA MARKET,TILAK NAGAR",DSR-GT-DEL-783
SHREE AMBICA MEDICOS,PH005570,Metro > ASE-GT-NCR-South > New Delhi > Delhi > North > New Delhi > NCR-HAR > India,Pharmacy,[object Object],28.5849556,77.2204834,"98,Khanna market Lodhi road New Delhi 110003",DSR-NCR-041
Deepak medicos,WP002896,Metro > ASE-GT-NCR-East > New Delhi > Delhi > North > New Delhi > NCR-HAR > India,Wholesale Pharmacy,[object Object],28.6802667,77.2983574,"1/2174-c, Ram Nagar shahdara",DSR-GT-NCR-504
ISHIKA CHEMIST,PH014688,Metro > ASE-GT-NCR-South > New Delhi > Delhi > North > New Delhi > NCR-HAR > India,Pharmacy,[object Object],28.5198775,77.1688829,"882/A,SN2,WARD NO-6,MEHRAULI",DSR-NCR-036
Shri Guru medicos,PH107776,Metro > ASE-GT-NCR-North > New Delhi > Delhi > North > New Delhi > NCR-HAR > India,Pharmacy,[object Object],28.6055311,77.0831239,"GF RZ -31,A SHOP NO -02 GALI NO -2",DSR-GT-NCR-760
Sharma Medicos,PH077563,Metro > ASE-GT-NCR-North > New Delhi > Delhi > North > New Delhi > NCR-HAR > India,Pharmacy,[object Object],28.6166523,77.0697702,"Rz-914, Stree No-7, Mohan Block West Sagarpur",DSR-GT-NCR-760
Ashish medicos,PH121955,Metro > ASE-GT-NCR-North > New Delhi > Delhi > North > New Delhi > NCR-HAR > India,Pharmacy,[object Object],28.6115648,77.0698261,A-96 nane park binda pur Matiala,DSR-GT-NCR-424
Ankit medicos,PH095151,Metro > ASE-GT-NCR-South > New Delhi > Delhi > North > New Delhi > NCR-HAR > India,Pharmacy,[object Object],28.4904856,77.3055511,Shop no 68a tajpur road,DSR-GT-NCR-610
Adarsh medicos,PH121957,Metro > ASE-GT-NCR-North > New Delhi > Delhi > North > New Delhi > NCR-HAR > India,Pharmacy,[object Object],28.6115669,77.0698228,Sanjay enclave opp Shanti nursing,DSR-GT-NCR-424
Kawal Medical Store,PH043382,Metro > ASE-GT-NCR-East > New Delhi > Delhi > North > New Delhi > NCR-HAR > India,Pharmacy,[object Object],28.6939814,77.2909764,"27/45,Jwala Nagar",DSR-GT-NCR-504
Annpurna Mart,MGS02729,Metro > ASE-GT-NCR-North > New Delhi > Delhi > North > New Delhi > NCR-HAR > India,MG Supermarket,[object Object],28.6074614,77.0954451,"Rz-19-231-232 J Block,West Sagar pur",DSR-GT-NCR-760
Bismillah meddicos,PH128927,Metro > ASE-GT-NCR-North > New Delhi > Delhi > North > New Delhi > NCR-HAR > India,Pharmacy,[object Object],28.7280662,77.2149875,Shop no-4 plot no-46 gali no-5,DSR-GT-NCR-857
Lok sewa pharmacy,PH107778,Metro > ASE-GT-NCR-North > New Delhi > Delhi > North > New Delhi > NCR-HAR > India,Pharmacy,[object Object],28.722695,77.2256459,Shop no-2 gf plot no-103 kh no-,DSR-GT-NCR-857
Kashish chenist&Druggist,PH108740,Metro > ASE-GT-NCR-South > New Delhi > Delhi > North > New Delhi > NCR-HAR > India,Pharmacy,[object Object],28.5003565,77.3213689,Shop no1 gali no 6 main tanki road,DSR-GT-NCR-772
Budhiraja store,DS021894,Metro > ASE-GT-NCR-North > New Delhi > Delhi > North > New Delhi > NCR-HAR > India,Super Grocery,[object Object],28.6159251,77.0896146,WZ-278 Street no -16 main mkt shiv,DSR-GT-NCR-629
KWALITY BAZAAR(HARI NAGAR),DS010051,Metro > ASE-GT-NCR-North > New Delhi > Delhi > North > New Delhi > NCR-HAR > India,MG Hypermarket,[object Object],28.6267583,77.1008167,"SHOP NO-AL-4, JAIL ROAD, HARI NAGAR, NEW DELHI-110064",DSR-GT-DEL-783
Gupta Enterprises,WG000949,Metro > ASE-GT-NCR-South > New Delhi > Delhi > North > New Delhi > NCR-HAR > India,Wholesale Grocery,[object Object],28.5000997,77.3264173,"Om nagar, tanki road, meethapur,",DSR-GT-NCR-610
The Khaneja Chemists,PH043392,Metro > ASE-GT-NCR-East > New Delhi > Delhi > North > New Delhi > NCR-HAR > India,Pharmacy,[object Object],28.6594422,77.3067425,"Shop No,G4 Ashish Complex",DSR-GT-NCR-504
YASH MEDICOS,PH052547,Metro > ASE-GT-NCR-North > New Delhi > Delhi > North > New Delhi > NCR-HAR > India,Pharmacy,[object Object],28.6190663,77.0789911,SHOP NO -2 C 1 A JANAK PURI,DSR-GT-NCR-629
Geeta medical store,PH118799,Metro > ASE-GT-NCR-North > New Delhi > Delhi > North > New Delhi > NCR-HAR > India,Pharmacy,[object Object],28.6115634,77.0698131,G1 -261dal mil road opp peer baba,DSR-GT-NCR-424
AAVYA MEDICOS,PH110803,Metro > ASE-GT-NCR-North > New Delhi > Delhi > North > New Delhi > NCR-HAR > India,Pharmacy,[object Object],28.7012343,77.10102,F22/103 SHOP NO 3.  ROINI SEC 3,DSR-NCR-160
Sathi Medicire,PH043398,Metro > ASE-GT-NCR-East > New Delhi > Delhi > North > New Delhi > NCR-HAR > India,Pharmacy,[object Object],28.684683,77.3276095,F 122 Dilshad Cly,DSR-GT-NCR-504
KARE SHIELD PHARMACY,PH085491,Metro > ASE-GT-NCR-North > New Delhi > Delhi > North > New Delhi > NCR-HAR > India,Pharmacy,[object Object],28.6666475,77.0656172,"RZ-E/108, NIHAL VIHAR,  MAINE",DSR-GT-NCR-652
DAILY SUPER BAZAAR,MGH00051,Metro > ASE-GT-NCR-North > New Delhi > Delhi > North > New Delhi > NCR-HAR > India,MG Hypermarket,[object Object],28.6176687,77.0769433,"Block B,Plot No-3&4,Ground Flour Chankaya Place,Part-1,Pankha Road,Uttam Nagar, New Delhi-110059",DSR-GT-NCR-424
DELHI MEDICOS <D0002>,PH041143,Metro > ASE-GT-NCR-North > New Delhi > Delhi > North > New Delhi > NCR-HAR > India,Pharmacy,[object Object],28.6043553,77.1070162,SHOP NO-2 RZ-46/148A PALAM ROADSAGARPUR NEW DELHI-110046.25384259,DSR-GT-NCR-760
Rathi Medicos,PH048605,Metro > ASE-GT-NCR-South > New Delhi > Delhi > North > New Delhi > NCR-HAR > India,Pharmacy,[object Object],28.5240338,77.1659944,"Shop No. -22, DDA, B-3, Vasant Kunj New Delhi",DSR-GT-DEL-782
Pandey Chemist,PH043534,Metro > ASE-GT-NCR-South > New Delhi > Delhi > North > New Delhi > NCR-HAR > India,Pharmacy,[object Object],28.5175622,77.1647857,"44B-9,Akhara Road Near Kunva, Kishan Garh ,Vasant kunj, NewDelhi-110070",DSR-GT-DEL-782
VOHRA  PHARMACY,PH059482,Metro > ASE-GT-NCR-North > New Delhi > Delhi > North > New Delhi > NCR-HAR > India,Pharmacy,[object Object],28.6248154,77.1110371,"C - 7,Hari Nagar Clock Tower Chowk , New  Delhi",DSR-GT-DEL-783
Jai medicos,PH082397,Metro > ASE-GT-NCR-North > New Delhi > Delhi > North > New Delhi > NCR-HAR > India,Pharmacy,[object Object],28.6051095,77.1076001,Mohan nagar sagarpur,DSR-GT-NCR-760
CAT AND DOG SAFARI-Silver,PS022033,Metro > ASE-SPT-NCR-North-West 2 > Ncr > Delhi > North > New Delhi > North Metro SPT > India,Petshop,[object Object],28.7038351,77.1253214,"3646, frist floor, Near Hamdard",FSA-SPT-NCR-019
NEW FAIR DEAL MEDICOS,PH064340,Metro > ASE-GT-NCR-North > New Delhi > Delhi > North > New Delhi > NCR-HAR > India,Pharmacy,[object Object],28.627065,77.1136217,"C-17A,HARI NAGAR DDU HOSPITAL BACK GATE",DSR-GT-DEL-783
Gupta ji dawai ghar,WP002914,Metro > ASE-GT-NCR-East > New Delhi > Delhi > North > New Delhi > NCR-HAR > India,Wholesale Pharmacy,[object Object],28.6777794,77.2887935,Main babarpur road rohatsh nagar,DSR-GT-NCR-504
Mithila medicos,PH108741,Metro > ASE-GT-NCR-South > New Delhi > Delhi > North > New Delhi > NCR-HAR > India,Pharmacy,[object Object],28.5049182,77.3222832,B165/main 60ft road,DSR-GT-NCR-772
M.D.medicos,WP002936,Metro > ASE-GT-NCR-East > New Delhi > Delhi > North > New Delhi > NCR-HAR > India,Wholesale Pharmacy,[object Object],28.6706535,77.2836961,Bihari colony  Gali no 4,DSR-GT-NCR-504
Jai Bala Ji Medicos(ROA),TG001424,Metro > ASE-GT-NCR-North > New Delhi > Delhi > North > New Delhi > NCR-HAR > India,Traditional Grocery,[object Object],28.7068776,77.1001524,"A-32A, Vijay Vihar , Phase 2, Sector -4,Rohini110085",DSR-NCR-160
Delhi medicos,DS008787,Metro > ASE-GT-NCR-North > New Delhi > Delhi > North > New Delhi > NCR-HAR > India,Pharmacy,[object Object],28.7112681,77.1196379,"D-14/215, Sector -7, Rohini ,110085",DSR-NCR-160
SUPER MADICOS,PH110804,Metro > ASE-GT-NCR-North > New Delhi > Delhi > North > New Delhi > NCR-HAR > India,Pharmacy,[object Object],28.7011773,77.1010544,F22/69 SHOP NO 5. ROHINI SEC 3,DSR-NCR-160
Aadi medicos,PH116711,Metro > ASE-GT-NCR-South > New Delhi > Delhi > North > New Delhi > NCR-HAR > India,Pharmacy,[object Object],28.4991598,77.3120314,Shop no 125/126 molarband,DSR-GT-NCR-772
KRISHNA  MEDICOS,PH059823,Metro > ASE-GT-NCR-North > New Delhi > Delhi > North > New Delhi > NCR-HAR > India,Pharmacy,[object Object],28.6487177,77.1160746,"EL - 6 , SHOP NO . 3 , L BLOCK  , HARI NAGAR",DSR-GT-DEL-783
B well pharmacy,PH111655,Metro > ASE-GT-NCR-North > New Delhi > Delhi > North > New Delhi > NCR-HAR > India,Pharmacy,[object Object],28.7265305,77.2188713,Shop-no-1 gali no-5 sangam vihar,DSR-GT-NCR-857
SHRI HANS MEDICAL STORE,PH082097,Metro > ASE-GT-NCR-North > New Delhi > Delhi > North > New Delhi > NCR-HAR > India,Pharmacy,[object Object],28.7060919,77.0994331,A -32 SHOP NO 9 PHASE 2 VIJAY  0,DSR-NCR-160
SACHDEVA MEDICOS(UTTAM NAGAR),PH041187,Metro > ASE-GT-NCR-North > New Delhi > Delhi > North > New Delhi > NCR-HAR > India,Pharmacy,[object Object],28.6240971,77.0584012,"G-1/89,UTTAM NAGAR  DALMIL ROADNEW DELHI-59",DSR-GT-NCR-424
Om Medicos,PH056828,Metro > ASE-GT-NCR-East > New Delhi > Delhi > North > New Delhi > NCR-HAR > India,Pharmacy,[object Object],28.6697932,77.2962779,2740 Shop No 2 Main Road Jawala Nahar Delhi..110032,DSR-GT-NCR-504
Crown medicos,PH114225,Metro > ASE-GT-NCR-North > New Delhi > Delhi > North > New Delhi > NCR-HAR > India,Pharmacy,[object Object],28.7286198,77.2161395,Gali no-6 sangam vihar near Vishal,DSR-GT-NCR-857
Gani medicos,PH107779,Metro > ASE-GT-NCR-North > New Delhi > Delhi > North > New Delhi > NCR-HAR > India,Pharmacy,[object Object],28.728414,77.2176946,K no-8 gali no-6 near Ayesha masjid,DSR-GT-NCR-857
Narula medical,PH108936,Metro > ASE-GT-NCR-North > New Delhi > Delhi > North > New Delhi > NCR-HAR > India,Pharmacy,[object Object],28.6958196,77.0814223,H-52/17 shop no-5 ground floor sector,DSR-NCR-037
Deepak Store(ROA),TG006262,Metro > ASE-GT-NCR-East > New Delhi > Delhi > North > New Delhi > NCR-HAR > India,Traditional Grocery,[object Object],28.680455,77.29833167,U-19 Nveen Shahdra,DSR-NCR-154
Raj medical store,PH042490,Metro > ASE-GT-NCR-North > New Delhi > Delhi > North > New Delhi > NCR-HAR > India,Pharmacy,[object Object],28.6027183,77.0996231,rz 24-284 Geetanjali park West Sagar Pur,DSR-GT-NCR-760
Shankar Store,TG017483,Metro > ASE-GT-NCR-North > New Delhi > Delhi > North > New Delhi > NCR-HAR > India,Traditional Grocery,[object Object],28.6652595,77.0730386,"Near Police Station, Nihal Vihar, Nangloi,New Delhi",DSR-GT-NCR-652
Shreeti Pet Shop-Gold,PS010825,Metro > ASE-SPT-NCR-North-West 2 > New Delhi > Delhi > North > New Delhi > North Metro SPT > India,Petshop,[object Object],28.60628742,77.10785285,WZ 1195.Pankha Road D-2 A Janak Puri.Mini Market .New Delhi 110046,FSA-SPT-NCR-016
Drogheria The House Of Grocery,DS015274,Metro > ASE-GT-NCR-South > New Delhi > Delhi > North > New Delhi > NCR-HAR > India,MG Supermarket,[object Object],28.5246818,77.1592015,"Shop No.-1 Ganga Yamuna Apartment, D-6, Vasant Kunj-110070",DSR-GT-NCR-503
ARMY MEDICAL STORE <A0001>,PH005399,Metro > ASE-GT-NCR-North > New Delhi > Delhi > North > New Delhi > NCR-HAR > India,Pharmacy,[object Object],28.5964243,77.1231264,1/234/2 SADAR BAZAR DELHI CANTNEW DELHI-1100105694111,DSR-NCR-032
ALL INDIA CHEMIST,PH016305,Metro > ASE-GT-NCR-South > New Delhi > Delhi > North > New Delhi > NCR-HAR > India,Modern Pharmacy,[object Object],28.5192638,77.1591992,"SNO21&22,CENTRE MKT, MASOODPUR,VASANT KUNJ",DSR-GT-NCR-503
Junaid Store,DS023120,Metro > ASE-GT-NCR-North > New Delhi > Delhi > North > New Delhi > NCR-HAR > India,Super Grocery,[object Object],28.7277827,77.2251983,Isha chowk wazirabad Village,DSR-GT-NCR-857
Delta,PH089043,Metro > ASE-GT-NCR-South > New Delhi > Delhi > North > New Delhi > NCR-HAR > India,Pharmacy,[object Object],28.5196188,77.1705527,Gaushala mandir,DSR-NCR-036
ASHU MEDICOS,PH110805,Metro > ASE-GT-NCR-North > New Delhi > Delhi > North > New Delhi > NCR-HAR > India,Pharmacy,[object Object],28.7063502,77.1029089,A-1/30 SEC 4 ROHINI,DSR-NCR-160
A one store,DS022821,Metro > ASE-GT-NCR-North > New Delhi > Delhi > North > New Delhi > NCR-HAR > India,Super Grocery,[object Object],28.7255913,77.2254318,Gali number 9 Afghani chowk,DSR-GT-NCR-857
Lemon Store,DS004344,Metro > ASE-GT-NCR-South > New Delhi > Delhi > North > New Delhi > NCR-HAR > India,MG Supermarket,[object Object],28.5837609,77.2232294,"SHOP NO 14, , , MAIN MARKET, LODHI ROAD, New Delhi, , Delhi, 110003",DSR-NCR-041
SHIVANI MEDICOS,PH110719,Metro > ASE-GT-NCR-North > New Delhi > Delhi > North > New Delhi > NCR-HAR > India,Pharmacy,[object Object],28.6520954,77.0630335,"Shop No.4 , shukar bazaar, near tata",DSR-GT-NCR-652
Krishna Raj Pharmacy(ROA),PH005410,Metro > ASE-GT-NCR-North > New Delhi > Delhi > North > New Delhi > NCR-HAR > India,Pharmacy,[object Object],28.6279973,77.0893553,"B-1A Shop No 2, Near B1 Block Gate No-1 Janak Puri Delhi -58",DSR-NCR-031
Manish Agencies Retails Pvt Ltd ( Janakpuri C4E Block),DS017997,Metro > ASE-GT-NCR-North > New Delhi > Delhi > North > New Delhi > NCR-HAR > India,MG Supermarket,[object Object],28.6150452,77.0901081,"C3-14-15,Opp. C4E Market,Janakpuri, Delhi-110058",DSR-GT-NCR-629
B. R medicos,PH043038,Metro > ASE-GT-NCR-North > New Delhi > Delhi > North > New Delhi > NCR-HAR > India,Pharmacy,[object Object],28.6994667,77.0982633,A-196 pkt 00 sector -2 Rohini n. Delhi,DSR-NCR-160
NEW SANJAY STORE,DS001340,Metro > ASE-GT-NCR-South > New Delhi > Delhi > North > New Delhi > NCR-HAR > India,MG Supermarket,[object Object],28.5146348,77.1674172,"SEC-A,PKT-A,VASANT KUNJ",DSR-GT-DEL-782
Mittal medicos,PH051099,Metro > ASE-GT-NCR-South > New Delhi > Delhi > North > New Delhi > NCR-HAR > India,Pharmacy,[object Object],28.4900827,77.3071204,40phuta road,DSR-GT-NCR-610
Jivak pharmacy,PH110206,Metro > ASE-GT-NCR-South > New Delhi > Delhi > North > New Delhi > NCR-HAR > India,Pharmacy,[object Object],28.4992837,77.2869837,F84-vishkarma colony,DSR-GT-NCR-772
Metro Pet Mall(ROA)-Gold,PS007661,Metro > ASE-SPT-NCR-North-West 2 > New Delhi > Delhi > North > New Delhi > North Metro SPT > India,Petshop,[object Object],28.62145428,77.0701987,"279, A1 Block, Janakpuri",FSA-SPT-NCR-016
RAJ MANDIR HYPER MARKET (Janak Puri),DS016428,Metro > ASE-GT-NCR-North > New Delhi > Delhi > North > New Delhi > NCR-HAR > India,MG Hypermarket,[object Object],28.6272246,77.0920729,"B-2\84, Janak Puri West Delhi ,Delhi-110058",DSR-NCR-031
SH.JAGANNATH KATYAL MEDICOS,PH085957,Metro > ASE-GT-NCR-North > New Delhi > Delhi > North > New Delhi > NCR-HAR > India,Pharmacy,[object Object],28.6655832,77.074626,Shop No . 5/R.Z.A.278.nihal vihar,DSR-GT-NCR-652
UR MED PHARMACY,PH122010,Metro > ASE-GT-NCR-North > New Delhi > Delhi > North > New Delhi > NCR-HAR > India,Pharmacy,[object Object],28.6666039,77.0656816,Main 50 feet Road Nihal vihar,DSR-GT-NCR-652
Aggarwal Ayurvedic & Homeopathtic Pharmacy,PH032187,Metro > ASE-GT-NCR-North > New Delhi > Delhi > North > New Delhi > NCR-HAR > India,Pharmacy,[object Object],28.6216744,77.0574786,"Wz-18-19, Vashishth Park, Pankha Road, New Delhi",DSR-GT-NCR-760
All Needs(ROA),WP000461,Metro > ASE-GT-NCR-East > New Delhi > Delhi > North > New Delhi > NCR-HAR > India,Wholesale Grocery,[object Object],28.65547667,77.310335,"7/New Rajdhani Enclavevikas Marg, Delhi,",DSR-NCR-154
VANSHIKA MEDICOS,PH111096,Metro > ASE-GT-NCR-North > New Delhi > Delhi > North > New Delhi > NCR-HAR > India,Pharmacy,[object Object],28.6666302,77.0657554,"Shop . No 6, E-244a Maine market Nihal",DSR-GT-NCR-652
Saif chemist,PH054607,Metro > ASE-GT-NCR-South > New Delhi > Delhi > North > New Delhi > NCR-HAR > India,Pharmacy,[object Object],28.4991064,77.2508539,okhla vihar,DSR-GT-NCR-772
Aman medicos medicine&,PH120267,Metro > ASE-GT-NCR-South > New Delhi > Delhi > North > New Delhi > NCR-HAR > India,Pharmacy,[object Object],28.4991791,77.2508136,Hr-223 60ft road pul Pharlad Pur,DSR-GT-NCR-772
AADIV JAN SEVA MEDICOS,PH109959,Metro > ASE-GT-NCR-North > New Delhi > Delhi > North > New Delhi > NCR-HAR > India,Pharmacy,[object Object],28.6080238,77.0937977,Plot no -1-111 KH NO -213 WEST,DSR-GT-NCR-760
A.BS Store(ROA),TG001535,Metro > ASE-GT-NCR-East > New Delhi > Delhi > North > New Delhi > NCR-HAR > India,MG Supermarket,[object Object],28.67009667,77.31089,"Plot No.4, Alliance Tower,Shopping Centre Savita Vihar, Delhi- 110092",DSR-NCR-154
Easymax suparmarket,MGS09070,Metro > ASE-GT-NCR-North > New Delhi > Delhi > North > New Delhi > NCR-HAR > India,MG Supermarket,[object Object],28.7231782,77.2283593,Plot no-5 and 5-A right portion 2nd,DSR-GT-NCR-857
Crown pharmacy,PH128929,Metro > ASE-GT-NCR-North > New Delhi > Delhi > North > New Delhi > NCR-HAR > India,Pharmacy,[object Object],28.7276745,77.2177858,Gali no-5 kh no-5/1 shop no-6 sangam,DSR-GT-NCR-857
LAXMI MART,DS017415,Metro > ASE-GT-NCR-South > New Delhi > Delhi > North > New Delhi > NCR-HAR > India,MG Supermarket,[object Object],28.5268264,77.1525999,"C-14, Main Road, Masoodpur, Vasant Kunj, New Delhi",DSR-GT-NCR-503
Anand Medicos,PH043808,Metro > ASE-GT-NCR-North > New Delhi > Delhi > North > New Delhi > NCR-HAR > India,Pharmacy,[object Object],28.59644,77.1230233,3-2-4 gopinath Bazar Delhi cantt,DSR-NCR-032
Gupta Ji Dawai Ghar,PH063355,Metro > ASE-GT-NCR-East > New Delhi > Delhi > North > New Delhi > NCR-HAR > India,Pharmacy,[object Object],28.6781506,77.2885981,"16658,East Rohtash Nagar, Main Hanuman Road Shahdara Delhi-110032",DSR-GT-NCR-504
Rohtash medicos,PH121676,Metro > ASE-GT-NCR-South > New Delhi > Delhi > North > New Delhi > NCR-HAR > India,Pharmacy,[object Object],28.4991306,77.2509101,Shop no 12/B56 Sangam vihar,DSR-GT-NCR-772
FAIR DEAL MEDIWAYS,PH056056,Metro > ASE-GT-NCR-North > New Delhi > Delhi > North > New Delhi > NCR-HAR > India,Pharmacy,[object Object],28.6271771,77.1108952,"A-10,JANAK PARK HARI NAGAR OPP DEEN DAYAL HOSPITAL ND-",DSR-GT-DEL-783
J.S. Medicos(ROA),PH004769,Metro > ASE-GT-NCR-North > New Delhi > Delhi > North > New Delhi > NCR-HAR > India,Pharmacy,[object Object],28.7107011,77.1040733,B-7/212 Sec-4 Rohini,DSR-NCR-160
dadu medical,PH051481,Metro > ASE-GT-NCR-South > New Delhi > Delhi > North > New Delhi > NCR-HAR > India,Pharmacy,[object Object],28.4970591,77.3126714,molarband,DSR-GT-NCR-572
Sankar medical,PH104257,Metro > ASE-GT-NCR-North > New Delhi > Delhi > North > New Delhi > NCR-HAR > India,Pharmacy,[object Object],28.6405427,77.0318251,R-block rohini sector 16 gt2 block,DSR-NCR-037
Medical Store,PH121298,Metro > ASE-GT-NCR-South > New Delhi > Delhi > North > New Delhi > NCR-HAR > India,Pharmacy,[object Object],28.4991393,77.2509035,H block khadda colony jaitpur,DSR-GT-NCR-610
Bansiwal medicos,PH112958,Metro > ASE-GT-NCR-North > New Delhi > Delhi > North > New Delhi > NCR-HAR > India,Pharmacy,[object Object],28.6272419,77.0584444,Shop no 2 -A2-14 hastal road uttam,DSR-GT-NCR-424
SHARMA MEDICOS,PH058708,Metro > ASE-GT-NCR-North > New Delhi > Delhi > North > New Delhi > NCR-HAR > India,Pharmacy,[object Object],28.6461904,77.0616724,"SHOP NO.1, 12-B-C GRAM SABHA CHANDER VIHAR",DSR-GT-NCR-652
Chawla Medicos .(ROA),PH004765,Metro > ASE-GT-NCR-North > New Delhi > Delhi > North > New Delhi > NCR-HAR > India,Pharmacy,[object Object],28.6982847,77.1049779,Shop No-4 Csc-4 Dividing Road Sec-2&3 Rohini Sec-2 Near Jain Sweets,DSR-NCR-160
Hurain General Store,DS022758,Metro > ASE-GT-NCR-North > New Delhi > Delhi > North > New Delhi > NCR-HAR > India,Super Grocery,[object Object],28.7285,77.2253896,Shop no-c-159 gali no-9 Sirsa chowk,DSR-GT-NCR-857
Taneja Medical Store,PH043402,Metro > ASE-GT-NCR-East > New Delhi > Delhi > North > New Delhi > NCR-HAR > India,Pharmacy,[object Object],28.6687926,77.291237,"277-78, Bada Bazar Farsh Bazar, Shahdera",DSR-GT-NCR-504
Soami Medical Store,PH043390,Metro > ASE-GT-NCR-East > New Delhi > Delhi > North > New Delhi > NCR-HAR > India,Pharmacy,[object Object],28.6709826,77.2886832,"B-55, Bhola Nath Nagar, Shahdera, Delhi -110032",DSR-GT-NCR-504
Shivaay Medicos,PH098343,Metro > ASE-GT-NCR-East > New Delhi > Delhi > North > New Delhi > NCR-HAR > India,Pharmacy,[object Object],28.7022736,77.2952852,"B-60, Main Road, Amar Colony, Delhi",DSR-NCR-154
Shri Ram pharmacy,PH104258,Metro > ASE-GT-NCR-North > New Delhi > Delhi > North > New Delhi > NCR-HAR > India,Pharmacy,[object Object],28.6404818,77.031821,5620 Q block Rohini sector 18,DSR-NCR-037
Aanya medicos,PH098903,Metro > ASE-GT-NCR-South > New Delhi > Delhi > North > New Delhi > NCR-HAR > India,Pharmacy,[object Object],28.4989561,77.2512065,D-4 budh vihar tajpur Badarpur,DSR-GT-NCR-610
anshu store,DS017823,Metro > ASE-GT-NCR-South > New Delhi > Delhi > North > New Delhi > NCR-HAR > India,MG Supermarket,[object Object],28.4935546,77.3097973,plot number 3 60 ft Road,DSR-GT-NCR-572
SHRI VENKATESHWAR SUPER MARKET,DS009225,Metro > ASE-GT-NCR-North > New Delhi > Delhi > North > New Delhi > NCR-HAR > India,MG Hypermarket,[object Object],28.6152598,77.0901906,C-3/12 Gf Opp. C4E Market N.Delhi 58,DSR-GT-NCR-629
Good life Pharmacy,PH115787,Metro > ASE-GT-NCR-South > New Delhi > Delhi > North > New Delhi > NCR-HAR > India,Pharmacy,[object Object],28.4926066,77.3039744,Shop no. 3 plot no 1 tajpur village,DSR-GT-NCR-572
Tiwari medical Store,PH098965,Metro > ASE-GT-NCR-South > New Delhi > Delhi > North > New Delhi > NCR-HAR > India,Pharmacy,[object Object],28.4954567,77.3253685,B14/om nagar Badarpur border,DSR-GT-NCR-572
SHYAM PET FOOD-Gold,PS014784,Metro > ASE-SPT-NCR-North-West 2 > New Delhi > Delhi > North > New Delhi > North Metro SPT > India,Petshop,[object Object],28.7265814,77.051081,"SHER SINGH ENCLAVE, GROUND FLOOR, H.NO, 19, BLOCK -A, VILL.BEGAMPUR, BEGAMPUR,NEW DELHI, NORTH WEST DELHI, 110086",FSA-SPT-NCR-019
Max Bazar (Nangloi),DS013298,Metro > ASE-GT-NCR-North > New Delhi > Delhi > North > New Delhi > NCR-HAR > India,MG Hypermarket,[object Object],28.6812555,77.0671299,Plot No 1 Nangloi Najafgarh Road Delhi 110041,DSR-GT-NCR-424
Chien N Chat Pet Shop & Spa(ROA)-Platinum,PS006636,Metro > ASE-SPT-NCR-North-West 1 > New Delhi > Delhi > North > New Delhi > North Metro SPT > India,Petshop,[object Object],28.5834311,77.0563005,Shop No.G19 Dda Market Csc Dwarka Sec.10 Delhi,FSA-SPT-HAR-014
Star Medicos,PH095091,Metro > ASE-GT-NCR-North > New Delhi > Delhi > North > New Delhi > NCR-HAR > India,Pharmacy,[object Object],28.6157837,77.0893487,C-2/D mkt shop no -9 Janakpuri,DSR-GT-NCR-629
Prem medicoz,PH111123,Metro > ASE-GT-NCR-North > New Delhi > Delhi > North > New Delhi > NCR-HAR > India,Pharmacy,[object Object],28.611566,77.0698202,Shop no 253 metro pillar no 667 near,DSR-GT-NCR-424
Yadav medicos,PH108742,Metro > ASE-GT-NCR-South > New Delhi > Delhi > North > New Delhi > NCR-HAR > India,Pharmacy,[object Object],28.4873086,77.3125765,3rd/60 ft road,DSR-GT-NCR-772
Dheeraj Brothers Chemist(ROA),PH021460,Metro > ASE-GT-NCR-South > New Delhi > Delhi > North > New Delhi > NCR-HAR > India,Pharmacy,[object Object],28.500499,77.290349,Shop No 133 Prahladpur,DSR-GT-NCR-772
Pet World(ROA)-Silver,PS004351,Metro > ASE-SPT-NCR-North-West 2 > New Delhi > Delhi > North > New Delhi > North Metro SPT > India,Petshop,[object Object],28.7322196,77.0302755,"Kanjhawala Road Near Ssr Hospital,Karala, Delhi-110081",FSA-SPT-NCR-019
Vimla Medicos,PH043396,Metro > ASE-GT-NCR-East > New Delhi > Delhi > North > New Delhi > NCR-HAR > India,Pharmacy,[object Object],28.6942217,77.2913433,27-28 Dda Mkt Janta Flat,DSR-GT-NCR-504
New Sunny Medicos,PH019824,Metro > ASE-GT-NCR-North > New Delhi > Delhi > North > New Delhi > NCR-HAR > India,Pharmacy,[object Object],28.6276164,77.0597129,"Shop No-4,Gurudwara Market,Hastsal Road,Uttam Nagar,New Delhi-110059",DSR-GT-NCR-424
ashirwad medicos,PH039569,Metro > ASE-GT-NCR-North > New Delhi > Delhi > North > New Delhi > NCR-HAR > India,Pharmacy,[object Object],28.7057502,77.1050796,Rohini sec 3,DSR-NCR-160
PULSE CARE PHARMACY,PH114229,Metro > ASE-GT-NCR-North > New Delhi > Delhi > North > New Delhi > NCR-HAR > India,Pharmacy,[object Object],28.6666655,77.0657275,"RZ-G-47/6B,Ground floor, Kh.No.7/12 &",DSR-GT-NCR-652
Dutta medicos,PH114241,Metro > ASE-GT-NCR-North > New Delhi > Delhi > North > New Delhi > NCR-HAR > India,Pharmacy,[object Object],28.728271,77.2230676,A-16 kh no-121 gali no-13 main road,DSR-GT-NCR-857
Sai drishti medicos,PH116383,Metro > ASE-GT-NCR-North > New Delhi > Delhi > North > New Delhi > NCR-HAR > India,Pharmacy,[object Object],28.7308531,77.223502,Gali no-17 main road vilage,DSR-GT-NCR-857
Shri Balaji Medical,PH051891,Metro > ASE-GT-NCR-East > New Delhi > Delhi > North > New Delhi > NCR-HAR > India,Pharmacy,[object Object],28.6769382,77.2895724,1038-1Railway Road Shahdara,DSR-GT-NCR-504
Maan medicos,PH128814,Metro > ASE-GT-NCR-East > New Delhi > Delhi > North > New Delhi > NCR-HAR > India,Pharmacy,[object Object],28.6827621,77.2871667,Shivaji park shop no.5 shahdara,DSR-GT-NCR-504
Raju medical store,PH120344,Metro > ASE-GT-NCR-South > New Delhi > Delhi > North > New Delhi > NCR-HAR > India,Pharmacy,[object Object],28.4957696,77.2965524,"Gb-33, Pul pehladpur",DSR-GT-NCR-572
S.K.G Kirana Store,DS018186,Metro > ASE-GT-NCR-North > New Delhi > Delhi > North > New Delhi > NCR-HAR > India,MG Supermarket,[object Object],28.659157,77.0649006,"Ground floor, Aggarwal Banquet Nihal Vihar, New Delhi,110041",DSR-GT-NCR-652
Shiv Medicos,PH111009,Metro > ASE-GT-NCR-North > New Delhi > Delhi > North > New Delhi > NCR-HAR > India,Pharmacy,[object Object],28.648676,77.1160316,Block 15 press colony,DSR-GT-DEL-783
Kaizan Medicos,PH056354,Metro > ASE-GT-NCR-East > New Delhi > Delhi > North > New Delhi > NCR-HAR > India,Pharmacy,[object Object],28.70002833,77.32317167,14-A Gagan Vihar,DSR-NCR-154
Garg And Company,DS009147,Metro > ASE-GT-NCR-South > New Delhi > Delhi > North > New Delhi > NCR-HAR > India,Super Grocery,[object Object],28.4980906,77.2924662,"Dda Flats Road, Prahladpur",DSR-GT-NCR-572
Saraswat medicos,PH054827,Metro > ASE-GT-NCR-South > New Delhi > Delhi > North > New Delhi > NCR-HAR > India,Pharmacy,[object Object],28.4922553,77.3187378,Sindhu farm road,DSR-GT-NCR-772
Pradhan mantri bhartiy jana,PH112959,Metro > ASE-GT-NCR-North > New Delhi > Delhi > North > New Delhi > NCR-HAR > India,Pharmacy,[object Object],28.7291012,77.2233246,Shop no-12 kh no.120 gali no-14,DSR-GT-NCR-857
Akash medicos,PH109361,Metro > ASE-GT-NCR-South > New Delhi > Delhi > North > New Delhi > NCR-HAR > India,Pharmacy,[object Object],28.5029575,77.331545,Gyan mandir road,DSR-GT-NCR-772
Bharat Medicos,PH092498,Metro > ASE-GT-NCR-East > New Delhi > Delhi > North > New Delhi > NCR-HAR > India,Pharmacy,[object Object],28.7025575,77.3100804,"Pal Market Chourah, Mandoli",DSR-NCR-154
Standard Pharmacy,PH032197,Metro > ASE-GT-NCR-North > New Delhi > Delhi > North > New Delhi > NCR-HAR > India,Pharmacy,[object Object],28.6155691,77.0876281,"C2D/C2C, Sh No-8 Dda Mkt, Janakpuri Nd-58",DSR-GT-NCR-629
Krishna Store,PH005398,Metro > ASE-GT-NCR-North > New Delhi > Delhi > North > New Delhi > NCR-HAR > India,Pharmacy,[object Object],28.5963739,77.1230206,"1/233, SADAR BAZAR, DELHI CANTT-110010",DSR-NCR-032
Shubham ji Trader,MGS02266,Metro > ASE-GT-NCR-North > New Delhi > Delhi > North > New Delhi > NCR-HAR > India,MG Supermarket,[object Object],28.6666008,77.0656283,"A-1, Phase -2, Vikas Nagar,Ranhola Road Uttam Nagar, New Delhi,110059",DSR-GT-NCR-652
SUBH MEDICOS,PH029004,Metro > ASE-GT-NCR-South > New Delhi > Delhi > North > New Delhi > NCR-HAR > India,Pharmacy,[object Object],28.5188933,77.1632328,"MAIN MARKET,KISHANGARH",DSR-GT-DEL-782
Sahayog pharmacy,PH127041,Metro > ASE-GT-NCR-East > New Delhi > Delhi > North > New Delhi > NCR-HAR > India,Pharmacy,[object Object],28.680446,77.3171323,Dilshad garden,DSR-GT-NCR-504
Akshra medical store,PH112960,Metro > ASE-GT-NCR-North > New Delhi > Delhi > North > New Delhi > NCR-HAR > India,Pharmacy,[object Object],28.6665748,77.0657656,50 futa road nihal vihar,DSR-GT-NCR-652
Manoj chemist,PH051491,Metro > ASE-GT-NCR-South > New Delhi > Delhi > North > New Delhi > NCR-HAR > India,Pharmacy,[object Object],28.4991337,77.2509578,shop no 39 60futa 2,DSR-GT-NCR-772
Kamal Super Mart(ROA),DS013268,Metro > ASE-GT-NCR-South > New Delhi > Delhi > North > New Delhi > NCR-HAR > India,MG Supermarket,[object Object],28.5240849,77.1661464,"Shop No-2, Pocket-B, Vasant Kunj",DSR-GT-DEL-782
Laxmi medical,PH108937,Metro > ASE-GT-NCR-North > New Delhi > Delhi > North > New Delhi > NCR-HAR > India,Pharmacy,[object Object],28.6958858,77.0813969,C block 15/75 shop no 55 sector 16,DSR-NCR-037
WELLNESS PHARMACY,PH110808,Metro > ASE-GT-NCR-North > New Delhi > Delhi > North > New Delhi > NCR-HAR > India,Pharmacy,[object Object],28.7005079,77.102,"F22/1,SHOP NO 5 ROHINI SEC 3",DSR-NCR-160
Need n grocery store,MGS07905,Metro > ASE-GT-NCR-South > New Delhi > Delhi > North > New Delhi > NCR-HAR > India,MG Supermarket,[object Object],28.5002165,77.2902283,"Jassu Market, E-133, Labour Chowk",DSR-GT-NCR-772
GURUNANAK HYPERMART,MGH00171,Metro > ASE-GT-NCR-North > New Delhi > Delhi > North > New Delhi > NCR-HAR > India,MG Hypermarket,[object Object],28.627455,77.09194,B2-81 JANAKPURI  NEW DELHI 110058,DSR-NCR-031
Kusum medicos,PH042494,Metro > ASE-GT-NCR-North > New Delhi > Delhi > North > New Delhi > NCR-HAR > India,Pharmacy,[object Object],28.6033125,77.1052979,rz 20- H-6 gali number 5 near sabzi mandi main Sagar Pur New Delhi,DSR-GT-NCR-760
Arora Medical Store(ROA),PH008225,Metro > ASE-GT-NCR-East > New Delhi > Delhi > North > New Delhi > NCR-HAR > India,Pharmacy,[object Object],28.6826572,77.2963672,"1/3225, GROUND FLOOR, MAIN MANDOLI ROAD, RAM NAGAR, SHAHDARA, North East Delhi, Delhi, 110032",DSR-NCR-154
OM SAI MEDICOS,PH097611,Metro > ASE-GT-NCR-North > New Delhi > Delhi > North > New Delhi > NCR-HAR > India,Pharmacy,[object Object],28.6665582,77.0658589,RZ-R71 NIHAL VIHAR,DSR-GT-NCR-652
NIRMAL MEDICOS,PH059155,Metro > ASE-GT-NCR-North > New Delhi > Delhi > North > New Delhi > NCR-HAR > India,Pharmacy,[object Object],28.6487593,77.116057,SL-1 3 L BLACK JAIL ROAD HARI NAGAR,DSR-GT-DEL-783
Babloo medical store,PH093662,Metro > ASE-GT-NCR-South > New Delhi > Delhi > North > New Delhi > NCR-HAR > India,Pharmacy,[object Object],28.5041251,77.3317209,Shop no 1 l-7 jaitpur extn,DSR-GT-NCR-772
GAGAN MEDICOS,PH062506,Metro > ASE-GT-NCR-North > New Delhi > Delhi > North > New Delhi > NCR-HAR > India,Pharmacy,[object Object],28.6512342,77.0674733,"SHOP NO-2 GF,45-A, KHASRA NO )-27-22 !VILLAGE NILOTHI SUNDAY BAZAR",DSR-GT-NCR-652
Amit Medicos,TG017484,Metro > ASE-GT-NCR-North > New Delhi > Delhi > North > New Delhi > NCR-HAR > India,Traditional Grocery,[object Object],28.6515473,77.0694182,"Near Police Station, Nihal Vihar, Nangloi New Delhi",DSR-GT-NCR-652
New tyagi medicos,PH118806,Metro > ASE-GT-NCR-North > New Delhi > Delhi > North > New Delhi > NCR-HAR > India,Pharmacy,[object Object],28.6115626,77.0698192,Shop no 20 dal mil road uttam nagar,DSR-GT-NCR-424
JUST DOGS SPALONS PVT.LTD,PS018118,Metro > ASE-SPT-NCR-North-West 1 > New Delhi > Delhi > North > New Delhi > North Metro SPT > India,Petshop,[object Object],28.52276571,77.20748735,"E-147, lower Ground Floor E",FSA-SPT-NCR-018
Amit medicos,PH112961,Metro > ASE-GT-NCR-North > New Delhi > Delhi > North > New Delhi > NCR-HAR > India,Pharmacy,[object Object],28.6515727,77.0693824,59 futa road nihal vigar,DSR-GT-NCR-652
Dr Raj Kumar(ROA)-Silver,CL000496,Metro > ASE-SPT-NCR-North-West 2 > New Delhi > Delhi > North > New Delhi > North Metro SPT > India,Clinic,[object Object],28.6969506,77.0851482,1105-J BLOCK MANGOL PURI,FSA-SPT-NCR-019
Prakash Medical Hall,PH046655,Metro > ASE-GT-NCR-North > New Delhi > Delhi > North > New Delhi > NCR-HAR > India,Pharmacy,[object Object],28.6025779,77.0997919,"RZ-26-284, Geetanjali Park,Near Tent Wala School Nehru Market West Sagarpur, New Delhi 110046",DSR-GT-NCR-760
SANJEEVANI MEDICOS,PH111101,Metro > ASE-GT-NCR-North > New Delhi > Delhi > North > New Delhi > NCR-HAR > India,Pharmacy,[object Object],28.6666124,77.0657048,"RZ/K2-168,NIHAL VIHAR NANGLOI",DSR-GT-NCR-652
Faiz Medicos,PH097806,Metro > ASE-GT-NCR-North > New Delhi > Delhi > North > New Delhi > NCR-HAR > India,Pharmacy,[object Object],28.7388927,77.1800814,173/1 ESA chowk Street no.9,DSR-GT-NCR-857
SANCHIT MEDICOS,PH032171,Metro > ASE-GT-NCR-South > New Delhi > Delhi > North > New Delhi > NCR-HAR > India,Pharmacy,[object Object],28.5209181,77.1637945,MAIN MKT KISHANGARH,DSR-NCR-036
Jeplus Pharmacy,PH090520,Metro > ASE-GT-NCR-South > New Delhi > Delhi > North > New Delhi > NCR-HAR > India,Pharmacy,[object Object],28.4991306,77.2508791,Rz-483/13 tughlakabad,DSR-GT-NCR-772
Radhey pharmacy,PH095154,Metro > ASE-GT-NCR-South > New Delhi > Delhi > North > New Delhi > NCR-HAR > India,Pharmacy,[object Object],28.505599,77.324495,E-3 Hari nagar,DSR-GT-NCR-610
G K Medicos,WP002498,Metro > ASE-GT-NCR-East > New Delhi > Delhi > North > New Delhi > NCR-HAR > India,Wholesale Pharmacy,[object Object],28.7027001,77.2960034,"C-4,  Main Road, Amar Colony, Delhi",DSR-NCR-154
Sanjeev Medicos,PH004977,Metro > ASE-GT-NCR-North > New Delhi > Delhi > North > New Delhi > NCR-HAR > India,Pharmacy,[object Object],28.6212004,77.1076855,Shop No 14 Hari Nagar Delhi -110064,DSR-GT-DEL-783
R.R. medicos,PH102351,Metro > ASE-GT-NCR-South > New Delhi > Delhi > North > New Delhi > NCR-HAR > India,Pharmacy,[object Object],28.5614396,77.1948426,"198,Shop no.2, Humayun pur",DSR-GT-NCR-508
MEDI SHOPPE,PH056057,Metro > ASE-GT-NCR-North > New Delhi > Delhi > North > New Delhi > NCR-HAR > India,Pharmacy,[object Object],28.6486592,77.1160584,"BE-334, SHOP NO. 4-5, HARI NAGAR, NEW DELHI-110064",DSR-GT-DEL-783
Neha Medical Store,PH098345,Metro > ASE-GT-NCR-East > New Delhi > Delhi > North > New Delhi > NCR-HAR > India,Pharmacy,[object Object],28.7023884,77.3002684,"20 Foota Road, Meet Nagar Delhi",DSR-NCR-154
Pet food store(ROA)-Silver,PS008702,Metro > ASE-SPT-NCR-North-West 1 > New Delhi > Delhi > North > New Delhi > North Metro SPT > India,Petshop,[object Object],28.707431,77.2857374,RZF-60 Pradhan chowk,FSA-SPT-HAR-014
RITU MEDICOS,PH102352,Metro > ASE-GT-NCR-South > New Delhi > Delhi > North > New Delhi > NCR-HAR > India,Pharmacy,[object Object],28.5186788,77.1641081,Kishan garh main market,DSR-NCR-036
King Pet(ROA)-Gold,PS001772,Metro > ASE-SPT-NCR-North-West 2 > New Delhi > Delhi > North > New Delhi > North Metro SPT > India,Petshop,[object Object],28.63339457,77.09013708,B-1/33 GF SHOP JANAKPURI N.DELHI 58,FSA-SPT-NCR-016
Medicines,PH112115,Metro > ASE-GT-NCR-South > New Delhi > Delhi > North > New Delhi > NCR-HAR > India,Pharmacy,[object Object],28.5605775,77.2071883,17/21 Yusuf sarai Maine market,DSR-NCR-041
Piplani Medicos & Departmental Store,PH043975,Metro > ASE-GT-NCR-South > New Delhi > Delhi > North > New Delhi > NCR-HAR > India,MG Supermarket,[object Object],28.5606141,77.1970576,"82/2/82/13, Ground Floor, Kumar Arjun Nagar,, Kumar Arjun Nagar,, South Delhi-29",DSR-NCR-041
every day health care,PH053678,Metro > ASE-GT-NCR-South > New Delhi > Delhi > North > New Delhi > NCR-HAR > India,Pharmacy,[object Object],28.4990764,77.2508272,"Rz-1, 55c, madhva marg, tuglakabad extn",DSR-GT-NCR-772
Krishna medicos,PH121956,Metro > ASE-GT-NCR-North > New Delhi > Delhi > North > New Delhi > NCR-HAR > India,Pharmacy,[object Object],28.6115687,77.0698102,A-51 Matiala road near by Sunil dairy,DSR-GT-NCR-424
MOHIT MEDICOS,PH129484,Metro > ASE-GT-NCR-North > New Delhi > Delhi > North > New Delhi > NCR-HAR > India,Pharmacy,[object Object],28.666579,77.0658301,Gali No-20 Kunwar Singh Nagar,DSR-GT-NCR-652
Gopal masala store,TG012163,Metro > ASE-GT-NCR-North > New Delhi > Delhi > North > New Delhi > NCR-HAR > India,Traditional Grocery,[object Object],28.7031153,77.0992797,A-601 avantika sector -1 Rohini Delhi -85,DSR-NCR-160
Gupta medicos,PH127142,Metro > ASE-GT-NCR-East > New Delhi > Delhi > North > New Delhi > NCR-HAR > India,Pharmacy,[object Object],28.6813605,77.3211083,DDA MKT dilshad garden,DSR-GT-NCR-504
Dog Wizz Pet Shop(ROA)-Silver,PS004350,Metro > ASE-SPT-NCR-North-West 2 > New Delhi > Delhi > North > New Delhi > North Metro SPT > India,Petshop,[object Object],28.7033017,77.1909445,"B 39, Derawala Nagar,Delhi-110009",DSR-SPT-NCR-400
Sanjay medical store,PH121356,Metro > ASE-GT-NCR-South > New Delhi > Delhi > North > New Delhi > NCR-HAR > India,Pharmacy,[object Object],28.5146414,77.1673683,Vasant kung pocket a,DSR-NCR-036
Popular medicos,PH118691,Metro > ASE-GT-NCR-South > New Delhi > Delhi > North > New Delhi > NCR-HAR > India,Pharmacy,[object Object],28.4991757,77.2508086,8A. Tajpur phari ntpc road,DSR-GT-NCR-772
Preeti medical,PH051096,Metro > ASE-GT-NCR-South > New Delhi > Delhi > North > New Delhi > NCR-HAR > India,Pharmacy,[object Object],28.5002237,77.3310581,maine tanki road,DSR-GT-NCR-610
Rathore medical store,PH052268,Metro > ASE-GT-NCR-East > New Delhi > Delhi > North > New Delhi > NCR-HAR > India,Pharmacy,[object Object],28.6714992,77.2823119,"4,2414,Main Road Bihari Colony",DSR-GT-NCR-504
Bhushan medicos,WP003001,Metro > ASE-GT-NCR-East > New Delhi > Delhi > North > New Delhi > NCR-HAR > India,Wholesale Pharmacy,[object Object],28.6697634,77.2957781,"7/19, jawala nagar shahdara",DSR-GT-NCR-504
Rohini Medicos(ROA),PH005330,Metro > ASE-GT-NCR-North > New Delhi > Delhi > North > New Delhi > NCR-HAR > India,Pharmacy,[object Object],28.7032334,77.1179278,Shop No-1 Harlal Mkt Nahar Pur Sec-7 Rohini Ph. : 011-27042424,DSR-NCR-160
Kant store,TG022357,Metro > ASE-GT-NCR-South > New Delhi > Delhi > North > New Delhi > NCR-HAR > India,Traditional Grocery,[object Object],28.5512768,77.199807,Shop no 7dda market,DSR-NCR-041
RAJNI MEDICOS,PH058695,Metro > ASE-GT-NCR-North > New Delhi > Delhi > North > New Delhi > NCR-HAR > India,Pharmacy,[object Object],28.6528064,77.0710558,SHOP NO.1 PLOT NO. A-1 KHASRA NO 28-9 HIMGIRI ENCLAVE,DSR-GT-NCR-652
SRI KRISHNA MEDICOS,PH064339,Metro > ASE-GT-NCR-North > New Delhi > Delhi > North > New Delhi > NCR-HAR > India,Pharmacy,[object Object],28.6489332,77.1158305,"OPPOSITE DDU HOSPITAL, ,HARI NAGAR",DSR-GT-DEL-783
nautial medical,PH051092,Metro > ASE-GT-NCR-South > New Delhi > Delhi > North > New Delhi > NCR-HAR > India,Pharmacy,[object Object],28.5042102,77.3314853,3C jaat pur extension part 1 gyaan mandir,DSR-GT-NCR-572
Oberoi medical,PH127160,Metro > ASE-GT-NCR-North > New Delhi > Delhi > North > New Delhi > NCR-HAR > India,Pharmacy,[object Object],28.6405107,77.0317133,13/45 pocket 5 Sector 22 rohini,DSR-NCR-037
Shrera Medicos,WP002978,Metro > ASE-GT-NCR-East > New Delhi > Delhi > North > New Delhi > NCR-HAR > India,Wholesale Pharmacy,[object Object],28.6806318,77.2947367,2405 Ram Nagar Mandoli Road Delhi,DSR-NCR-154
AYU PET CLINIC -Silver,CL004811,Metro > ASE-SPT-NCR-North-West 1 > New Delhi > Delhi > North > South Delhi > North Metro SPT > India,Clinic,[object Object],28.5858781,77.044065,Flate no 81. Akshardham,FSA-SPT-HAR-014
Cure&care chemist,PH111124,Metro > ASE-GT-NCR-North > New Delhi > Delhi > North > New Delhi > NCR-HAR > India,Pharmacy,[object Object],28.6115608,77.0698143,Shop no 45 plot no 41-42 dalmil road,DSR-GT-NCR-424
Pharma Care,PH043843,Metro > ASE-GT-NCR-South > New Delhi > Delhi > North > New Delhi > NCR-HAR > India,Pharmacy,[object Object],28.5193507,77.1699052,"125-9,GF, Near Gaushala Mandir, Kishan Garh, Vasant kunj, New Delhi-110070",DSR-NCR-036
PRINCE MEDICAL STORE,PH107781,Metro > ASE-GT-NCR-North > New Delhi > Delhi > North > New Delhi > NCR-HAR > India,Pharmacy,[object Object],28.6516152,77.0695485,Himgiri Enclave Chandar vihar,DSR-GT-NCR-652
Jai shree shyam medicos,PH111211,Metro > ASE-GT-NCR-South > New Delhi > Delhi > North > New Delhi > NCR-HAR > India,Pharmacy,[object Object],28.5608183,77.1978273,"Shop no.2, 84,GF, Santi niwas, Arjun",DSR-GT-NCR-508
Indian medicos,PH114912,Metro > ASE-GT-NCR-South > New Delhi > Delhi > North > New Delhi > NCR-HAR > India,Pharmacy,[object Object],28.499125,77.2508783,Jaitpur,DSR-GT-NCR-772
A S medical store,PH113997,Metro > ASE-GT-NCR-South > New Delhi > Delhi > North > New Delhi > NCR-HAR > India,Pharmacy,[object Object],28.5070933,77.3206747,"Shop No.R 2/3, Saurabh Vihar,",DSR-GT-NCR-572
Paw s Passion-Silver,CL003524,Metro > ASE-SPT-NCR-North-West 2 > New Delhi > Delhi > North > New Delhi > North Metro SPT > India,Clinic,[object Object],28.707764,77.1919905,"F-11,1 Model Town 2,Besides headz salon",DSR-SPT-NCR-400
Alok D Mart,PH029003,Metro > ASE-GT-NCR-South > New Delhi > Delhi > North > New Delhi > NCR-HAR > India,Modern Pharmacy,[object Object],28.5191525,77.1593259,VASANT KUNJ OPP. FORTIS HOSPITAL,DSR-GT-NCR-503
Shri Goverdhan Medicos,PH058758,Metro > ASE-GT-NCR-South > New Delhi > Delhi > North > New Delhi > NCR-HAR > India,Pharmacy,[object Object],28.4932977,77.326632,B-32 Gali no. 11 Caller School no. 1,DSR-GT-NCR-572
QUALITY HOME SHOP,DS007830,Metro > ASE-GT-NCR-South > New Delhi > Delhi > North > New Delhi > NCR-HAR > India,MG Supermarket,[object Object],28.5199366,77.1644702,VASANT KUNJ,DSR-GT-DEL-782
KAMAL MEDICOS,PH112344,Metro > ASE-GT-NCR-South > New Delhi > Delhi > North > New Delhi > NCR-HAR > India,Pharmacy,[object Object],28.5268598,77.1525973,"D6,Sec-D, Vasant Kunj New Delhi",DSR-GT-NCR-503
Nanak Pharmacy,PH111014,Metro > ASE-GT-NCR-North > New Delhi > Delhi > North > New Delhi > NCR-HAR > India,Pharmacy,[object Object],28.6486814,77.1160363,"Shop no 5 2/236, Subhash Nagar",DSR-GT-DEL-783
Bharat medical Store,PH121674,Metro > ASE-GT-NCR-South > New Delhi > Delhi > North > New Delhi > NCR-HAR > India,Pharmacy,[object Object],28.4991374,77.2509062,A2 main Jaipur Kalindi Kunj road,DSR-GT-NCR-610
R S medicos,PH108217,Metro > ASE-GT-NCR-South > New Delhi > Delhi > North > New Delhi > NCR-HAR > India,Pharmacy,[object Object],28.5613803,77.1927181,101/4 humayunpur safdarjung enclave,DSR-NCR-041
SHREE RADHEY MEDICOS,PH122007,Metro > ASE-GT-NCR-North > New Delhi > Delhi > North > New Delhi > NCR-HAR > India,Pharmacy,[object Object],28.6665999,77.0656178,"H-75 Kunwar Singh Nagar, Budh Bazar",DSR-GT-NCR-652
Amna medicos,PH108835,Metro > ASE-GT-NCR-North > New Delhi > Delhi > North > New Delhi > NCR-HAR > India,Pharmacy,[object Object],28.7272169,77.225125,Shop no-A-13 gali no-9 wazirabad,DSR-GT-NCR-857
Sathi Pharmacey,PH043397,Metro > ASE-GT-NCR-East > New Delhi > Delhi > North > New Delhi > NCR-HAR > India,Pharmacy,[object Object],28.6862113,77.322933,O&p Dilshad Gdn,DSR-GT-NCR-504
Jan Sewa Medicos,PH111484,Metro > ASE-GT-NCR-North > New Delhi > Delhi > North > New Delhi > NCR-HAR > India,Pharmacy,[object Object],28.6377439,77.1102175,"16, subhash nagar",DSR-GT-DEL-783
Guru kripa Medicos,PH110726,Metro > ASE-GT-NCR-North > New Delhi > Delhi > North > New Delhi > NCR-HAR > India,Pharmacy,[object Object],28.6666207,77.0657359,Chandar vihar,DSR-GT-NCR-652
Kalra Chemist(ROA),PH005291,Metro > ASE-GT-NCR-East > New Delhi > Delhi > North > New Delhi > NCR-HAR > India,Pharmacy,[object Object],28.6547435,77.311801,"Shop-17 A Block Dda Mktanand Vihar Delhi,",DSR-NCR-154
Ranjan medical,PH051486,Metro > ASE-GT-NCR-South > New Delhi > Delhi > North > New Delhi > NCR-HAR > India,Pharmacy,[object Object],28.4902103,77.3111029,60futa2,DSR-GT-NCR-772
pets and pamper-Gold,PS010284,Metro > ASE-SPT-NCR-North-West 1 > New Delhi > Delhi > North > New Delhi > North Metro SPT > India,Clinic,[object Object],28.5906888,77.0443526,G-4 Shokeen plaza plot no-3 pocket-7 sector-12 Dwarka new Delhi 110078,FSA-SPT-HAR-014
Jan arogya pharmacy,PH131308,Metro > ASE-GT-NCR-North > New Delhi > Delhi > North > New Delhi > NCR-HAR > India,Pharmacy,[object Object],28.7254666,77.225427,Sabrang public school near Amna,DSR-GT-NCR-857
Shiv om medicos,PH095156,Metro > ASE-GT-NCR-South > New Delhi > Delhi > North > New Delhi > NCR-HAR > India,Pharmacy,[object Object],28.5006125,77.3167407,Shop no 4 om nagar market,DSR-GT-NCR-610
Shri Sai Medicos,PH004737,Metro > ASE-GT-NCR-North > New Delhi > Delhi > North > New Delhi > NCR-HAR > India,Pharmacy,[object Object],28.713948,77.106626,"Shop No :14,Csc-2, Sector 5, Rohini110085",DSR-NCR-160
Sameer medicos,PH108753,Metro > ASE-GT-NCR-South > New Delhi > Delhi > North > New Delhi > NCR-HAR > India,Pharmacy,[object Object],28.4876706,77.3123931,Shop no7.block 11,DSR-GT-NCR-610
MEDCHOICE PHARMACY,PH121967,Metro > ASE-GT-NCR-North > New Delhi > Delhi > North > New Delhi > NCR-HAR > India,Pharmacy,[object Object],28.6665805,77.0656715,Maine Nilothi bus stand,DSR-GT-NCR-652
SWASTIK STORE,DS007832,Metro > ASE-GT-NCR-South > New Delhi > Delhi > North > New Delhi > NCR-HAR > India,MG Supermarket,[object Object],28.5815864,77.2209355,"SHOP NO. 12, , , KHANNA MARKET, LODHI South Delhi, 110003",DSR-NCR-041
THE past yard-Silver,PS010826,Metro > ASE-SPT-NCR-North-West 1 > New Delhi > Delhi > North > New Delhi > North Metro SPT > India,Petshop,[object Object],28.5855335,77.0701441,B-182 palam extension sector -7 dwarka new Delhi 110077,FSA-SPT-HAR-014
Aakash medical store,PH109903,Metro > ASE-GT-NCR-North > New Delhi > Delhi > North > New Delhi > NCR-HAR > India,Pharmacy,[object Object],28.6666254,77.0657563,"G-114,NIHAL vihar Nangloi",DSR-GT-NCR-652
Ayush medicos,PH118692,Metro > ASE-GT-NCR-South > New Delhi > Delhi > North > New Delhi > NCR-HAR > India,Pharmacy,[object Object],28.4991768,77.2508086,Shop no 8 Hanuman mandir,DSR-GT-NCR-772
Shanvi Pharma,PH127932,Metro > ASE-GT-NCR-North > New Delhi > Delhi > North > New Delhi > NCR-HAR > India,Pharmacy,[object Object],28.7570012,77.1654198,Swaroop nagar,DSR-GT-NCR-457
Raj Medicos,PH092601,Metro > ASE-GT-NCR-East > New Delhi > Delhi > North > New Delhi > NCR-HAR > India,Pharmacy,[object Object],28.70129333,77.31653167,"D-269 Gali No.-10 Main Jail Road,",DSR-NCR-154
Babloo medical store,PH093636,Metro > ASE-GT-NCR-South > New Delhi > Delhi > North > New Delhi > NCR-HAR > India,Pharmacy,[object Object],28.5041251,77.3317209,Shop no1 l-7  jaitpur extn,DSR-GT-NCR-772
Ganpati Chemist,PH043418,Metro > ASE-GT-NCR-East > New Delhi > Delhi > North > New Delhi > NCR-HAR > India,Pharmacy,[object Object],28.5997212,77.3176596,"Shop No 36,37 D D A Mkt Vasundra Enclave",DSR-GT-NCR-504
pawan store,DS015490,Metro > ASE-GT-NCR-North > New Delhi > Delhi > North > New Delhi > NCR-HAR > India,MG Supermarket,[object Object],28.5964067,77.1231717,New Delhi,DSR-NCR-032
Deepak Medicos(ROA),PH035004,Metro > ASE-GT-NCR-North > New Delhi > Delhi > North > New Delhi > NCR-HAR > India,Pharmacy,[object Object],28.6115666,77.069812,Rz-129Santosh Park Opp.Sunil Dairy Uttam Nagar Nd110059,DSR-GT-NCR-424
Pharma care,PH090524,Metro > ASE-GT-NCR-South > New Delhi > Delhi > North > New Delhi > NCR-HAR > India,Pharmacy,[object Object],28.519273,77.1688248,Kishan garh 125/9,DSR-NCR-036
New Morning Store,WG000384,Metro > ASE-GT-NCR-South > New Delhi > Delhi > North > New Delhi > NCR-HAR > India,Wholesale Grocery,[object Object],28.5197048,77.1716514,"Shop No.1, D-7, Vasant kunj New Delhi-110070",DSR-NCR-036
chotta docters sagarpur,PH128473,Metro > ASE-GT-NCR-North > New Delhi > Delhi > North > New Delhi > NCR-HAR > India,Pharmacy,[object Object],28.6081155,77.10088258,SHOP NO 2 VASHISTH PARK,DSR-GT-NCR-760
Puplife Pet Clinic-Silver,CL003311,Metro > ASE-SPT-NCR-North-West 1 > New Delhi > Delhi > North > New Delhi > North Metro SPT > India,Clinic,[object Object],28.52236364,77.21536865,"J-296 (J block Main Road) Saket,New Delhi-17Near by Indian Bank",FSA-SPT-NCR-018
holygolee pharmacy Pvt.Ltd,PH061920,Metro > ASE-GT-NCR-South > New Delhi > Delhi > North > New Delhi > NCR-HAR > India,Pharmacy,[object Object],28.4900827,77.3071204,"G_177,40 feet road molarband extension near icic atm badarpur New delhi_110044",DSR-GT-NCR-610
Naman medical Store,PH108756,Metro > ASE-GT-NCR-South > New Delhi > Delhi > North > New Delhi > NCR-HAR > India,Pharmacy,[object Object],28.5001825,77.3276472,S no1/gali no 2,DSR-GT-NCR-610
Smile medicos,PH111104,Metro > ASE-GT-NCR-North > New Delhi > Delhi > North > New Delhi > NCR-HAR > India,Pharmacy,[object Object],28.6666334,77.0657385,Shop no 2 ground floor,DSR-GT-NCR-652
A.j.medicos,PH120461,Metro > ASE-GT-NCR-North > New Delhi > Delhi > North > New Delhi > NCR-HAR > India,Pharmacy,[object Object],28.7308357,77.2242826,Hanuman chok gali no-3 jagatpur,DSR-GT-NCR-857
Aditya medicos,PH053597,Metro > ASE-GT-NCR-South > New Delhi > Delhi > North > New Delhi > NCR-HAR > India,Pharmacy,[object Object],28.5002237,77.3310581,man road Tanki road,DSR-GT-NCR-572
FUR & TAILS-Gold,PS018851,Metro > ASE-SPT-NCR-North-West 2 > New Delhi > Delhi > North > New Delhi > North Metro SPT > India,Petshop,[object Object],28.64870137,77.10328236,J-9-A VISHNU GARDEN ( OPP,FSA-SPT-NCR-016
Bhudev Mega Store,DS011944,Metro > ASE-GT-NCR-North > New Delhi > Delhi > North > New Delhi > NCR-HAR > India,Super Grocery,[object Object],28.6115637,77.0698137,"T-100,Shukkar  Bazaar Uttam Nagar New Delhi 110059",DSR-GT-NCR-424
Sagar medicos,PH051487,Metro > ASE-GT-NCR-South > New Delhi > Delhi > North > New Delhi > NCR-HAR > India,Pharmacy,[object Object],28.4916515,77.3111351,",1614 C 60futa2",DSR-GT-NCR-572
Delta medicos,PH094501,Metro > ASE-GT-NCR-South > New Delhi > Delhi > North > New Delhi > NCR-HAR > India,Pharmacy,[object Object],28.5196808,77.1710719,"S no 1, prop no 7/9  near gaushala",DSR-GT-DEL-782
Mitali pharmacy,PH127950,Metro > ASE-GT-NCR-North > New Delhi > Delhi > North > New Delhi > NCR-HAR > India,Pharmacy,[object Object],28.5933783,77.1217372,Nangal Ray d.d.a mkt,DSR-NCR-032
G.K MADICOSE,PH108836,Metro > ASE-GT-NCR-North > New Delhi > Delhi > North > New Delhi > NCR-HAR > India,Pharmacy,[object Object],28.7030649,77.0994694,SHOP NO 5 TYPE S-1 DDA MKT CSC,DSR-NCR-160
garg medicos,PH039638,Metro > ASE-GT-NCR-North > New Delhi > Delhi > North > New Delhi > NCR-HAR > India,Pharmacy,[object Object],28.7018181,77.1033893,G-26(83-84) near sarvodhya school sec-3 rohini 110085,DSR-NCR-160
LKL Retail Shahdara LLP,WG001065,Metro > ASE-GT-NCR-East > New Delhi > Delhi > North > New Delhi > NCR-HAR > India,Wholesale Grocery,[object Object],28.6803194,77.2944474,"Prop No.1/2432,plot No.14,15,16,",DSR-NCR-154
BHARAT  PHARMACY,PH059156,Metro > ASE-GT-NCR-North > New Delhi > Delhi > North > New Delhi > NCR-HAR > India,Pharmacy,[object Object],28.6487086,77.1160193,"shop : M-2, WZ-51,HARI NAGAR",DSR-GT-DEL-783
Gopal Store,DS013131,Metro > ASE-GT-NCR-North > New Delhi > Delhi > North > New Delhi > NCR-HAR > India,Super Grocery,[object Object],28.6884335,77.1596524,B 717.Sec 1 Avantika Rohini. Delhi,DSR-NCR-160
Modern medical store,PH090529,Metro > ASE-GT-NCR-South > New Delhi > Delhi > North > New Delhi > NCR-HAR > India,Pharmacy,[object Object],28.4990414,77.2507796,Shop no 293/17  tughlakabad,DSR-GT-NCR-772
Sharma Medical Store,PH043411,Metro > ASE-GT-NCR-East > New Delhi > Delhi > North > New Delhi > NCR-HAR > India,Pharmacy,[object Object],28.6942455,77.29134,"Shop No1,2,csc No3,sector B",DSR-GT-NCR-504
SM  pharmacy,PH100996,Metro > ASE-GT-NCR-South > New Delhi > Delhi > North > New Delhi > NCR-HAR > India,Pharmacy,[object Object],28.5193048,77.1688081,12/9 kishangarh near gaushala,DSR-GT-DEL-782
Khurana medicos,PH121949,Metro > ASE-GT-NCR-North > New Delhi > Delhi > North > New Delhi > NCR-HAR > India,Pharmacy,[object Object],28.6115635,77.0698143,A3/24 dal mil road uttam nagar,DSR-GT-NCR-424
A.to.Z medicos,PH060913,Metro > ASE-GT-NCR-South > New Delhi > Delhi > North > New Delhi > NCR-HAR > India,Pharmacy,[object Object],28.4935546,77.3097973,Mohan baba nagar,DSR-GT-NCR-572
pharma care,PH039547,Metro > ASE-GT-NCR-North > New Delhi > Delhi > North > New Delhi > NCR-HAR > India,Pharmacy,[object Object],28.70498,77.1068817,d-1666 sector -3 Rohini Delhi -85,DSR-NCR-160
Lovely medical Store,PH121031,Metro > ASE-GT-NCR-South > New Delhi > Delhi > North > New Delhi > NCR-HAR > India,Pharmacy,[object Object],28.4991328,77.2509006,"219, main market road, badarpur",DSR-GT-NCR-610
Discount Jan aushadhi,PH123614,Metro > ASE-GT-NCR-South > New Delhi > Delhi > North > New Delhi > NCR-HAR > India,Pharmacy,[object Object],28.4900064,77.3084971,Badarpur,DSR-GT-NCR-610
FURRY FLIPP-Silver,PS021764,Metro > ASE-SPT-NCR-North-West 1 > New Delhi > Delhi > North > South Delhi > North Metro SPT > India,Petshop,[object Object],28.5867828,77.0454422,G-17 pocket 2 DDA market sector 11,FSA-SPT-HAR-014
Vcare Pharmacy,PH108938,Metro > ASE-GT-NCR-North > New Delhi > Delhi > North > New Delhi > NCR-HAR > India,Pharmacy,[object Object],28.648692,77.1160282,Dda market shop no 9,DSR-GT-DEL-783
YADUVANSHI DAWA BAZAR,PH060349,Metro > ASE-GT-NCR-North > New Delhi > Delhi > North > New Delhi > NCR-HAR > India,Pharmacy,[object Object],28.6622063,77.0496292,"SHOP AT PLOT 1 GROUND FLOOR KH,12.22,1",DSR-GT-NCR-652
The Capital Medicos & Dept. Store,PH032185,Metro > ASE-GT-NCR-North > New Delhi > Delhi > North > New Delhi > NCR-HAR > India,Pharmacy,[object Object],28.6061925,77.107903,"Wz-1192, Shop No -13, Mohan Nagar, Pankha Road, New Delhi",DSR-GT-NCR-760
Vipin Medical Store,PH056642,Metro > ASE-GT-NCR-East > New Delhi > Delhi > North > New Delhi > NCR-HAR > India,Pharmacy,[object Object],28.69848,77.3232888,Main Road Gagan vihar,DSR-NCR-154
NK,PH051890,Metro > ASE-GT-NCR-East > New Delhi > Delhi > North > New Delhi > NCR-HAR > India,Pharmacy,[object Object],28.6698137,77.296366,"27, 51 Jwala Nagar Shahdara Delhi 110032",DSR-GT-NCR-504
Kamakshi Medicos,PH051760,Metro > ASE-GT-NCR-North > New Delhi > Delhi > North > New Delhi > NCR-HAR > India,Pharmacy,[object Object],28.6042516,77.1068933,"Shop No-1,RZ20B-1A, Main Sagar pur, Palam Road, New Delhi,-110046",DSR-GT-NCR-760
The safdarjung pharmacy,PH102353,Metro > ASE-GT-NCR-South > New Delhi > Delhi > North > New Delhi > NCR-HAR > India,Pharmacy,[object Object],28.5616393,77.2003709,Shop no g2 G F H.no 44A/1arjun,DSR-NCR-041
Town Medicos,PH116326,Metro > ASE-GT-NCR-East > New Delhi > Delhi > North > New Delhi > NCR-HAR > India,Pharmacy,[object Object],28.6936893,77.3067747,"A-2, Nand Nagari Delhi",DSR-NCR-154
SUGANDH MADICAL HALL,PH108837,Metro > ASE-GT-NCR-North > New Delhi > Delhi > North > New Delhi > NCR-HAR > India,Pharmacy,[object Object],28.70304935,77.0994249,CSC NO 1 SHOP NO1 ROHINI,DSR-NCR-160
aakash medicos,PH061926,Metro > ASE-GT-NCR-South > New Delhi > Delhi > North > New Delhi > NCR-HAR > India,Pharmacy,[object Object],28.5737555,77.2171437,g 60 nbcc tower local shopping complaz,DSR-GT-NCR-508
S.M. Medicos,PH065365,Metro > ASE-GT-NCR-South > New Delhi > Delhi > North > New Delhi > NCR-HAR > India,Pharmacy,[object Object],28.5192618,77.1670307,"132-9, Kishan Garh, Opp. New Fortis Hospital, Vasant kunj, New Delhi-110070",DSR-NCR-036
NITIN MEDICOS,PH109368,Metro > ASE-GT-NCR-South > New Delhi > Delhi > North > New Delhi > NCR-HAR > India,Pharmacy,[object Object],28.531183,77.1467962,"C-1,DDA Market ,Shop no-2, Vasant",DSR-GT-NCR-503
SAI MEDICOS,PH125218,Metro > ASE-GT-NCR-North > New Delhi > Delhi > North > New Delhi > NCR-HAR > India,Pharmacy,[object Object],28.7006203,77.111156,B-8/205 sec 3 rohini,DSR-NCR-160
GOYAL SUPER MART,MGS005075,Metro > ASE-GT-NCR-South > New Delhi > Delhi > North > New Delhi > NCR-HAR > India,MG Supermarket,[object Object],28.4901074,77.3059943,"B-20A, 40 feet road, Badarpur",DSR-GT-NCR-610
Shri krishan medicos,PH112682,Metro > ASE-GT-NCR-South > New Delhi > Delhi > North > New Delhi > NCR-HAR > India,Pharmacy,[object Object],28.492255,77.3277402,"251/1,Shop No.7, Gagan vihar",DSR-GT-NCR-572
City Medicos,PH127157,Metro > ASE-GT-NCR-North > New Delhi > Delhi > North > New Delhi > NCR-HAR > India,Pharmacy,[object Object],28.6183387,77.0783536,Janakpuri,DSR-GT-NCR-629
Guru Kirpa Medicos,PH004730,Metro > ASE-GT-NCR-North > New Delhi > Delhi > North > New Delhi > NCR-HAR > India,Pharmacy,[object Object],28.7030416,77.0994535,Csc-1Shop No.11&12 Avantika Sec-1 Rohini Ph. : 011-27511515,DSR-NCR-160
Dawa Bazaar,PH047130,Metro > ASE-GT-NCR-North > New Delhi > Delhi > North > New Delhi > NCR-HAR > India,Pharmacy,[object Object],28.6656275,77.0535406,"2A , Parkash Complex, Parsuram Bhabn ke Samane,Shivram Park Najafgarh Road, Nangloi Delhi 110041",DSR-GT-NCR-652
ISHWAR MEDIPOINT,PH064409,Metro > ASE-GT-NCR-North > New Delhi > Delhi > North > New Delhi > NCR-HAR > India,Pharmacy,[object Object],28.6487093,77.1160186,"4\16,Shop. 5&6, Ashok Nagar",DSR-GT-DEL-783
Bhartiya Medical And General Store,PH032181,Metro > ASE-GT-NCR-North > New Delhi > Delhi > North > New Delhi > NCR-HAR > India,Pharmacy,[object Object],28.5936556,77.1218041,"2/41/1,SADAR BAZAR,DELHI CANTT-110010",DSR-NCR-032
RAJ MANDIR HYPER MARKET (Kiran Garden),MGH000334,Metro > ASE-GT-NCR-North > New Delhi > Delhi > North > New Delhi > NCR-HAR > India,MG Hypermarket,[object Object],28.6115624,77.0697987,Opp metro pillar no 718 ground floor c-,DSR-GT-NCR-424
All Indian Pharmacy,PH056702,Metro > ASE-GT-NCR-South > New Delhi > Delhi > North > New Delhi > NCR-HAR > India,Pharmacy,[object Object],28.4996717,77.2900288,"139,7. shop no 2, opp CNG pump, main suraj kund road, Pehladpur",DSR-GT-NCR-572
Sri Morning(ROA),PS006061,Metro > ASE-GT-NCR-South > New Delhi > Delhi > North > New Delhi > NCR-HAR > India,MG Supermarket,[object Object],28.5519166,77.207036,"E-44/B,Hauz Khas, Main Market, New Delhi-110016",DSR-NCR-041
Asi pharmacy,PH090530,Metro > ASE-GT-NCR-South > New Delhi > Delhi > North > New Delhi > NCR-HAR > India,Pharmacy,[object Object],28.4990811,77.2508547,Rz-421c/13b tughlakabad,DSR-GT-NCR-772
Anil Kumar Dhaka,PH086133,Metro > ASE-GT-NCR-South > New Delhi > Delhi > North > New Delhi > NCR-HAR > India,Pharmacy,[object Object],28.5607434,77.1936054,"110-A,humayunpur, safdarjung enclave  0",DSR-NCR-041
KWALITY BAZAR,MGS08877,Metro > ASE-GT-NCR-North > New Delhi > Delhi > North > New Delhi > NCR-HAR > India,MG Supermarket,[object Object],28.7082854,77.1074702,"POCKET H-34, HOUSE NO 103,104",DSR-NCR-160
Apollo health pharmacy,PH101591,Metro > ASE-GT-NCR-South > New Delhi > Delhi > North > New Delhi > NCR-HAR > India,Pharmacy,[object Object],28.5029898,77.3310893,"Shop no2,Gyan mandir road",DSR-GT-NCR-610
MONI MEDICOS,PH108838,Metro > ASE-GT-NCR-North > New Delhi > Delhi > North > New Delhi > NCR-HAR > India,Pharmacy,[object Object],28.6228574,77.0709647,SHOP NO 2 A-1B DDA MARKET,DSR-NCR-031
Ajay medicos,PH053600,Metro > ASE-GT-NCR-South > New Delhi > Delhi > North > New Delhi > NCR-HAR > India,Pharmacy,[object Object],28.4991221,77.2509246,sorab vihar jatpuar,DSR-GT-NCR-772
Durga Medicos,PH047943,Metro > ASE-GT-NCR-South > New Delhi > Delhi > North > New Delhi > NCR-HAR > India,Pharmacy,[object Object],28.5175622,77.1647857,"Shop No.1,Old Property No.119, GF, KishanGarh, New Delhi-110030",DSR-GT-DEL-782
Family medicos,PH127039,Metro > ASE-GT-NCR-East > New Delhi > Delhi > North > New Delhi > NCR-HAR > India,Pharmacy,[object Object],28.6804136,77.3168035,Dilshad garden satyam plaza,DSR-GT-NCR-504
aggarwal medicos(ROA),PH039640,Metro > ASE-GT-NCR-North > New Delhi > Delhi > North > New Delhi > NCR-HAR > India,Pharmacy,[object Object],28.703044,77.0995865,shop no- 6 dda mrkt no-1 sec -1 Avantika rohini 110085,DSR-NCR-160
Sharma medical store,PH121672,Metro > ASE-GT-NCR-South > New Delhi > Delhi > North > New Delhi > NCR-HAR > India,Pharmacy,[object Object],28.5055845,77.3241642,Shop number 2B 105 sindu form,DSR-GT-NCR-610
Suhail medicos,PH116384,Metro > ASE-GT-NCR-North > New Delhi > Delhi > North > New Delhi > NCR-HAR > India,Pharmacy,[object Object],28.7246615,77.2239055,A-465 Street no-9 village wazirabad,DSR-GT-NCR-857
Kavya Pet Shop-Gold,PS013644,Metro > ASE-SPT-NCR-North-West 2 > New Delhi > Delhi > North > New Delhi > North Metro SPT > India,Petshop,[object Object],28.7077593,77.2046654,"B-12, Dhaka Village, Near Red Light, Delhi-09",DSR-SPT-NCR-400
Star health pharmacy,PH098966,Metro > ASE-GT-NCR-South > New Delhi > Delhi > North > New Delhi > NCR-HAR > India,Pharmacy,[object Object],28.5030037,77.3292949,"Shop1,gyan mandir road jaitpur extn",DSR-GT-NCR-572
Saniya medical store,PH121922,Metro > ASE-GT-NCR-South > New Delhi > Delhi > North > New Delhi > NCR-HAR > India,Pharmacy,[object Object],28.501744,77.2823077,Rz-530/a gali no 24 tughlakabad extn,DSR-GT-NCR-772
Ally chemist,PH127155,Metro > ASE-GT-NCR-North > New Delhi > Delhi > North > New Delhi > NCR-HAR > India,Pharmacy,[object Object],28.7271121,77.2158988,Gali no-4 sangam vihar near madina,DSR-GT-NCR-857
GURU KRIPA  MEDICOS,PH087238,Metro > ASE-GT-NCR-North > New Delhi > Delhi > North > New Delhi > NCR-HAR > India,Pharmacy,[object Object],28.6790363,77.1579987,B-5/116 ROHINI SEC 4,DSR-NCR-160
Shiv medicos,PH108939,Metro > ASE-GT-NCR-North > New Delhi > Delhi > North > New Delhi > NCR-HAR > India,Pharmacy,[object Object],28.6115617,77.069823,Shop no 2plot no D-2/190 jeevan park,DSR-GT-NCR-424
R R medicos,PH079994,Metro > ASE-GT-NCR-South > New Delhi > Delhi > North > New Delhi > NCR-HAR > India,Pharmacy,[object Object],28.5614011,77.1948165,"198 shop no humayunpur s,j,enc",DSR-NCR-041
The Chemist Shoppe,WP002838,Metro > ASE-GT-NCR-East > New Delhi > Delhi > North > New Delhi > NCR-HAR > India,Wholesale Pharmacy,[object Object],28.6792544,77.2981577,"1/2174-D,Ram Nagar Shahdara",DSR-NCR-154
M.D. medical Store,PH108839,Metro > ASE-GT-NCR-North > New Delhi > Delhi > North > New Delhi > NCR-HAR > India,Pharmacy,[object Object],28.6148131,77.0872255,C2 mkt shop no 9 Jankapuri,DSR-GT-NCR-629
Bindal Medicos,PH050664,Metro > ASE-GT-NCR-North > New Delhi > Delhi > North > New Delhi > NCR-HAR > India,Pharmacy,[object Object],28.5969057,77.1334109,"Shop No,5-4A, Gopi Nath Bazaar,Delhi Cantt, New Delhi,110010",DSR-NCR-032
NK medicos,WP002916,Metro > ASE-GT-NCR-East > New Delhi > Delhi > North > New Delhi > NCR-HAR > India,Wholesale Pharmacy,[object Object],28.6697999,77.2963594,Jawala nagar shahdara,DSR-GT-NCR-504
ARV medicos,PH051089,Metro > ASE-GT-NCR-South > New Delhi > Delhi > North > New Delhi > NCR-HAR > India,Pharmacy,[object Object],28.5074877,77.3202966,naala road jayet pur,DSR-GT-NCR-572
Budget Bazaar Hypermarket (Lajwanti Garden),DS017551,Metro > ASE-GT-NCR-North > New Delhi > Delhi > North > New Delhi > NCR-HAR > India,MG Hypermarket,[object Object],28.61053833,77.103355,"WZ-282 , 283 LAJWANTI GARDEN  WEST DELHI  NEW DELHI-110046",DSR-GT-DEL-783
HEALTHCARE MEDICAL & GEN,PH066722,Metro > ASE-GT-NCR-North > New Delhi > Delhi > North > New Delhi > NCR-HAR > India,Pharmacy,[object Object],28.6258894,77.1108824,"WZ - 405\B,JANAK PARK HARI NAGAR",DSR-GT-DEL-783
RX CHEMISTS,PH129218,Metro > ASE-GT-NCR-North > New Delhi > Delhi > North > New Delhi > NCR-HAR > India,Pharmacy,[object Object],28.6253816,77.0761639,G2- VARDHMAN MARKET,DSR-NCR-031
GURU NANAK MEDICOS,PH121945,Metro > ASE-GT-NCR-North > New Delhi > Delhi > North > New Delhi > NCR-HAR > India,Pharmacy,[object Object],28.6755365,77.1823329,"G26/61,62 SHOP NO 3 NEAR YUVA",DSR-NCR-160
SHRI BALA JI MEDICOS (NV),PH122012,Metro > ASE-GT-NCR-North > New Delhi > Delhi > North > New Delhi > NCR-HAR > India,Pharmacy,[object Object],28.6666329,77.0656727,"RZE-254, A NIHAL VIHAR THANA",DSR-GT-NCR-652
MAX Bazaar (Uttam Nagar),MGS004830,Metro > ASE-GT-NCR-North > New Delhi > Delhi > North > New Delhi > NCR-HAR > India,MG Supermarket,[object Object],28.6205385,77.0461487,Plot no 373 nawada main road uttam,DSR-GT-NCR-424
Home Dep Store(ROA)-Gold,PS000675,Metro > ASE-SPT-NCR-North-West 1 > New Delhi > Delhi > North > New Delhi > North Metro SPT > India,Petshop,[object Object],28.5228007,77.21472984,(Pet Shop)Shop No-4 J Block Market Saket,FSA-SPT-NCR-018
KRISHNA STORE,DS007829,Metro > ASE-GT-NCR-South > New Delhi > Delhi > North > New Delhi > NCR-HAR > India,MG Supermarket,[object Object],28.5125414,77.1698556,"LSC SEC-1, POCKET 1, VASANT KUNJ",DSR-GT-DEL-782
Best Choice(ROA)-Platinum,PS000624,Metro > ASE-SPT-NCR-North-West 2 > New Delhi > Delhi > North > New Delhi > North Metro SPT > India,Petshop,[object Object],28.6216857,77.0700805,B-1/1 JANAKPURI N.DELHI 58,FSA-SPT-NCR-016
AQUARIUM &PET STORE-Silver,PS018622,Metro > ASE-SPT-NCR-North-West 2 > New Delhi > Delhi > North > New Delhi > North Metro SPT > India,Petshop,[object Object],28.6337789,77.0869095,S4/56 mahaveer Nagar nearby,FSA-SPT-NCR-016
Mittal Medicos,PH034918,Metro > ASE-GT-NCR-North > New Delhi > Delhi > North > New Delhi > NCR-HAR > India,Pharmacy,[object Object],28.6065549,77.1084131,"Wz1020,Nangal Raya New Delhi 110046",DSR-GT-NCR-760
DEEP MEDICOS (CV),PH122014,Metro > ASE-GT-NCR-North > New Delhi > Delhi > North > New Delhi > NCR-HAR > India,Pharmacy,[object Object],28.6666202,77.0656783,"27/20,Chandar Vihar Sunday Bazar",DSR-GT-NCR-652
Banke bihari chemist,PH086651,Metro > ASE-GT-NCR-South > New Delhi > Delhi > North > New Delhi > NCR-HAR > India,Pharmacy,[object Object],28.5615385,77.1964515,"C 131, Arjun Nagar New Delhi",DSR-NCR-041
GUPTA MEDICOS,PH058707,Metro > ASE-GT-NCR-North > New Delhi > Delhi > North > New Delhi > NCR-HAR > India,Pharmacy,[object Object],28.6461903,77.0607171,"PLOT NO.1 SHOP NO .5, PARDHAN MARKET CHANDER VIHAR",DSR-GT-NCR-652
Inder medicos,PH112119,Metro > ASE-GT-NCR-South > New Delhi > Delhi > North > New Delhi > NCR-HAR > India,Pharmacy,[object Object],28.5608537,77.2073796,"72/2, Yusuf Sarai main market",DSR-GT-NCR-508
Majid medicos,PH124208,Metro > ASE-GT-NCR-North > New Delhi > Delhi > North > New Delhi > NCR-HAR > India,Pharmacy,[object Object],28.7267045,77.2254744,Shop no-1 A-381 near Afghani chowk,DSR-GT-NCR-857
STAR CHEMIST,PH099061,Metro > ASE-GT-NCR-North > New Delhi > Delhi > North > New Delhi > NCR-HAR > India,Pharmacy,[object Object],28.6220367,77.0853257,A5B/A-5C MARKET SHOP NO 9,DSR-NCR-031
Shri sai chemist,PH118872,Metro > ASE-GT-NCR-South > New Delhi > Delhi > North > New Delhi > NCR-HAR > India,Pharmacy,[object Object],28.4994119,77.2856068,Shop no 4  a48 ground floor,DSR-GT-NCR-772
Pal medical drugs,PH098906,Metro > ASE-GT-NCR-South > New Delhi > Delhi > North > New Delhi > NCR-HAR > India,Pharmacy,[object Object],28.4989561,77.2512065,Shop no4/1 Tanki Road jaitpur part,DSR-GT-NCR-610
Vidhya Medicos,PH127153,Metro > ASE-GT-NCR-North > New Delhi > Delhi > North > New Delhi > NCR-HAR > India,Pharmacy,[object Object],28.6438364,77.0265189,Kh no 539 garli stand,DSR-GT-NCR-457
Vaishnav Medicos,PH047944,Metro > ASE-GT-NCR-South > New Delhi > Delhi > North > New Delhi > NCR-HAR > India,Pharmacy,[object Object],28.5211249,77.1718809,"Shop No.1, E-266 , WardNo.2, Kishan Garh, New Delhi-110030",DSR-NCR-036
Cost To cost pharmacy,PH121742,Metro > ASE-GT-NCR-South > New Delhi > Delhi > North > New Delhi > NCR-HAR > India,Pharmacy,[object Object],28.5198621,77.1738218,"176/3, mehrauli",DSR-GT-DEL-782
Suvidha  Super  Market,WG001084,Metro > ASE-GT-NCR-East > New Delhi > Delhi > North > New Delhi > NCR-HAR > India,Wholesale Grocery,[object Object],28.7029022,77.313237,"H. No. -119,Steet No.-2, Bank Colony",DSR-NCR-154
Sanjay Medicos,PH048152,Metro > ASE-GT-NCR-North > New Delhi > Delhi > North > New Delhi > NCR-HAR > India,Pharmacy,[object Object],28.6513272,77.069066,"Mandir Marg, Chandar Vihar",DSR-GT-NCR-652
Medical square,PH114254,Metro > ASE-GT-NCR-North > New Delhi > Delhi > North > New Delhi > NCR-HAR > India,Pharmacy,[object Object],28.7240973,77.2260891,C-106 gali no-9 near Iqra masjid,DSR-GT-NCR-857
SAHNI MEDICOS,PH062382,Metro > ASE-GT-NCR-South > New Delhi > Delhi > North > New Delhi > NCR-HAR > India,Pharmacy,[object Object],28.5191102,77.1673891,"12-9,Kishan Garh, Vasant kunj,New Delhi-110070",DSR-NCR-036
PRO LIFE  PET CLINIC-Silver,CL002661,Metro > ASE-SPT-NCR-North-West 2 > New Delhi > Delhi > North > New Delhi > North Metro SPT > India,Clinic,[object Object],28.7027646,77.10583184,I - 1188 mangol puri new delhi 110083,FSA-SPT-NCR-019
Maa vaishno medicos,PH108760,Metro > ASE-GT-NCR-South > New Delhi > Delhi > North > New Delhi > NCR-HAR > India,Pharmacy,[object Object],28.5031201,77.322257,I 186/hari nagar,DSR-GT-NCR-772
Deepak medical store,PH118693,Metro > ASE-GT-NCR-South > New Delhi > Delhi > North > New Delhi > NCR-HAR > India,Pharmacy,[object Object],28.4993129,77.2509073,Main road lal kaun,DSR-GT-NCR-772
Sattu agarawal store,TG020081,Metro > ASE-GT-NCR-South > New Delhi > Delhi > North > New Delhi > NCR-HAR > India,Traditional Grocery,[object Object],28.5007272,77.284153,Mittal chowk,DSR-GT-NCR-772
Bareja sons,PH110668,Metro > ASE-GT-NCR-South > New Delhi > Delhi > North > New Delhi > NCR-HAR > India,Pharmacy,[object Object],28.4990559,77.2509565,Tughalkad extn,DSR-GT-NCR-772
KRISHNA MEDICOS,PH005405,Metro > ASE-GT-NCR-North > New Delhi > Delhi > North > New Delhi > NCR-HAR > India,Pharmacy,[object Object],28.6219079,77.0745509,"SHOP NO.6, A-2 BLOCK JANAK PURI",DSR-NCR-031
DEV MEDICOS,PH086054,Metro > ASE-GT-NCR-South > New Delhi > Delhi > North > New Delhi > NCR-HAR > India,Pharmacy,[object Object],28.5174354,77.1648729,89.9 opp yogmaya apartment,DSR-NCR-036
V3 mart,MGS006405,Metro > ASE-GT-NCR-South > New Delhi > Delhi > North > New Delhi > NCR-HAR > India,MG Supermarket,[object Object],28.4989551,77.2924258,"HR,-36A PUL PHARLAD PUR",DSR-GT-NCR-772
Kawal medical store,WP002937,Metro > ASE-GT-NCR-East > New Delhi > Delhi > North > New Delhi > NCR-HAR > India,Wholesale Pharmacy,[object Object],28.6697568,77.2962153,Jawala Nagar,DSR-GT-NCR-504
R . S . MEDICOS,PH103370,Metro > ASE-GT-NCR-North > New Delhi > Delhi > North > New Delhi > NCR-HAR > India,Pharmacy,[object Object],28.6461916,77.0607206,"Shop No 5, Pardhan,  Market",DSR-GT-NCR-652
Kadimi medicos,PH100999,Metro > ASE-GT-NCR-North > New Delhi > Delhi > North > New Delhi > NCR-HAR > India,Pharmacy,[object Object],28.6158197,77.09463,Shop no -1 C5A Kadimi mkt,DSR-GT-NCR-629
Gauri Medicos,PH083310,Metro > ASE-GT-NCR-North > New Delhi > Delhi > North > New Delhi > NCR-HAR > India,Pharmacy,[object Object],28.6053162,77.0907481,"RZ-I-76A, West sagarpur",DSR-GT-NCR-760
Goverdhan Medicos,PH058757,Metro > ASE-GT-NCR-South > New Delhi > Delhi > North > New Delhi > NCR-HAR > India,Pharmacy,[object Object],28.4940211,77.3257189,Main Road School No-1,DSR-GT-NCR-610
A. G STORE,TG015186,Metro > ASE-GT-NCR-North > New Delhi > Delhi > North > New Delhi > NCR-HAR > India,Traditional Grocery,[object Object],28.7291049,77.2255196,"134,Gali No.. 9 Village Wazirabad near Afgani Chowk, Delhi -110084",DSR-GT-NCR-857
Green Groser,TG014027,Metro > ASE-GT-NCR-South > New Delhi > Delhi > North > New Delhi > NCR-HAR > India,Traditional Grocery,[object Object],28.5201858,77.1645097,"138,9,Kishan Garh, Vasantkunj, New Delhi-110070",DSR-GT-DEL-782
SUVAM MEDICOS STORE &,PH129491,Metro > ASE-GT-NCR-North > New Delhi > Delhi > North > New Delhi > NCR-HAR > India,Pharmacy,[object Object],28.6665528,77.0657538,Sani Bazar Road Nihal vihar,DSR-GT-NCR-652
Uma Pharmacy,PH121751,Metro > ASE-GT-NCR-South > New Delhi > Delhi > North > New Delhi > NCR-HAR > India,Pharmacy,[object Object],28.4991407,77.2509089,Molarband school road mittha extn,DSR-GT-NCR-772
gupta medicos,PH053605,Metro > ASE-GT-NCR-South > New Delhi > Delhi > North > New Delhi > NCR-HAR > India,Pharmacy,[object Object],28.505413,77.3231306,man road jatpuar,DSR-GT-NCR-610
Shiv Medicos,PH056355,Metro > ASE-GT-NCR-East > New Delhi > Delhi > North > New Delhi > NCR-HAR > India,Pharmacy,[object Object],28.6943298,77.306774,Shop No 4&5Block A-2 Nand Nagri,DSR-NCR-154
First Life Pharmacy,PH061879,Metro > ASE-GT-NCR-North > New Delhi > Delhi > North > New Delhi > NCR-HAR > India,Pharmacy,[object Object],28.6237235,77.1136674,"Shop  No . A-198, Hari Nagar",DSR-GT-DEL-783
BILLU & BELLA-Silver,PS021519,Metro > ASE-SPT-NCR-North-West 1 > New Delhi > Delhi > North > South Delhi > North Metro SPT > India,Petshop,[object Object],28.5653689,77.0519605,Plot 30. Dwarka sector 23 A,FSA-SPT-HAR-014
Maa Durga Mall,DS016696,Metro > ASE-GT-NCR-North > New Delhi > Delhi > North > New Delhi > NCR-HAR > India,MG Supermarket,[object Object],28.6513697,77.0690381,"Gronud Floor Shop No 2, Plot No-1,B,K,H, No 27-2,Chandar Vihar, Nilothi Extn West Delhi 110041",DSR-GT-NCR-652
Jagadamba medico (J.P.),PH101000,Metro > ASE-GT-NCR-North > New Delhi > Delhi > North > New Delhi > NCR-HAR > India,Pharmacy,[object Object],28.6156446,77.0945275,Shop no 12 kadimi mkt Janakpuri,DSR-GT-NCR-629
New m.r chemist,PH108539,Metro > ASE-GT-NCR-South > New Delhi > Delhi > North > New Delhi > NCR-HAR > India,Pharmacy,[object Object],28.4990811,77.2508176,F297/t.k.d extn,DSR-GT-NCR-772
Cygnor pharmacy,PH112962,Metro > ASE-GT-NCR-North > New Delhi > Delhi > North > New Delhi > NCR-HAR > India,Pharmacy,[object Object],28.6689206,77.0729635,Shop no c171 kh no 78/7 nihal vihar,DSR-GT-NCR-652
New Radhey Pet Shop(ROA)-Platinum,PS004320,Metro > ASE-SPT-NCR-North-West 1 > New Delhi > Delhi > North > New Delhi > North Metro SPT > India,Petshop,[object Object],28.5937249,77.0808131,"Main Dabri Road, Near Pnb Bank, Dwarka Sec 1",FSA-SPT-HAR-014
DWARKA PET PLANET-Gold,PS015274,Metro > ASE-SPT-NCR-North-West 1 > New Delhi > Delhi > North > New Delhi > North Metro SPT > India,Petshop,[object Object],28.5600827,77.0595384,shop no -s-13 second floor Manish global mall sector -22 Dwarka 110077,FSA-SPT-HAR-014
M. P. Chemist,PH090534,Metro > ASE-GT-NCR-South > New Delhi > Delhi > North > New Delhi > NCR-HAR > India,Pharmacy,[object Object],28.5186192,77.1581034,"Sec- D-4 shop no-33, vasant kunj",DSR-GT-DEL-782
MEDCHOICE PHARMACY,PH108840,Metro > ASE-GT-NCR-North > New Delhi > Delhi > North > New Delhi > NCR-HAR > India,Pharmacy,[object Object],28.626518,77.0753561,A-42 CHANDAR NAGAR,DSR-NCR-031
LIFRCARE PHARMACY,PH057818,Metro > ASE-GT-NCR-North > New Delhi > Delhi > North > New Delhi > NCR-HAR > India,Pharmacy,[object Object],28.6211327,77.1075254,SHOP NO . 11 DB BLOCK DDA MARKET HARI NAGAR,DSR-GT-DEL-783
Jain Store(ROA),WP000334,Metro > ASE-GT-NCR-East > New Delhi > Delhi > North > New Delhi > NCR-HAR > India,Wholesale Pharmacy,[object Object],28.66551833,77.29159167,"504/10, GROUND FLOOR, CIRCULAR ROAD, JWALA NAGAR SHAHDARA, East Delhi, Delhi, 110032",DSR-NCR-154
Easymax-commerce.pvt Ltd,PM001668,Metro > ASE-GT-NCR-North > New Delhi > Delhi > North > New Delhi > NCR-HAR > India,Modern Pharmacy,[object Object],28.722789,77.223653,Gali no-3 main road wazirabad,DSR-GT-NCR-857
Baba sadhu medicose,PH107783,Metro > ASE-GT-NCR-North > New Delhi > Delhi > North > New Delhi > NCR-HAR > India,Pharmacy,[object Object],28.7307359,77.223032,Gali no-17 jagatpur moad wazirabad,DSR-GT-NCR-857
Divya Medicos,PH111027,Metro > ASE-GT-NCR-North > New Delhi > Delhi > North > New Delhi > NCR-HAR > India,Pharmacy,[object Object],28.6486666,77.1160095,"Shop no.2,5/216, Subhash Nagar",DSR-GT-DEL-783
Maa bhawani medical store,PH108762,Metro > ASE-GT-NCR-South > New Delhi > Delhi > North > New Delhi > NCR-HAR > India,Pharmacy,[object Object],28.4983062,77.2932856,Shop no6/i-313 hari nagar,DSR-GT-NCR-772
BANSAL DEPARTMENTAL STORE,MGH00081,Metro > ASE-GT-NCR-North > New Delhi > Delhi > North > New Delhi > NCR-HAR > India,MG Hypermarket,[object Object],28.66776906,77.06912243,E1-116 A. 117A (NEW 242 ) GALI NO 19.SHANI BAZAR ROAD SHIV RAM PARK NEW DELHI 41,DSR-GT-NCR-652
Rx medicos,PH114255,Metro > ASE-GT-NCR-North > New Delhi > Delhi > North > New Delhi > NCR-HAR > India,Pharmacy,[object Object],28.7234689,77.2261367,C-112 Street no-9 village wazirabad,DSR-GT-NCR-857
SURAJ MEDICOS,PH057952,Metro > ASE-GT-NCR-North > New Delhi > Delhi > North > New Delhi > NCR-HAR > India,Pharmacy,[object Object],28.6181109,77.0902035,c4b-333-A- janak puri,DSR-GT-NCR-629
SINGHAL SONS MEDIPOINT,PH041199,Metro > ASE-GT-NCR-North > New Delhi > Delhi > North > New Delhi > NCR-HAR > India,Pharmacy,[object Object],28.5933563,77.1216768,"8/14, MAIN ROAD MEHRAM NAGAR OPP. 1GI TERMINAL-1DDELHI CANTT. NEW DELHI-110010",DSR-NCR-032
SHIVAM MEDICOS,PH087224,Metro > ASE-GT-NCR-North > New Delhi > Delhi > North > New Delhi > NCR-HAR > India,Pharmacy,[object Object],28.6656676,77.0568176,"D-9,SHIV RAM PARK, NANGLOI",DSR-GT-NCR-652
Neelimaa medical Shop,PH116327,Metro > ASE-GT-NCR-East > New Delhi > Delhi > North > New Delhi > NCR-HAR > India,Pharmacy,[object Object],28.6823938,77.2863689,Shiva ji park gol chakkar,DSR-GT-NCR-504
kanchan medicos,PH053670,Metro > ASE-GT-NCR-South > New Delhi > Delhi > North > New Delhi > NCR-HAR > India,Pharmacy,[object Object],28.4991324,77.2509509,gali no 8 sinduhu farm road,DSR-GT-NCR-772
BALAJI DEP STORE,DS018503,Metro > ASE-GT-NCR-North > New Delhi > Delhi > North > New Delhi > NCR-HAR > India,Super Grocery,[object Object],28.6222437,77.0827837,A-3/9 JANAK PURI NEW DELHI-110058,DSR-NCR-031
Jai medicos,PH095158,Metro > ASE-GT-NCR-South > New Delhi > Delhi > North > New Delhi > NCR-HAR > India,Pharmacy,[object Object],28.4912098,77.3065646,D-28/tajpur road,DSR-GT-NCR-610
Omg Pet Shop(ROA)-Gold,PS006069,Metro > ASE-SPT-NCR-North-West 1 > New Delhi > Delhi > North > New Delhi > North Metro SPT > India,Petshop,[object Object],28.5867596,77.0454807,864 Akshardhaan Apartment Sec.19 Dwarka Delhi,FSA-SPT-HAR-014
Shri parsavnath medicos,PH109242,Metro > ASE-GT-NCR-North > New Delhi > Delhi > North > New Delhi > NCR-HAR > India,Pharmacy,[object Object],28.6115594,77.0698225,A-14 subhash park bindapur Matiala,DSR-GT-NCR-424
Virmani medical,PH108940,Metro > ASE-GT-NCR-North > New Delhi > Delhi > North > New Delhi > NCR-HAR > India,Pharmacy,[object Object],28.6958858,77.0813969,F-15/21 sector -15 rohini delhi 86,DSR-NCR-037
Aisha Pharmacy,PH034917,Metro > ASE-GT-NCR-North > New Delhi > Delhi > North > New Delhi > NCR-HAR > India,Pharmacy,[object Object],28.6065549,77.1084131,"Shop No 1Ground Floor Wz1220A, Nangal Raya New Delhi -110046",DSR-GT-NCR-760
Snehil Chemist & Cosmetics,PH044408,Metro > ASE-GT-NCR-South > New Delhi > Delhi > North > New Delhi > NCR-HAR > India,Pharmacy,[object Object],28.5197436,77.1702647,"Plot No.12619, Kishan Garh , New Delhi -110070",DSR-NCR-036
Rahul medical Store,PH051484,Metro > ASE-GT-NCR-South > New Delhi > Delhi > North > New Delhi > NCR-HAR > India,Pharmacy,[object Object],28.4892111,77.3111031,60futa2,DSR-GT-NCR-610
RUPAK DEPARTMENT STORE,DS017413,Metro > ASE-GT-NCR-South > New Delhi > Delhi > North > New Delhi > NCR-HAR > India,MG Supermarket,[object Object],28.5314604,77.1537931,"Shop No. -7, Second, Market No. -10, Vasant Kunj New Delhi",DSR-GT-NCR-503
Sunil Medicos,PH129465,Metro > ASE-GT-NCR-North > New Delhi > Delhi > North > New Delhi > NCR-HAR > India,Pharmacy,[object Object],28.748055,77.2013639,25futa road Sant nagar,DSR-GT-NCR-457
Kataria Medicos,PH054804,Metro > ASE-GT-NCR-North > New Delhi > Delhi > North > New Delhi > NCR-HAR > India,Pharmacy,[object Object],28.6115673,77.0698148,"RZ AA-8, Anoop Nagar, Bindapur Main Road Uttam Nagar, New Delhi -110059",DSR-GT-NCR-424
GEETANJALI MEDICOS,PH121832,Metro > ASE-GT-NCR-South > New Delhi > Delhi > North > New Delhi > NCR-HAR > India,Pharmacy,[object Object],28.527141,77.1357864,"D-33,Nangal Dewat Vasant Kunj New",DSR-GT-NCR-503
PUSPANJALI IN & OUT,DS001344,Metro > ASE-GT-NCR-South > New Delhi > Delhi > North > New Delhi > NCR-HAR > India,MG Supermarket,[object Object],28.5379073,77.1536807,"NELSON MENDELA MARG,VASANT KUNJ",DSR-GT-NCR-503
ARORA CHEMISTS & COSMETICS,PH085011,Metro > ASE-GT-NCR-South > New Delhi > Delhi > North > New Delhi > NCR-HAR > India,Pharmacy,[object Object],28.5271308,77.1358061,"B-37,Vasant Kunj,Enclave New Delhi",DSR-GT-NCR-503
New Pal Medicos,PH053347,Metro > ASE-GT-NCR-North > New Delhi > Delhi > North > New Delhi > NCR-HAR > India,Pharmacy,[object Object],28.6315578,77.0319832,"Q-59, Budh Bazar Road Mohan Garden, Uttam Nagar New Delhi-110059",DSR-GT-NCR-424
S.S Pet Shop-Silver,PS009279,Metro > ASE-SPT-NCR-North-West 1 > New Delhi > Delhi > North > New Delhi > North Metro SPT > India,Petshop,[object Object],28.5342175,77.2073702,194 Shahpur Jat New Delhi Near By DDA Flat New Shiv Mandir,DSR-SPT-NCR-402
KIRPAL MEDICOS,PH056021,Metro > ASE-GT-NCR-North > New Delhi > Delhi > North > New Delhi > NCR-HAR > India,Pharmacy,[object Object],28.6307892,77.1178497,"B-358, SHOP NO.2, GANDHI MARKET, HARI NAGAR, NEW DELHI-110064 OPP. JAIN PAKORE WALA",DSR-GT-DEL-783
Lal Sons(ROA),PH005404,Metro > ASE-GT-NCR-North > New Delhi > Delhi > North > New Delhi > NCR-HAR > India,Pharmacy,[object Object],28.6228384,77.0711434,"A1/B,Block A1 Janak Puri Delhi - 58",DSR-NCR-031
Naveen medicps,PH051489,Metro > ASE-GT-NCR-South > New Delhi > Delhi > North > New Delhi > NCR-HAR > India,Pharmacy,[object Object],28.5033006,77.3014588,b217man markit badarpur,DSR-GT-NCR-772
RAKESH ENERPRISES,WG000053,Metro > ASE-GT-NCR-North > New Delhi > Delhi > North > New Delhi > NCR-HAR > India,Wholesale Grocery,[object Object],28.615408,77.0816605,Wz-62A/5 Possangi Pur Mkt Janak Puri N.Delhi58,DSR-GT-NCR-629
Medi Mart,DS013269,Metro > ASE-GT-NCR-South > New Delhi > Delhi > North > New Delhi > NCR-HAR > India,MG Supermarket,[object Object],28.5076415,77.16705,"RZ-1, Bhawani Kunj , Vasant Kunj, New Delhi",DSR-GT-DEL-782
Indra Medicos(ROA),PH004774,Metro > ASE-GT-NCR-North > New Delhi > Delhi > North > New Delhi > NCR-HAR > India,Pharmacy,[object Object],28.6998204,77.1018436,Shop No. 19 Csc No. 2 Pkt.6-Ii Sec.2  Rohini,DSR-NCR-160
The Pets Paradise-Gold,PS009124,Metro > ASE-SPT-NCR-North-West 1 > New Delhi > Delhi > North > New Delhi > North Metro SPT > India,Petshop,[object Object],28.5374961,77.2107081,"8, Begampur, Main Shivalik Road, Malviya Nagar",DSR-SPT-NCR-402
ANSH MEDICAL STORE,PH111031,Metro > ASE-GT-NCR-North > New Delhi > Delhi > North > New Delhi > NCR-HAR > India,Pharmacy,[object Object],28.6461956,77.0622186,"A-65,Abchal Nagar, Main Road Chandar",DSR-GT-NCR-652
Shri Balaji medical,PH104262,Metro > ASE-GT-NCR-North > New Delhi > Delhi > North > New Delhi > NCR-HAR > India,Pharmacy,[object Object],28.6404218,77.0320124,A- block Rohini Avantika -1122,DSR-NCR-037
Sharma medical,PH053607,Metro > ASE-GT-NCR-South > New Delhi > Delhi > North > New Delhi > NCR-HAR > India,Pharmacy,[object Object],28.505413,77.3231306,jait puar road,DSR-GT-NCR-572
Laxmi medicos,PH107785,Metro > ASE-GT-NCR-North > New Delhi > Delhi > North > New Delhi > NCR-HAR > India,Pharmacy,[object Object],28.7310517,77.2234974,Kh no-20 482.jagatpur wazirabad,DSR-GT-NCR-857
Sanjay Store(ROA),DS013264,Metro > ASE-GT-NCR-South > New Delhi > Delhi > North > New Delhi > NCR-HAR > India,MG Supermarket,[object Object],28.5146348,77.1674172,"Shop No-6, Sector-A, Pocket-B&C, Vasant Kunj",DSR-GT-DEL-782
Krishna Medicose,PH058756,Metro > ASE-GT-NCR-South > New Delhi > Delhi > North > New Delhi > NCR-HAR > India,Pharmacy,[object Object],28.4921827,77.3110262,"plot 780,2nd 60 foota Road,Molarband Extension",DSR-GT-NCR-572
Dr B K Chaudhary(ROA)-Silver,CL000551,Metro > ASE-SPT-NCR-North-West 1 > New Delhi > Delhi > North > New Delhi > North Metro SPT > India,Clinic,[object Object],28.5342876,77.2072696,Dog   Cat Clinic Savitri Nagar New Delhi,FSA-SPT-NCR-018
Atul medicos,PH108765,Metro > ASE-GT-NCR-South > New Delhi > Delhi > North > New Delhi > NCR-HAR > India,Pharmacy,[object Object],28.5014925,77.3221931,142/main market Badarpur border,DSR-GT-NCR-610
Barkat ram,PH076581,Metro > ASE-GT-NCR-North > New Delhi > Delhi > North > New Delhi > NCR-HAR > India,Pharmacy,[object Object],28.6271388,77.0599155,1/54 main hastal road,DSR-GT-NCR-424
Avtar medical store,PH056701,Metro > ASE-GT-NCR-South > New Delhi > Delhi > North > New Delhi > NCR-HAR > India,Pharmacy,[object Object],28.4991099,77.2508743,"sharma mkt, near shree ram store, prahaladpur",DSR-GT-NCR-772
SABKA DAWA BAZAR,PH129476,Metro > ASE-GT-NCR-North > New Delhi > Delhi > North > New Delhi > NCR-HAR > India,Pharmacy,[object Object],28.6655058,77.0538254,Shiv ram Park Najafgarh Road,DSR-GT-NCR-652
Jindal Medicos,PH050735,Metro > ASE-GT-NCR-North > New Delhi > Delhi > North > New Delhi > NCR-HAR > India,Pharmacy,[object Object],28.6170295,77.057227,"WZ-428,Nangal Raya, New Delhi-110046",DSR-GT-NCR-760
Balaji Chemist(ROA),TG001425,Metro > ASE-GT-NCR-North > New Delhi > Delhi > North > New Delhi > NCR-HAR > India,Traditional Grocery,[object Object],28.699463,77.0968226,"Csc-05, Shop No :03, Rohini Sector -1Avantika Opp Pole Star , Hi Tech School110085",DSR-NCR-160
Pardeep  Medicos(ROA),PH005412,Metro > ASE-GT-NCR-North > New Delhi > Delhi > North > New Delhi > NCR-HAR > India,Pharmacy,[object Object],28.6160428,77.0895939,"C 4E, Dda Market Shop No 20/21, Janakpurinew Delhi110058",DSR-GT-NCR-629
Agarwal medicos,PH051100,Metro > ASE-GT-NCR-South > New Delhi > Delhi > North > New Delhi > NCR-HAR > India,Pharmacy,[object Object],28.4900827,77.3071204,40 phuta road,DSR-GT-NCR-610
Ranjan medical Store,PH121300,Metro > ASE-GT-NCR-South > New Delhi > Delhi > North > New Delhi > NCR-HAR > India,Pharmacy,[object Object],28.4891357,77.3110363,Kh no 102 60 ft road,DSR-GT-NCR-610
Mittal store,DS001296,Metro > ASE-GT-NCR-South > New Delhi > Delhi > North > New Delhi > NCR-HAR > India,MG Supermarket,[object Object],28.5604626,77.1993746,62-A Arjun Nagar SDE New Delhi 110029,DSR-GT-NCR-508
R.N Medical Store,PH021305,Metro > ASE-GT-NCR-South > New Delhi > Delhi > North > New Delhi > NCR-HAR > India,Pharmacy,[object Object],28.4991021,77.2508552,"Hr-62 Cd/A Khasra No-227, Pehladpur",DSR-GT-NCR-772
Tej singh medical store,PH106324,Metro > ASE-GT-NCR-South > New Delhi > Delhi > North > New Delhi > NCR-HAR > India,Pharmacy,[object Object],28.5017765,77.2823377,Pul pharlad pur,DSR-GT-NCR-772
S.k medicose,PH102524,Metro > ASE-GT-NCR-South > New Delhi > Delhi > North > New Delhi > NCR-HAR > India,Pharmacy,[object Object],28.4991216,77.2508798,Madhya marg,DSR-GT-NCR-772
Laxmi medical store,WP002915,Metro > ASE-GT-NCR-East > New Delhi > Delhi > North > New Delhi > NCR-HAR > India,Wholesale Pharmacy,[object Object],28.6718761,77.2936402,"504/4, circular road near animal",DSR-GT-NCR-504
Abhimanyu Medicos,PH083193,Metro > ASE-GT-NCR-North > New Delhi > Delhi > North > New Delhi > NCR-HAR > India,Pharmacy,[object Object],28.6081345,77.0991936,"F-22, Shop No.2 plot No.38,",DSR-GT-NCR-760
Balaji Traders(ROA),PH005553,Metro > ASE-GT-NCR-South > New Delhi > Delhi > North > New Delhi > NCR-HAR > India,Traditional Grocery,[object Object],28.5328325,77.311801,RZ 310/20 Tuglakabad Ext New Delhi,DSR-GT-NCR-572
Ahuja Pharmaceuticals,PH084393,Metro > ASE-GT-NCR-North > New Delhi > Delhi > North > New Delhi > NCR-HAR > India,Pharmacy,[object Object],28.6237785,77.1132738,"C-237, Hari Nagar",DSR-GT-DEL-783
Garg Dep Store(ROA),DS001289,Metro > ASE-GT-NCR-South > New Delhi > Delhi > North > New Delhi > NCR-HAR > India,MG Supermarket,[object Object],28.4983078,77.2948788,"Shop No 1,B-83A Vishakarma Colony New Delhi",DSR-GT-NCR-572
Life care pharmacy,PH112120,Metro > ASE-GT-NCR-South > New Delhi > Delhi > North > New Delhi > NCR-HAR > India,Pharmacy,[object Object],28.5605301,77.2074161,Shop no 17/18 Yusuf sarai Maine,DSR-NCR-041
Janak pharmacy,PH121947,Metro > ASE-GT-NCR-North > New Delhi > Delhi > North > New Delhi > NCR-HAR > India,Pharmacy,[object Object],28.6115675,77.0698147,Shop no 1 gf milap nagar opp siddarth,DSR-GT-NCR-424
DAWA BAZAR MEDICAL STORE,PH122016,Metro > ASE-GT-NCR-North > New Delhi > Delhi > North > New Delhi > NCR-HAR > India,Pharmacy,[object Object],28.66663,77.0657138,Main 50 feet Road Nihal vihar,DSR-GT-NCR-652
HARIANA FRESH,MGS005855,Metro > ASE-GT-NCR-South > New Delhi > Delhi > North > New Delhi > NCR-HAR > India,MG Supermarket,[object Object],28.5292855,77.158204,"Kh.No. 354 & 357,Block-A Near",DSR-GT-NCR-503
Sai medical store,PH045107,Metro > ASE-GT-NCR-South > New Delhi > Delhi > North > New Delhi > NCR-HAR > India,Pharmacy,[object Object],28.4886138,77.3098968,"E-80-A, molarband Extn Badarpur Border",DSR-GT-NCR-572
Shri bslaji,PH090141,Metro > ASE-GT-NCR-North > New Delhi > Delhi > North > New Delhi > NCR-HAR > India,Pharmacy,[object Object],28.6958252,77.0814153,C-207 shop no-2 grood floor sectot-,DSR-NCR-037
Balaji Medicos,PH110745,Metro > ASE-GT-NCR-North > New Delhi > Delhi > North > New Delhi > NCR-HAR > India,Pharmacy,[object Object],28.6665433,77.0657147,Chandar vihar Nangloi,DSR-GT-NCR-652
Ishwar medical,PH125893,Metro > ASE-GT-NCR-North > New Delhi > Delhi > North > New Delhi > NCR-HAR > India,Pharmacy,[object Object],28.6958328,77.0814363,Shop no 7 csc-3 block sec 15 rohini,DSR-NCR-037
Care Medicos(ROA),PH004764,Metro > ASE-GT-NCR-North > New Delhi > Delhi > North > New Delhi > NCR-HAR > India,Pharmacy,[object Object],28.7106836,77.1044192,A-2/150 Shop No-4 Sec-5 Rohini,DSR-NCR-160
CHETAN MEDICOS,PH080144,Metro > ASE-GT-NCR-South > New Delhi > Delhi > North > New Delhi > NCR-HAR > India,Pharmacy,[object Object],28.4896114,77.3111595,"Shop no.2, 2nd 60 futta road,",DSR-GT-NCR-610
Healing pharmacy,PH089152,Metro > ASE-GT-NCR-South > New Delhi > Delhi > North > New Delhi > NCR-HAR > India,Pharmacy,[object Object],28.5200567,77.1635044,Shop no-3 vasant kunj,DSR-GT-DEL-782
SIYARAM MEDICOS,PH063169,Metro > ASE-GT-NCR-North > New Delhi > Delhi > North > New Delhi > NCR-HAR > India,Pharmacy,[object Object],28.6512541,77.0666061,"26_25 CHANDER VIHAR , NILOTHI EXTN NEW DELHI 110041",DSR-GT-NCR-652
D K MEDICOS,PH083806,Metro > ASE-GT-NCR-South > New Delhi > Delhi > North > New Delhi > NCR-HAR > India,Pharmacy,[object Object],28.4981896,77.2928597,"D-382, pehladpur, DDA janta flat",DSR-GT-NCR-572
2Fresh Supermarket(ROA),PH032191,Metro > ASE-GT-NCR-North > New Delhi > Delhi > North > New Delhi > NCR-HAR > India,MG Supermarket,[object Object],28.6115702,77.0698225,"Plot No 371, Opp Metro Pillar 724, Near Nawada Metro Station, Main Najafgarh Road , Nawada , New Delhi",DSR-GT-NCR-424
Saraswati Medicos,PH121734,Metro > ASE-GT-NCR-South > New Delhi > Delhi > North > New Delhi > NCR-HAR > India,Pharmacy,[object Object],28.4935812,77.3097369,"B - 58/1, Main 1st 60 futa road",DSR-GT-NCR-572
Durga MEDICOS,PH080714,Metro > ASE-GT-NCR-South > New Delhi > Delhi > North > New Delhi > NCR-HAR > India,Pharmacy,[object Object],28.5186773,77.1641231,Shop no 1 old property no 119,DSR-NCR-036
Raju Store,TG019852,Metro > ASE-GT-NCR-South > New Delhi > Delhi > North > New Delhi > NCR-HAR > India,Traditional Grocery,[object Object],28.4991861,77.2509017,A-2/1847 j.j colony khadar,DSR-GT-NCR-772
10 TO 8 HYPERMART PRIVATE LIMITED,MGH00052,Metro > ASE-GT-NCR-North > New Delhi > Delhi > North > New Delhi > NCR-HAR > India,MG Hypermarket,[object Object],28.6590011,77.0621257,"Shop At Plot No,R-407-A-1,KH,No-9-4-2-3, 10To 8 HYPER MART PVT LTD Nihal Vihar Nangloi, West Delhi",DSR-GT-NCR-652
Sarthak pharmacy,PH098908,Metro > ASE-GT-NCR-South > New Delhi > Delhi > North > New Delhi > NCR-HAR > India,Pharmacy,[object Object],28.4989561,77.2512065,Shop no 4 Sai Baba mandir road,DSR-GT-NCR-610
Kms Pet Clinic(ROA)-Gold,CL002280,Metro > ASE-SPT-NCR-North-West 1 > New Delhi > Delhi > North > New Delhi > North Metro SPT > India,Clinic,[object Object],28.537695,77.2108433,"A-88,G.F.,MALVIYA NAGAR,NEW DLEHI",FSA-SPT-NCR-018
Sobti Medicos(ROA),PH005407,Metro > ASE-GT-NCR-North > New Delhi > Delhi > North > New Delhi > NCR-HAR > India,Pharmacy,[object Object],28.6290445,77.0911209,"Shop No 12,B1 Market , Po. B1, Janakpuri Delhi-58",DSR-NCR-031
Lifecare Pharmacy,PH107787,Metro > ASE-GT-NCR-North > New Delhi > Delhi > North > New Delhi > NCR-HAR > India,Pharmacy,[object Object],28.62106,77.1075961,Shop No.11 DB Block,DSR-GT-DEL-783
Shivaay pharmacy,PH131579,Metro > ASE-GT-NCR-North > New Delhi > Delhi > North > New Delhi > NCR-HAR > India,Pharmacy,[object Object],28.5968961,77.1336287,Gopi Nath MKT Delhi cantt,DSR-NCR-032
R.K. Medicos,PH062383,Metro > ASE-GT-NCR-South > New Delhi > Delhi > North > New Delhi > NCR-HAR > India,Pharmacy,[object Object],28.5198681,77.1644276,"79-9,Kishan Garh, Near Gullu Dhaba, Vasant kunj, New Delhi-110070",DSR-GT-DEL-782
Gaurav medicos,PH108768,Metro > ASE-GT-NCR-South > New Delhi > Delhi > North > New Delhi > NCR-HAR > India,Pharmacy,[object Object],28.501518,77.3222709,Main tanki road,DSR-GT-NCR-610
SAI MEDICOS,PH125217,Metro > ASE-GT-NCR-North > New Delhi > Delhi > North > New Delhi > NCR-HAR > India,Pharmacy,[object Object],28.7008442,77.1113021,B-8/205 sec 3 rohini,DSR-NCR-160
Sach medicos,PH116385,Metro > ASE-GT-NCR-North > New Delhi > Delhi > North > New Delhi > NCR-HAR > India,Pharmacy,[object Object],28.7267255,77.2234857,Gali no-12 main road village,DSR-GT-NCR-857
Baba ji medicos,PH109243,Metro > ASE-GT-NCR-North > New Delhi > Delhi > North > New Delhi > NCR-HAR > India,Pharmacy,[object Object],28.6115613,77.0698234,22 A Matiala road Bharat garden,DSR-GT-NCR-424
Janta Medicos,PH127156,Metro > ASE-GT-NCR-North > New Delhi > Delhi > North > New Delhi > NCR-HAR > India,Pharmacy,[object Object],28.618338,77.0783354,Janakpuri,DSR-GT-NCR-629
Super market,DS018249,Metro > ASE-GT-NCR-South > New Delhi > Delhi > North > New Delhi > NCR-HAR > India,MG Supermarket,[object Object],28.4983053,77.2932816,"Hr-230, 60 fit road, prahladpur",DSR-GT-NCR-572
SAVE LIFE CHEMIST & COSMETICS,PH080152,Metro > ASE-GT-NCR-South > New Delhi > Delhi > North > New Delhi > NCR-HAR > India,Pharmacy,[object Object],28.4862795,77.3134824,"3343, 3rd 60 feet road, molarband",DSR-GT-NCR-572
Sampoorn Medicos,PH042623,Metro > ASE-GT-NCR-South > New Delhi > Delhi > North > New Delhi > NCR-HAR > India,Pharmacy,[object Object],28.525827,77.1357902,"B-101,Vasant Kunj,Enclave,New Delhi-110070",DSR-GT-NCR-503
VED MEDICOS,PH083987,Metro > ASE-GT-NCR-South > New Delhi > Delhi > North > New Delhi > NCR-HAR > India,Pharmacy,[object Object],28.4990563,77.2508022,"RZ-169/1, Madhya Marg, Tughlakabad",DSR-GT-NCR-772
AGGARWAL SUPER MART PVT LTD (Janakpuri),DS001251,Metro > ASE-GT-NCR-North > New Delhi > Delhi > North > New Delhi > NCR-HAR > India,MG Hypermarket,[object Object],28.6237205,77.0812296,"A-3/86-87, SS MOTA SINGH ROAD, (NEW PUNJAB & SIND BANK) JANAK PURI, NEW DELHI-110058",DSR-NCR-031
Ram medicos,PH116293,Metro > ASE-GT-NCR-South > New Delhi > Delhi > North > New Delhi > NCR-HAR > India,Pharmacy,[object Object],28.4991467,77.3117904,Shop no 132 kh no 431,DSR-GT-NCR-772
Gupta medical Store,PH121673,Metro > ASE-GT-NCR-South > New Delhi > Delhi > North > New Delhi > NCR-HAR > India,Pharmacy,[object Object],28.5050571,77.3227327,Shop number 8 bhi gali number 25,DSR-GT-NCR-610
Gendox pharmacy,PH121740,Metro > ASE-GT-NCR-South > New Delhi > Delhi > North > New Delhi > NCR-HAR > India,Pharmacy,[object Object],28.5198391,77.1733051,"602A,part 2, ward no -3 near",DSR-GT-DEL-782
ARORA CHEMIST,PH040973,Metro > ASE-GT-NCR-South > New Delhi > Delhi > North > New Delhi > NCR-HAR > India,Pharmacy,[object Object],28.5271408,77.1357757,"LSC,SEC-C,POCKET-9,VASANT KUNJ",DSR-GT-NCR-503
preeti medicos,PH053596,Metro > ASE-GT-NCR-South > New Delhi > Delhi > North > New Delhi > NCR-HAR > India,Pharmacy,[object Object],28.5002237,77.3310581,man road Tanki road,DSR-GT-NCR-610
Raju medical,PH121962,Metro > ASE-GT-NCR-North > New Delhi > Delhi > North > New Delhi > NCR-HAR > India,Pharmacy,[object Object],28.6958383,77.0814162,Shop no 23 csc no 1dda market sec 6,DSR-NCR-037
National provision store,TG022480,Metro > ASE-GT-NCR-North > New Delhi > Delhi > North > New Delhi > NCR-HAR > India,Traditional Grocery,[object Object],28.6159272,77.0896531,Shop no 16 Jankapuri,DSR-GT-NCR-629
Nitin Medical Store,PH116295,Metro > ASE-GT-NCR-South > New Delhi > Delhi > North > New Delhi > NCR-HAR > India,Pharmacy,[object Object],28.4991976,77.3119343,"Shop 140, 141, kh no. 432 gali no 6",DSR-GT-NCR-572
Shreya medicos,PH116328,Metro > ASE-GT-NCR-East > New Delhi > Delhi > North > New Delhi > NCR-HAR > India,Pharmacy,[object Object],28.6804214,77.2946023,"1/2405, Ram Nagar mandoli Road Delhi",DSR-NCR-154
Parvati Medicose,PH005557,Metro > ASE-GT-NCR-South > New Delhi > Delhi > North > New Delhi > NCR-HAR > India,Pharmacy,[object Object],28.4990891,77.2508821,2802/32 Tuglakabad Ext New Delhi,DSR-GT-NCR-772
Aggarwal Store,TG022481,Metro > ASE-GT-NCR-North > New Delhi > Delhi > North > New Delhi > NCR-HAR > India,Traditional Grocery,[object Object],28.64868,77.1160215,A-2 DDA market,DSR-GT-DEL-783
CHAUHAN SUPER MART,MGS01925,Metro > ASE-GT-NCR-North > New Delhi > Delhi > North > New Delhi > NCR-HAR > India,MG Supermarket,[object Object],28.6115699,77.0698217,"C-36,Dhan Sanchai Bhawan,G.F, Metro station Uttam Nagar East Opp Gate No-2 Near Himalaya Sagar Restaurant",DSR-GT-NCR-424
Om medicos,PH098967,Metro > ASE-GT-NCR-South > New Delhi > Delhi > North > New Delhi > NCR-HAR > India,Pharmacy,[object Object],28.4954397,77.3252791,B6 shop no 9 opp government school,DSR-GT-NCR-610
"Malini Anand, Janak Puri Centre-Silver",CL002512,Metro > ASE-SPT-NCR-North-West 2 > New Delhi > Delhi > North > New Delhi > North Metro SPT > India,Clinic,[object Object],28.615286,77.0874467,"C-2 -C 235, main road near dabri mor",FSA-SPT-NCR-016
Gupta Medical Store,PH027503,Metro > ASE-GT-NCR-South > New Delhi > Delhi > North > New Delhi > NCR-HAR > India,Pharmacy,[object Object],28.5461871,77.1966002,C-20 SDA Shoping centre New Delhi-16,DSR-NCR-041
Shri Radhey medicos,PH127035,Metro > ASE-GT-NCR-East > New Delhi > Delhi > North > New Delhi > NCR-HAR > India,Pharmacy,[object Object],28.6705951,77.2846296,Bihari colony shahdara,DSR-GT-NCR-504
AAR AAR MEDICOS,PH099063,Metro > ASE-GT-NCR-North > New Delhi > Delhi > North > New Delhi > NCR-HAR > India,Pharmacy,[object Object],28.6190513,77.0789823,C1/13 opposite Mata chanan devi,DSR-GT-NCR-629
Pampered Paws(ROA)-Silver,PS007295,Metro > ASE-SPT-NCR-North-West 2 > New Delhi > Delhi > North > New Delhi > North Metro SPT > India,Petshop,[object Object],28.70533753,77.19032289,"F-14/20 Second Floor, near Vodafone Store, Model Town Phase 2, New Delhi, Delhi 110009",DSR-SPT-NCR-400
Discount medicos,PH116386,Metro > ASE-GT-NCR-North > New Delhi > Delhi > North > New Delhi > NCR-HAR > India,Pharmacy,[object Object],28.7232263,77.2262579,H no-A-289/1shop no-2 st no-9 village,DSR-GT-NCR-857
Pari Medicos,PH043860,Metro > ASE-GT-NCR-South > New Delhi > Delhi > North > New Delhi > NCR-HAR > India,Pharmacy,[object Object],28.519585,77.169767,"123-9, Kishan Garh, Near Gaushala Mandir, Vasant kunj, New Delhi-110070",DSR-NCR-036
Gulati Medical Stores,PH043393,Metro > ASE-GT-NCR-East > New Delhi > Delhi > North > New Delhi > NCR-HAR > India,Pharmacy,[object Object],28.6726704,77.2909074,"551, 1st Floor, Main Bazar, Shahdera",DSR-GT-NCR-504
Goyal Medical Store,PH058759,Metro > ASE-GT-NCR-South > New Delhi > Delhi > North > New Delhi > NCR-HAR > India,Pharmacy,[object Object],28.4897195,77.3111165,C-38 2nd 60 Foota Road Molarband Extension,DSR-GT-NCR-610
Standard Medicos 1,PH130812,Metro > ASE-GT-NCR-North > New Delhi > Delhi > North > New Delhi > NCR-HAR > India,Pharmacy,[object Object],28.6155989,77.087636,Janakpuri,DSR-GT-NCR-629
Aggarwal Medical Store,PH005397,Metro > ASE-GT-NCR-North > New Delhi > Delhi > North > New Delhi > NCR-HAR > India,Pharmacy,[object Object],28.5969124,77.1336936,"6/1G,GOPINATH BAZAR,DELHI CANTT DELHI-110010",DSR-NCR-032
Bisht Medical Store,PH127941,Metro > ASE-GT-NCR-North > New Delhi > Delhi > North > New Delhi > NCR-HAR > India,Pharmacy,[object Object],28.6439185,77.0265472,Shop no 2 Kamal Pur near by Burari,DSR-GT-NCR-457
Beauty & Wellness A Unit For Aggarwal Agency,DS005320,Metro > ASE-GT-NCR-South > New Delhi > Delhi > North > New Delhi > NCR-HAR > India,MG Supermarket,[object Object],28.5512406,77.2073103,"E-34, HAUZ KHAS MARKET, HAUZ KHAS, South Delhi, , Delhi, 110016",DSR-GT-NCR-508
kk medicose,PH053603,Metro > ASE-GT-NCR-South > New Delhi > Delhi > North > New Delhi > NCR-HAR > India,Pharmacy,[object Object],28.4990647,77.2507996,jaitpur main road,DSR-GT-NCR-772
Sankhla Pet Shop(ROA)-Silver,PS000605,Metro > ASE-SPT-NCR-North-West 2 > New Delhi > Delhi > North > New Delhi > North Metro SPT > India,Petshop,[object Object],28.52002626,77.22622325,"P-2 404, SULTANPURI",FSA-SPT-NCR-019
Gargi medicos,PH092849,Metro > ASE-GT-NCR-South > New Delhi > Delhi > North > New Delhi > NCR-HAR > India,Pharmacy,[object Object],28.5333838,77.3002998,A272/chauhan market main road,DSR-GT-NCR-772
Hayat chamist and cosmetics,PH121950,Metro > ASE-GT-NCR-North > New Delhi > Delhi > North > New Delhi > NCR-HAR > India,Pharmacy,[object Object],28.7233594,77.2261434,C-133/1 near iqra masjid gali no-9,DSR-GT-NCR-857
The new Dheeraj medicos,PH125891,Metro > ASE-GT-NCR-North > New Delhi > Delhi > North > New Delhi > NCR-HAR > India,Pharmacy,[object Object],28.7270992,77.2233632,Gali no-12 wazirabad Village,DSR-GT-NCR-857
Janta medicos Store,PH116986,Metro > ASE-GT-NCR-South > New Delhi > Delhi > North > New Delhi > NCR-HAR > India,Pharmacy,[object Object],28.4991265,77.2508714,"D-441,pul Pharlad Pur",DSR-GT-NCR-772
JANTA AUSHADHI,PH128474,Metro > ASE-GT-NCR-North > New Delhi > Delhi > North > New Delhi > NCR-HAR > India,Pharmacy,[object Object],28.60810671,77.10087908,Rz-32 shop no 02 pankha road,DSR-GT-NCR-760
ASHOKA MEDICOS,PH060596,Metro > ASE-GT-NCR-North > New Delhi > Delhi > North > New Delhi > NCR-HAR > India,Pharmacy,[object Object],28.630585,77.1183333,"Shop No . 21 , A - One , D . D . A  . Market  , Near  Mother  Dairy",DSR-GT-DEL-783
SAPNA MEDICOS,PH130813,Metro > ASE-GT-NCR-North > New Delhi > Delhi > North > New Delhi > NCR-HAR > India,Pharmacy,[object Object],28.6333812,77.0900618,B-1/133 SHOP NO 3,DSR-NCR-031
Bajaj Medical Store(ROA),PH005246,Metro > ASE-GT-NCR-East > New Delhi > Delhi > North > New Delhi > NCR-HAR > India,Pharmacy,[object Object],28.669717,77.3110264,"B127, Jhilmil Colonydelhi,",DSR-NCR-154
Shingh Medicos,PH110751,Metro > ASE-GT-NCR-North > New Delhi > Delhi > North > New Delhi > NCR-HAR > India,Pharmacy,[object Object],28.6666269,77.0658078,Chandar vihar,DSR-GT-NCR-652
Krishna medicos,PH121946,Metro > ASE-GT-NCR-North > New Delhi > Delhi > North > New Delhi > NCR-HAR > India,Pharmacy,[object Object],28.6115645,77.0698045,A-5 ram dutt enclave uttam,DSR-GT-NCR-424
Sharnam medicos,PH040701,Metro > ASE-GT-NCR-North > New Delhi > Delhi > North > New Delhi > NCR-HAR > India,Pharmacy,[object Object],28.7003805,77.1063537,shop no.- 6 sec-3 Rohini Delhi 110085,DSR-NCR-160
Bala Ji Medicos,PH047264,Metro > ASE-GT-NCR-North > New Delhi > Delhi > North > New Delhi > NCR-HAR > India,Pharmacy,[object Object],28.5963935,77.1230525,"1-232-14-Ground Floor Laxmi Bhawan,Sadar bazar Delhi Cantt, New Delhi",DSR-NCR-032
dk medicos,PH051490,Metro > ASE-GT-NCR-South > New Delhi > Delhi > North > New Delhi > NCR-HAR > India,Pharmacy,[object Object],28.499074,77.2507529,A305 molarband,DSR-GT-NCR-772
Anandi Medicos,PH095102,Metro > ASE-GT-NCR-North > New Delhi > Delhi > North > New Delhi > NCR-HAR > India,Pharmacy,[object Object],28.6190652,77.0789954,Shop no G -3 Vikas Surya Janak plaza,DSR-GT-NCR-629
Shree shyam medicos,WP002895,Metro > ASE-GT-NCR-East > New Delhi > Delhi > North > New Delhi > NCR-HAR > India,Wholesale Pharmacy,[object Object],28.6840122,77.2994348,New modern shahdara,DSR-GT-NCR-504
USHA MEDICOS,PH112963,Metro > ASE-GT-NCR-North > New Delhi > Delhi > North > New Delhi > NCR-HAR > India,Pharmacy,[object Object],28.6228865,77.0709442,SHOP NO 3 A-1/B,DSR-NCR-031
Happy Medical Store,PH097248,Metro > ASE-GT-NCR-North > New Delhi > Delhi > North > New Delhi > NCR-HAR > India,Pharmacy,[object Object],28.7351466,77.1454572,Village & Post Badli Banjara Basti,DSR-GT-NCR-457
BISHT MEDICOS,PH041134,Metro > ASE-GT-NCR-North > New Delhi > Delhi > North > New Delhi > NCR-HAR > India,Pharmacy,[object Object],28.6085312,77.0941167,"C-5/9,VASHIT PARK NEAR BY SHAKUNTALAHOSPITAL SAGAR PUR",DSR-GT-NCR-760
Radha Medicos,PH127931,Metro > ASE-GT-NCR-North > New Delhi > Delhi > North > New Delhi > NCR-HAR > India,Pharmacy,[object Object],28.7595961,77.1627237,Gali no 14 batta road Swaroop,DSR-GT-NCR-457
RAJ MANDIR HYPER MARKET (Uttam Nagar),DS015491,Metro > ASE-GT-NCR-North > New Delhi > Delhi > North > New Delhi > NCR-HAR > India,MG Hypermarket,[object Object],28.6115649,77.0696335,"A-12,13,13 A,Milap Nagar,Uttam Nagar-110059",DSR-GT-NCR-424
All India Medicos,PH041307,Metro > ASE-GT-NCR-North > New Delhi > Delhi > North > New Delhi > NCR-HAR > India,Pharmacy,[object Object],28.7109184,77.1072215,Shop No -7 Csc-Ii Sec-6 Rohini.,DSR-NCR-160
Chawla chemist,PH043971,Metro > ASE-GT-NCR-South > New Delhi > Delhi > North > New Delhi > NCR-HAR > India,Pharmacy,[object Object],28.5603016,77.2072856,"20/1/2 Main Market, Yusuf Sarai, New Del",DSR-NCR-041
Mittal medicos,WP002960,Metro > ASE-GT-NCR-East > New Delhi > Delhi > North > New Delhi > NCR-HAR > India,Wholesale Pharmacy,[object Object],28.6820713,77.285779,Shivaji park,DSR-GT-NCR-504
Nine Eleven dep store,DS007825,Metro > ASE-GT-NCR-South > New Delhi > Delhi > North > New Delhi > NCR-HAR > India,MG Supermarket,[object Object],28.5627802,77.1938795,87A/3 Krishna nagar SDE new delhi,DSR-GT-NCR-508
APNA PHARMACY,PH118355,Metro > ASE-GT-NCR-South > New Delhi > Delhi > North > New Delhi > NCR-HAR > India,Pharmacy,[object Object],28.5362456,77.1410332,"C-8,DDA MARKET VASANT KUNJ NEW",DSR-GT-NCR-503
Tarun Medical Store(ROA),PH012496,Metro > ASE-GT-NCR-East > New Delhi > Delhi > North > New Delhi > NCR-HAR > India,Pharmacy,[object Object],28.65548167,77.31057,"Vishwas Nagar,Shahdara",DSR-NCR-154
Prakash medicos,PH112964,Metro > ASE-GT-NCR-North > New Delhi > Delhi > North > New Delhi > NCR-HAR > India,Pharmacy,[object Object],28.6665883,77.0657851,Rzs138 50 futa road nihal vihar,DSR-GT-NCR-652
National Provision Store,PH108941,Metro > ASE-GT-NCR-North > New Delhi > Delhi > North > New Delhi > NCR-HAR > India,Pharmacy,[object Object],28.6486945,77.1160463,C4E market shop no 16,DSR-GT-DEL-783
DELHI AGENCIES <D0283>,PH041142,Metro > ASE-GT-NCR-North > New Delhi > Delhi > North > New Delhi > NCR-HAR > India,Pharmacy,[object Object],28.6043472,77.1070225,"RZ-46,PALAM ROAD EAST SAGARPURNEW DELHI-110046",DSR-GT-NCR-760
Jindal Store(ROA),TG010190,Metro > ASE-GT-NCR-North > New Delhi > Delhi > North > New Delhi > NCR-HAR > India,Traditional Grocery,[object Object],28.6405163,77.0317051,B8-49 Sec 18 Rohini 110085,DSR-NCR-037
Apna Medicos,PH108942,Metro > ASE-GT-NCR-North > New Delhi > Delhi > North > New Delhi > NCR-HAR > India,Pharmacy,[object Object],28.6486951,77.1160224,"8, Pratap Nagar maya enclave",DSR-GT-DEL-783
Prime general Store,MGS005362,Metro > ASE-GT-NCR-South > New Delhi > Delhi > North > New Delhi > NCR-HAR > India,MG Supermarket,[object Object],28.4991079,77.2511201,"DPT-021, PRIME TOWER, okhla  0",DSR-GT-NCR-572
Rakesh store,TG022482,Metro > ASE-GT-NCR-North > New Delhi > Delhi > North > New Delhi > NCR-HAR > India,Traditional Grocery,[object Object],28.61599,77.0896604,Shop no 124 Jankapuri,DSR-GT-NCR-629
Ashoka medicos,PH121954,Metro > ASE-GT-NCR-North > New Delhi > Delhi > North > New Delhi > NCR-HAR > India,Pharmacy,[object Object],28.6115688,77.0698211,Metro pillar no 722 gulabh bagh main,DSR-GT-NCR-424
BANKEY BIHARI MEGA STORE,DS015268,Metro > ASE-GT-NCR-East > New Delhi > Delhi > North > New Delhi > NCR-HAR > India,MG Supermarket,[object Object],28.6784525,77.2882474,"SECOND FLOOR, 16690, EAST ROHTASH NAGAR, EAST DELHI, DELHI 32",DSR-GT-NCR-504
Madhav medical Store,PH098968,Metro > ASE-GT-NCR-South > New Delhi > Delhi > North > New Delhi > NCR-HAR > India,Pharmacy,[object Object],28.502865,77.3291401,Shop no 10 harsh vihar jaitpur,DSR-GT-NCR-610
Sachdeva Medicos,PH126137,Metro > ASE-GT-NCR-North > New Delhi > Delhi > North > New Delhi > NCR-HAR > India,Pharmacy,[object Object],28.75698676,77.1654153,Sant Nagar Main Market,DSR-GT-NCR-457
Pet Paradise(ROA)-Platinum,PS001777,Metro > ASE-SPT-NCR-North-West 1 > New Delhi > Delhi > North > New Delhi > North Metro SPT > India,Petshop,[object Object],28.59631,77.080965,"RZF-130A, Gali Number 3, Mahavir Enclave I, Mahavir Enclave Part 2, Mahavir Enclave, New Delhi, Delhi 110045",FSA-SPT-HAR-014
Rishabh medicos,PH053601,Metro > ASE-GT-NCR-South > New Delhi > Delhi > North > New Delhi > NCR-HAR > India,Pharmacy,[object Object],28.5054036,77.3231365,sourab vihar jaitpur,DSR-GT-NCR-572
AVIKA MULTI STORE,DS018066,Metro > ASE-GT-NCR-North > New Delhi > Delhi > North > New Delhi > NCR-HAR > India,Super Grocery,[object Object],28.7388892,77.1800828,Gali No-13 Wazirabad village Near Coprative bank,DSR-GT-NCR-857
Gupta enterprises,MGS005387,Metro > ASE-GT-NCR-South > New Delhi > Delhi > North > New Delhi > NCR-HAR > India,MG Supermarket,[object Object],28.5001155,77.326473,"C-370B, om nagar main Tanki road,",DSR-GT-NCR-610
Budget bazar,DS023050,Metro > ASE-GT-NCR-North > New Delhi > Delhi > North > New Delhi > NCR-HAR > India,Super Grocery,[object Object],28.7305396,77.2232819,Avm complex gali no-16 wazirabad,DSR-GT-NCR-857
SHREE BALA JI MEDICOS,PH044248,Metro > ASE-GT-NCR-East > New Delhi > Delhi > North > New Delhi > NCR-HAR > India,Pharmacy,[object Object],28.6769382,77.2895724,"1157-A,GROUND FLOOR MAIN BABARPUR ROAD EAST ROHTASH NAGAR DELHI 32",DSR-GT-NCR-504
Mittal medicos,WP002959,Metro > ASE-GT-NCR-East > New Delhi > Delhi > North > New Delhi > NCR-HAR > India,Wholesale Pharmacy,[object Object],28.682037,77.2857561,Shivaji park,DSR-GT-NCR-504
Kavish Medicos,PH109915,Metro > ASE-GT-NCR-North > New Delhi > Delhi > North > New Delhi > NCR-HAR > India,Pharmacy,[object Object],28.6666521,77.0657706,Chandar vihar Nilothi Extn,DSR-GT-NCR-652
Shraddha medicos,PH116296,Metro > ASE-GT-NCR-South > New Delhi > Delhi > North > New Delhi > NCR-HAR > India,Pharmacy,[object Object],28.4991606,77.3119049,"29H, Gali no.6, Molarband Extn.",DSR-GT-NCR-572
Helpline Medicos,PH127940,Metro > ASE-GT-NCR-North > New Delhi > Delhi > North > New Delhi > NCR-HAR > India,Pharmacy,[object Object],28.6438975,77.0265765,Gali no 6 Sant Nagar Burari,DSR-GT-NCR-457
Garg medical,PH108943,Metro > ASE-GT-NCR-North > New Delhi > Delhi > North > New Delhi > NCR-HAR > India,Pharmacy,[object Object],28.6958481,77.081399,"G-3/75 shop no-1 ground floor, sec-",DSR-NCR-037
CHEMISTAA INDIA,PH066721,Metro > ASE-GT-NCR-North > New Delhi > Delhi > North > New Delhi > NCR-HAR > India,Pharmacy,[object Object],28.6487121,77.1160176,"WZ - 409C JANAK PARK, HARI NAGAR",DSR-GT-DEL-783
Anand Medical Store,PH053867,Metro > ASE-GT-NCR-East > New Delhi > Delhi > North > New Delhi > NCR-HAR > India,Pharmacy,[object Object],28.683422,77.2835236,"1, 9944 Street no 3 West Gorakh Park Shahdara",DSR-GT-NCR-504
ARORA DEP. STORE,DS001343,Metro > ASE-GT-NCR-South > New Delhi > Delhi > North > New Delhi > NCR-HAR > India,MG Supermarket,[object Object],28.5311963,77.1539704,"SNO21,22,CSC,POCKET-10,VASANT KUNJ,SEC-B",DSR-GT-NCR-503
Shiva Store-Silver,PS019449,Metro > ASE-SPT-NCR-North-West 2 > New Delhi > Delhi > North > New Delhi > North Metro SPT > India,Petshop,[object Object],28.7000972,77.0585742,"B-704 gaurav nagar, Anand nagar",FSA-SPT-NCR-019
Pandey medical Store,PH095162,Metro > ASE-GT-NCR-South > New Delhi > Delhi > North > New Delhi > NCR-HAR > India,Pharmacy,[object Object],28.4900599,77.3077101,E-3 kh no 691/saurabh vihar,DSR-GT-NCR-572
Thakur Medicos,PH031872,Metro > ASE-GT-NCR-North > New Delhi > Delhi > North > New Delhi > NCR-HAR > India,Pharmacy,[object Object],28.6958356,77.0814308,"F1/138, Shop No :1, Sector 11, Rohini",DSR-NCR-037
A.R pharmacy,PH108841,Metro > ASE-GT-NCR-North > New Delhi > Delhi > North > New Delhi > NCR-HAR > India,Pharmacy,[object Object],28.7255497,77.2170541,SHOP no-3 gali no-3 sangam vihar,DSR-GT-NCR-857
BANKEY BIHARI MEGA STORE,MGS007456,Metro > ASE-GT-NCR-North > New Delhi > Delhi > North > New Delhi > NCR-HAR > India,MG Supermarket,[object Object],28.6666532,77.0656303,"plot No.C-24,25&26,Phase-2,Vikas",DSR-GT-NCR-652
arun medipoint,PH051091,Metro > ASE-GT-NCR-South > New Delhi > Delhi > North > New Delhi > NCR-HAR > India,Pharmacy,[object Object],28.5088671,77.3212783,naala road jaat pur,DSR-GT-NCR-572
gulabchand,DS017826,Metro > ASE-GT-NCR-South > New Delhi > Delhi > North > New Delhi > NCR-HAR > India,Super Grocery,[object Object],28.505413,77.3231306,Jaitpur Nala road,DSR-GT-NCR-610
MedzG chemist,PH116510,Metro > ASE-GT-NCR-South > New Delhi > Delhi > North > New Delhi > NCR-HAR > India,Pharmacy,[object Object],28.4991797,77.2508052,Gyan Mandir road near banke bihari,DSR-GT-NCR-772
MEDICINE POINT,PH080142,Metro > ASE-GT-NCR-South > New Delhi > Delhi > North > New Delhi > NCR-HAR > India,Pharmacy,[object Object],28.5093481,77.3178257,"N-510, gali no.19, sourabh vihar,",DSR-GT-NCR-610
Mohan medicos,PH121953,Metro > ASE-GT-NCR-North > New Delhi > Delhi > North > New Delhi > NCR-HAR > India,Pharmacy,[object Object],28.7410317,77.2186456,Gali no-6 jagatpur near McD school,DSR-GT-NCR-857
Sagar madicos,PH053595,Metro > ASE-GT-NCR-South > New Delhi > Delhi > North > New Delhi > NCR-HAR > India,Pharmacy,[object Object],28.4916886,77.3111952,tanki road,DSR-GT-NCR-572
Goyal store,DS022353,Metro > ASE-GT-NCR-South > New Delhi > Delhi > North > New Delhi > NCR-HAR > India,Super Grocery,[object Object],28.5833514,77.2206234,32a Khanna market new Delhi 110003,DSR-NCR-041
Balaji Medicos,PH101590,Metro > ASE-GT-NCR-South > New Delhi > Delhi > North > New Delhi > NCR-HAR > India,Pharmacy,[object Object],28.4949507,77.3252173,Shop no 2 ground floor,DSR-GT-NCR-610
SHREYAM MEDICOS,PH056026,Metro > ASE-GT-NCR-North > New Delhi > Delhi > North > New Delhi > NCR-HAR > India,Pharmacy,[object Object],28.627065,77.1136217,C-17 (A) HARI NAGAR CLOCK TOWER NEAR CANARA BANK ND-64,DSR-GT-DEL-783
Citi Pet World(ROA)-Silver,PS000667,Metro > ASE-SPT-NCR-North-West 1 > New Delhi > Delhi > North > New Delhi > North Metro SPT > India,Petshop,[object Object],28.5307409,77.2199975,97/1A Khirki Pres Enclave Road New Delhi,FSA-SPT-NCR-018
JANAK PHARMACY,PH125892,Metro > ASE-GT-NCR-North > New Delhi > Delhi > North > New Delhi > NCR-HAR > India,Pharmacy,[object Object],28.6219917,77.0853583,A5/B-A5C SHOP NO 10,DSR-NCR-031
All india medicos,PH126268,Metro > ASE-GT-NCR-South > New Delhi > Delhi > North > New Delhi > NCR-HAR > India,Pharmacy,[object Object],28.5570947,77.2027122,G48 third floor green park,DSR-NCR-041
KHATU SHYAM CHEMIST,PH044346,Metro > ASE-GT-NCR-South > New Delhi > Delhi > North > New Delhi > NCR-HAR > India,Pharmacy,[object Object],28.5616113,77.1974811,"163, shop no-2,3 Arjun Nagar",DSR-NCR-041
NEW SHARMA MEDICOS,PH122015,Metro > ASE-GT-NCR-North > New Delhi > Delhi > North > New Delhi > NCR-HAR > India,Pharmacy,[object Object],28.6461746,77.0606978,Pardhan Market chandar vihar,DSR-GT-NCR-652
SHIVA MEDICOS,PH110230,Metro > ASE-GT-NCR-South > New Delhi > Delhi > North > New Delhi > NCR-HAR > India,Pharmacy,[object Object],28.531372,77.1538768,"Shop no-K-95/A,Vasant Kunj",DSR-GT-NCR-503
Gurmeet General Store,TG022483,Metro > ASE-GT-NCR-North > New Delhi > Delhi > North > New Delhi > NCR-HAR > India,Traditional Grocery,[object Object],28.6259491,77.1120252,C-84 Hari Nagar,DSR-GT-DEL-783
SS Aggarwal Cosmetics Pvt Ltd,WG000376,Metro > ASE-GT-NCR-North > New Delhi > Delhi > North > New Delhi > NCR-HAR > India,Wholesale Grocery,[object Object],28.6237601,77.0811056,"A-3-91,Janak puri New Delhi-110058",DSR-NCR-031
Cure & Care Chemists,PH054028,Metro > ASE-GT-NCR-North > New Delhi > Delhi > North > New Delhi > NCR-HAR > India,Pharmacy,[object Object],28.6111794,77.1091467,"Shop No,15-9,D.D.A Commercial,Compelex,Nangal Raya, New Delhi-110046",DSR-GT-NCR-760
Get well Medicos,PH118814,Metro > ASE-GT-NCR-North > New Delhi > Delhi > North > New Delhi > NCR-HAR > India,Pharmacy,[object Object],28.6181399,77.0937773,Shop no 4 c4d dda janakpuri,DSR-GT-NCR-629
Divyansh medicos,PH098969,Metro > ASE-GT-NCR-South > New Delhi > Delhi > North > New Delhi > NCR-HAR > India,Pharmacy,[object Object],28.5037254,77.3240077,Nala road shurkh bazzar Jaitpur new,DSR-GT-NCR-610
KMS VETS -Silver,CL005156,Metro > ASE-SPT-NCR-North-West 1 > New Delhi > Delhi > North > New Delhi > North Metro SPT > India,Clinic,[object Object],28.5373725,77.2103975,"C-71, Malviya Nagar",FSA-SPT-NCR-018
Suryan medicos,PH112965,Metro > ASE-GT-NCR-North > New Delhi > Delhi > North > New Delhi > NCR-HAR > India,Pharmacy,[object Object],28.6115595,77.0698232,D2-90/91 jeevan park uttam nagar,DSR-GT-NCR-424
Sree Bala Jee Medico,PH014619,Metro > ASE-GT-NCR-South > New Delhi > Delhi > North > New Delhi > NCR-HAR > India,Pharmacy,[object Object],28.4990521,77.2508035,Ncr,DSR-GT-NCR-772
Shri prithvi dass medicos,PH121948,Metro > ASE-GT-NCR-North > New Delhi > Delhi > North > New Delhi > NCR-HAR > India,Pharmacy,[object Object],28.6115573,77.0698232,G1/178 opp SBI road uttam nagar,DSR-GT-NCR-424
Brij Health Point,PH128917,Metro > ASE-GT-NCR-North > New Delhi > Delhi > North > New Delhi > NCR-HAR > India,Pharmacy,[object Object],28.7622318,77.1907587,Shop no 1 ground floor Laxmi Vihar,DSR-GT-NCR-457
Bansal chemist & druggist,PH095159,Metro > ASE-GT-NCR-South > New Delhi > Delhi > North > New Delhi > NCR-HAR > India,Pharmacy,[object Object],28.4904856,77.3055511,Shop no 68/9 main tajpur,DSR-GT-NCR-610
Shivani Medicos Badli,PH097246,Metro > ASE-GT-NCR-North > New Delhi > Delhi > North > New Delhi > NCR-HAR > India,Pharmacy,[object Object],28.7328676,77.1413039,"Shop no -1 Laxmi Market, Badli Near",DSR-GT-NCR-457
BANSI INSTITUTUTIONAL SUPPLIERS,DS007824,Metro > ASE-GT-NCR-South > New Delhi > Delhi > North > New Delhi > NCR-HAR > India,MG Supermarket,[object Object],28.5847786,77.2205762,93-A Khanna Market Lodhi Road New Delhi -03,DSR-NCR-041
Super medicos,PH128928,Metro > ASE-GT-NCR-North > New Delhi > Delhi > North > New Delhi > NCR-HAR > India,Pharmacy,[object Object],28.7278498,77.2170346,Kh no-244/6 gali no-5 sangam vihar,DSR-GT-NCR-857
NIRMAL MEDICOS,PH111049,Metro > ASE-GT-NCR-North > New Delhi > Delhi > North > New Delhi > NCR-HAR > India,Pharmacy,[object Object],28.6552806,77.0667292,CHANDAR VIHAR MARKET,DSR-GT-NCR-652
Raj medicos,PH109965,Metro > ASE-GT-NCR-North > New Delhi > Delhi > North > New Delhi > NCR-HAR > India,Pharmacy,[object Object],28.738891,77.1800821,Main chowk near McD school,DSR-GT-NCR-857
Sandeep medical store ,PH054828,Metro > ASE-GT-NCR-South > New Delhi > Delhi > North > New Delhi > NCR-HAR > India,Pharmacy,[object Object],28.5045559,77.3223483,9818626068,DSR-GT-NCR-772
nasnal medicos,PH053598,Metro > ASE-GT-NCR-South > New Delhi > Delhi > North > New Delhi > NCR-HAR > India,Pharmacy,[object Object],28.4991368,77.250974,Tanki road,DSR-GT-NCR-772
Aarogyam pharmacy,PH095161,Metro > ASE-GT-NCR-South > New Delhi > Delhi > North > New Delhi > NCR-HAR > India,Pharmacy,[object Object],28.5044799,77.3202708,I-400 kh no 665,DSR-GT-NCR-610
Negi Medicos,PH129464,Metro > ASE-GT-NCR-North > New Delhi > Delhi > North > New Delhi > NCR-HAR > India,Pharmacy,[object Object],28.7481561,77.2014764,Nalanda School Back Side Sant,DSR-GT-NCR-457
Manish Agencies Retails Pvt Ltd(Janakpuri A Block),DS017995,Metro > ASE-GT-NCR-North > New Delhi > Delhi > North > New Delhi > NCR-HAR > India,MG Supermarket,[object Object],28.6237146,77.0806071,"A-3-225,Basement, SS Mota Singh Marg,Janakpuri, Delhi-110058",DSR-NCR-031
Shivam Medicos,PH047361,Metro > ASE-GT-NCR-North > New Delhi > Delhi > North > New Delhi > NCR-HAR > India,Pharmacy,[object Object],28.6117492,77.0568526,"RZ-L-21-287, Ground Floor Gali No 5, Geetanjali Park West Sagarpur",DSR-GT-NCR-760
JAI BALAJI MEDICOS,PH048955,Metro > ASE-GT-NCR-North > New Delhi > Delhi > North > New Delhi > NCR-HAR > India,Pharmacy,[object Object],28.7088774,77.1052839,"H-32 ,30 sector-3 Rohini  delhi-85",DSR-NCR-160
GUPTA CHEMIST,PH104118,Metro > ASE-GT-NCR-North > New Delhi > Delhi > North > New Delhi > NCR-HAR > India,Pharmacy,[object Object],28.6882814,77.1936263,A-10 C.C COLONY R.P BAGH,DSR-NCR-160
Shivam ent.,PH041372,Metro > ASE-GT-NCR-North > New Delhi > Delhi > North > New Delhi > NCR-HAR > India,Pharmacy,[object Object],28.7114917,77.1073917,A-3-2 sector 5 Rohini Delhi 85,DSR-NCR-160
Gupta medical store,PH116286,Metro > ASE-GT-NCR-South > New Delhi > Delhi > North > New Delhi > NCR-HAR > India,Pharmacy,[object Object],28.5053954,77.3231145,"I-195,main jaitpur love kush chowk",DSR-GT-NCR-772
One India pharmacy,PH098910,Metro > ASE-GT-NCR-South > New Delhi > Delhi > North > New Delhi > NCR-HAR > India,Pharmacy,[object Object],28.4989561,77.2512065,L-1 sourabh vihar badarpur,DSR-GT-NCR-610
SHIV MADICOSE,PH125216,Metro > ASE-GT-NCR-North > New Delhi > Delhi > North > New Delhi > NCR-HAR > India,Pharmacy,[object Object],28.6994617,77.1102224,B-6/186 sec 3 rohini,DSR-NCR-160
Soni chemist,PH087337,Metro > ASE-GT-NCR-South > New Delhi > Delhi > North > New Delhi > NCR-HAR > India,Pharmacy,[object Object],28.5196259,77.1643258,79/9 kishan garh  0,DSR-NCR-036
SHRI GAURI GOPAL MEDICARE,PH116387,Metro > ASE-GT-NCR-North > New Delhi > Delhi > North > New Delhi > NCR-HAR > India,Pharmacy,[object Object],28.6665899,77.0657126,"RZF-13,Satsang Road, Near Sunil",DSR-GT-NCR-652
Degree Medicos,WP000748,Metro > ASE-GT-NCR-South > New Delhi > Delhi > North > New Delhi > NCR-HAR > India,Wholesale Pharmacy,[object Object],28.5202369,77.1715607,"Shop no.23, Ground Floor, Near Gausala, Kishangarh, New Delhi",DSR-NCR-036
Sheel Medicos,PH050734,Metro > ASE-GT-NCR-North > New Delhi > Delhi > North > New Delhi > NCR-HAR > India,Pharmacy,[object Object],28.6082303,77.0971378,"RZH-67,Sastri Mkt,Sagar pur, New Delhi-110046",DSR-GT-NCR-760
Shree shyam medicos,PH130386,Metro > ASE-GT-NCR-East > New Delhi > Delhi > North > New Delhi > NCR-HAR > India,Pharmacy,[object Object],28.669647,77.2885244,"386 bholanath nagar, shahdara",DSR-GT-NCR-504
Life line Medicos,PH095148,Metro > ASE-GT-NCR-South > New Delhi > Delhi > North > New Delhi > NCR-HAR > India,Pharmacy,[object Object],28.5059335,77.3272488,Shop 3 jaitpur road,DSR-GT-NCR-572
